[
  {
    "type": "Feature",
    "properties": {
      "@id": "node/291667428",
      "addr:housenumber": "411",
      "addr:street": "Boulevard Sainte-Anne",
      "amenity": "fast_food",
      "brand": "Subway",
      "brand:wikidata": "Q244457",
      "brand:wikipedia": "en:Subway (restaurant)",
      "cuisine": "sandwich",
      "name": "Subway",
      "takeaway": "yes"
    },
    "geometry": {
      "type": "Point",
      "coordinates": [
        -71.1969194,
        46.8532654
      ]
    },
    "id": "node/291667428"
  },
  {
    "type": "Feature",
    "properties": {
      "@id": "node/291667477",
      "amenity": "fast_food",
      "brand": "McDonald's",
      "brand:wikidata": "Q38076",
      "brand:wikipedia": "en:McDonald's",
      "cuisine": "burger",
      "name": "McDonald's",
      "takeaway": "yes",
      "website": "http://www.mcdonalds.ca/"
    },
    "geometry": {
      "type": "Point",
      "coordinates": [
        -71.1955177,
        46.8536731
      ]
    },
    "id": "node/291667477"
  },
  {
    "type": "Feature",
    "properties": {
      "@id": "node/291667527",
      "amenity": "cafe",
      "brand": "Tim Hortons",
      "brand:wikidata": "Q175106",
      "brand:wikipedia": "en:Tim Hortons",
      "cuisine": "coffee_shop",
      "name": "Tim Hortons",
      "takeaway": "yes"
    },
    "geometry": {
      "type": "Point",
      "coordinates": [
        -71.1985268,
        46.8525973
      ]
    },
    "id": "node/291667527"
  },
  {
    "type": "Feature",
    "properties": {
      "@id": "node/300778266",
      "amenity": "fast_food",
      "brand": "McDonald's",
      "brand:wikidata": "Q38076",
      "brand:wikipedia": "en:McDonald's",
      "cuisine": "burger",
      "name": "McDonald's",
      "takeaway": "yes",
      "website": "http://www.mcdonalds.ca/"
    },
    "geometry": {
      "type": "Point",
      "coordinates": [
        -71.4302572,
        46.7526794
      ]
    },
    "id": "node/300778266"
  },
  {
    "type": "Feature",
    "properties": {
      "@id": "node/300998432",
      "addr:city": "Québec",
      "addr:housenumber": "1154",
      "addr:postcode": "G3E 1T2",
      "addr:street": "Rue de la Faune",
      "amenity": "fast_food",
      "brand": "McDonald's",
      "brand:wikidata": "Q38076",
      "brand:wikipedia": "en:McDonald's",
      "cuisine": "burger",
      "name": "McDonald's",
      "takeaway": "yes"
    },
    "geometry": {
      "type": "Point",
      "coordinates": [
        -71.3246168,
        46.8772388
      ]
    },
    "id": "node/300998432"
  },
  {
    "type": "Feature",
    "properties": {
      "@id": "node/303684736",
      "amenity": "fast_food",
      "cuisine": "burger",
      "internet_access": "wlan",
      "internet_access:fee": "no",
      "name": "Tim Hortons",
      "operator": "Restaurant Brands International Inc.",
      "website": "https://www.timhortons.com/",
      "wheelchair": "yes"
    },
    "geometry": {
      "type": "Point",
      "coordinates": [
        -71.2783325,
        46.8710015
      ]
    },
    "id": "node/303684736"
  },
  {
    "type": "Feature",
    "properties": {
      "@id": "node/321317989",
      "addr:city": "Québec",
      "addr:housenumber": "1972",
      "addr:postcode": "G3E 1L5",
      "addr:province": "Québec",
      "addr:street": "Rue de la Faune",
      "amenity": "fast_food",
      "brand": "Subway",
      "brand:wikidata": "Q244457",
      "brand:wikipedia": "en:Subway (restaurant)",
      "cuisine": "sandwich",
      "drive_through": "no",
      "name": "Subway",
      "operator": "Subway",
      "takeaway": "yes"
    },
    "geometry": {
      "type": "Point",
      "coordinates": [
        -71.3333171,
        46.8730263
      ]
    },
    "id": "node/321317989"
  },
  {
    "type": "Feature",
    "properties": {
      "@id": "node/345886369",
      "addr:city": "Québec",
      "addr:housenumber": "145",
      "addr:postcode": "G1R 1N4",
      "addr:province": "Québec",
      "addr:street": "Rue Saint-Jean",
      "amenity": "restaurant",
      "cuisine": "burger",
      "name": "Chez Victor",
      "opening_hours": "Su-Tu 11:30-21:00; We-Th 11:30-21:30; Fr-Sa 11:30-22:00",
      "phone": "+1-418-529-7702",
      "website": "https://chezvictorburger.com/"
    },
    "geometry": {
      "type": "Point",
      "coordinates": [
        -71.2258102,
        46.8076576
      ]
    },
    "id": "node/345886369"
  },
  {
    "type": "Feature",
    "properties": {
      "@id": "node/345890915",
      "addr:city": "Québec",
      "addr:housenumber": "800",
      "addr:postcode": "G1R 3P4",
      "addr:province": "Québec",
      "addr:street": "Rue d'Youville",
      "amenity": "fast_food",
      "brand": "Subway",
      "brand:wikidata": "Q244457",
      "brand:wikipedia": "en:Subway (restaurant)",
      "cuisine": "sandwich",
      "name": "Subway",
      "opening_hours": "Mo-We 07:00-24:00; Th,Fr 07:00-01:00; Sa 08:00-01:00; Su 09:00-24:00",
      "phone": "+1-418-694-2149",
      "takeaway": "yes"
    },
    "geometry": {
      "type": "Point",
      "coordinates": [
        -71.2147014,
        46.8122189
      ]
    },
    "id": "node/345890915"
  },
  {
    "type": "Feature",
    "properties": {
      "@id": "node/385037792",
      "addr:street": "Boulevard René-Lévesque Ouest",
      "amenity": "cafe",
      "cuisine": "afghan",
      "name": "Les Délices d'Ariana"
    },
    "geometry": {
      "type": "Point",
      "coordinates": [
        -71.2268761,
        46.8042975
      ]
    },
    "id": "node/385037792"
  },
  {
    "type": "Feature",
    "properties": {
      "@id": "node/385038554",
      "addr:housenumber": "196",
      "addr:street": "Rue Crémazie Ouest",
      "amenity": "cafe",
      "cuisine": "italian;pizza",
      "name": "Milano"
    },
    "geometry": {
      "type": "Point",
      "coordinates": [
        -71.2290374,
        46.8040152
      ]
    },
    "id": "node/385038554"
  },
  {
    "type": "Feature",
    "properties": {
      "@id": "node/385038700",
      "addr:city": "Québec",
      "addr:housenumber": "166",
      "addr:postcode": "G1R 1X7",
      "addr:province": "QC",
      "addr:street": "Rue Crémazie Ouest",
      "amenity": "cafe",
      "cuisine": "bagel",
      "name": "Bügel",
      "opening_hours": "Mo-We 07:00-19:00; Th-Fr 07:00-21:00; Sa-Su 07:00-19:00",
      "phone": "+1-418-523-7666",
      "website": "http://www.bugel-fabrique.ca/"
    },
    "geometry": {
      "type": "Point",
      "coordinates": [
        -71.2286512,
        46.8042384
      ]
    },
    "id": "node/385038700"
  },
  {
    "type": "Feature",
    "properties": {
      "@id": "node/386267989",
      "addr:city": "Québec",
      "addr:housenumber": "815",
      "addr:postcode": "G1R 1X4",
      "addr:province": "Québec",
      "addr:street": "Avenue Cartier",
      "amenity": "restaurant",
      "cuisine": "vietnamese",
      "name": "Ly-Hai",
      "phone": "+1-418-522-2031"
    },
    "geometry": {
      "type": "Point",
      "coordinates": [
        -71.2280964,
        46.8056059
      ]
    },
    "id": "node/386267989"
  },
  {
    "type": "Feature",
    "properties": {
      "@id": "node/386268031",
      "addr:city": "Québec",
      "addr:housenumber": "807",
      "addr:postcode": "G1R 2R8",
      "addr:province": "Québec",
      "addr:street": "Avenue Cartier",
      "amenity": "cafe",
      "cuisine": "coffee_shop",
      "name": "Café Castelo",
      "opening_hours": "Mo-We 07:00-18:00; Th,Fr 07:00-21:00; Sa,Su 08:00-18:00",
      "phone": "+1-418-523-9785",
      "website": "https://www.cafecastelo.com/",
      "wikimedia_commons": "File:807, avenue Cartier.jpg"
    },
    "geometry": {
      "type": "Point",
      "coordinates": [
        -71.2282331,
        46.8057012
      ]
    },
    "id": "node/386268031"
  },
  {
    "type": "Feature",
    "properties": {
      "@id": "node/386268032",
      "addr:city": "Québec",
      "addr:housenumber": "813",
      "addr:postcode": "G1R 2R8",
      "addr:province": "Québec",
      "addr:street": "Avenue Cartier",
      "amenity": "cafe",
      "cuisine": "sushi",
      "name": "Sushi Taxi",
      "opening_hours": "Mo,Tu 15:00-21:00; We 11:00-21:00; Th,Fr 11:00-22:00; Sa 14:00-22:00; Su 14:00-21:00",
      "phone": "+1-418-529-0068",
      "website": "https://www.sushitaxi.net/fr/"
    },
    "geometry": {
      "type": "Point",
      "coordinates": [
        -71.2281662,
        46.8056582
      ]
    },
    "id": "node/386268032"
  },
  {
    "type": "Feature",
    "properties": {
      "@id": "node/393559700",
      "amenity": "restaurant",
      "cuisine": "italian",
      "name": "Mike's"
    },
    "geometry": {
      "type": "Point",
      "coordinates": [
        -71.3582442,
        46.8380724
      ]
    },
    "id": "node/393559700"
  },
  {
    "type": "Feature",
    "properties": {
      "@id": "node/393559701",
      "amenity": "cafe",
      "brand": "Tim Hortons",
      "brand:wikidata": "Q175106",
      "brand:wikipedia": "en:Tim Hortons",
      "cuisine": "coffee_shop",
      "drive_through": "yes",
      "name": "Tim Hortons",
      "operator": "Restaurant Brands International Inc.",
      "takeaway": "yes",
      "website": "https://www.timhortons.com/"
    },
    "geometry": {
      "type": "Point",
      "coordinates": [
        -71.3551008,
        46.8356752
      ]
    },
    "id": "node/393559701"
  },
  {
    "type": "Feature",
    "properties": {
      "@id": "node/393559702",
      "amenity": "fast_food",
      "brand": "McDonald's",
      "brand:wikidata": "Q38076",
      "brand:wikipedia": "en:McDonald's",
      "cuisine": "burger",
      "drive_through": "yes",
      "internet_access": "wlan",
      "name": "McDonald's",
      "takeaway": "yes",
      "website": "http://www.mcdonalds.ca/"
    },
    "geometry": {
      "type": "Point",
      "coordinates": [
        -71.35486,
        46.8354772
      ]
    },
    "id": "node/393559702"
  },
  {
    "type": "Feature",
    "properties": {
      "@id": "node/400271605",
      "addr:city": "Québec",
      "addr:housenumber": "1029",
      "addr:postcode": "G1R 2S3",
      "addr:province": "Québec",
      "addr:street": "Avenue Cartier",
      "amenity": "cafe",
      "cuisine": "french",
      "internet_access": "wlan",
      "internet_access:fee": "no",
      "name": "Café Art Les Cousins",
      "outdoor_seating": "yes",
      "phone": "+14185228889",
      "shop": "bakery"
    },
    "geometry": {
      "type": "Point",
      "coordinates": [
        -71.2261058,
        46.8040304
      ]
    },
    "id": "node/400271605"
  },
  {
    "type": "Feature",
    "properties": {
      "@id": "node/400282934",
      "addr:city": "Québec",
      "addr:housenumber": "1147",
      "addr:postcode": "G1R 2S6",
      "addr:province": "Québec",
      "addr:street": "Avenue Cartier",
      "amenity": "restaurant",
      "cuisine": "burger",
      "name": "Le Rideau Rouge",
      "phone": "+1-418-977-6843"
    },
    "geometry": {
      "type": "Point",
      "coordinates": [
        -71.2251551,
        46.8032819
      ]
    },
    "id": "node/400282934"
  },
  {
    "type": "Feature",
    "properties": {
      "@id": "node/400283204",
      "addr:city": "Québec",
      "addr:housenumber": "1125",
      "addr:postcode": "G1R 2S6",
      "addr:province": "Québec",
      "addr:street": "Avenue Cartier",
      "amenity": "restaurant",
      "cuisine": "french",
      "name": "Petits Creux & Grands Crus",
      "opening_hours:signed": "no"
    },
    "geometry": {
      "type": "Point",
      "coordinates": [
        -71.2253035,
        46.8034128
      ]
    },
    "id": "node/400283204"
  },
  {
    "type": "Feature",
    "properties": {
      "@id": "node/400283356",
      "addr:city": "Québec",
      "addr:housenumber": "1145",
      "addr:postcode": "G1R 2S6",
      "addr:province": "Québec",
      "addr:street": "Avenue Cartier",
      "amenity": "restaurant",
      "cuisine": "pizza",
      "name": "Pizzédelic",
      "opening_hours:signed": "no"
    },
    "geometry": {
      "type": "Point",
      "coordinates": [
        -71.2252075,
        46.8033342
      ]
    },
    "id": "node/400283356"
  },
  {
    "type": "Feature",
    "properties": {
      "@id": "node/400292015",
      "amenity": "restaurant",
      "cuisine": "pizza",
      "name": "Piazzetta"
    },
    "geometry": {
      "type": "Point",
      "coordinates": [
        -71.2246267,
        46.8028495
      ]
    },
    "id": "node/400292015"
  },
  {
    "type": "Feature",
    "properties": {
      "@id": "node/400303536",
      "addr:city": "Québec",
      "addr:housenumber": "1191",
      "addr:postcode": "G1R 2G9",
      "addr:province": "Québec",
      "addr:street": "Avenue Cartier",
      "amenity": "fast_food",
      "cuisine": "sandwich",
      "name": "Sandwicherie Fastoche",
      "opening_hours": "Mo-Su 07:00-20:00"
    },
    "geometry": {
      "type": "Point",
      "coordinates": [
        -71.2244049,
        46.802595
      ]
    },
    "id": "node/400303536"
  },
  {
    "type": "Feature",
    "properties": {
      "@id": "node/400311753",
      "addr:housenumber": "1188",
      "addr:postcode": "G1R 2S6",
      "addr:street": "Avenue Cartier",
      "alt_name": "Sushi Métropolitain",
      "amenity": "cafe",
      "cuisine": "sushi",
      "name": "Eddie Sushi Bar",
      "phone": "+1 418 649 1096",
      "website": "https://eddiesushi.com/"
    },
    "geometry": {
      "type": "Point",
      "coordinates": [
        -71.2248255,
        46.8026291
      ]
    },
    "id": "node/400311753"
  },
  {
    "type": "Feature",
    "properties": {
      "@id": "node/400329755",
      "addr:city": "Québec",
      "addr:housenumber": "1094",
      "addr:postcode": "G1R 2S8",
      "addr:province": "Québec",
      "addr:street": "Avenue Cartier",
      "amenity": "fast_food",
      "brand": "Subway",
      "brand:wikidata": "Q244457",
      "brand:wikipedia": "en:Subway (restaurant)",
      "cuisine": "sandwich",
      "name": "Subway",
      "phone": "+1-418-522-2929",
      "takeaway": "yes"
    },
    "geometry": {
      "type": "Point",
      "coordinates": [
        -71.225731,
        46.8033489
      ]
    },
    "id": "node/400329755"
  },
  {
    "type": "Feature",
    "properties": {
      "@id": "node/400353663",
      "amenity": "cafe",
      "cuisine": "italian;coffee_shop",
      "description": "Alimentation fine, restaurant, café",
      "name": "Morena",
      "outdoor_seating": "yes",
      "shop": "grocery"
    },
    "geometry": {
      "type": "Point",
      "coordinates": [
        -71.2261851,
        46.8037049
      ]
    },
    "id": "node/400353663"
  },
  {
    "type": "Feature",
    "properties": {
      "@id": "node/402087331",
      "amenity": "fast_food",
      "brand": "McDonald's",
      "brand:wikidata": "Q38076",
      "brand:wikipedia": "en:McDonald's",
      "cuisine": "burger",
      "name": "McDonald's",
      "takeaway": "yes",
      "website": "http://www.mcdonalds.ca/"
    },
    "geometry": {
      "type": "Point",
      "coordinates": [
        -71.2098828,
        46.8141445
      ]
    },
    "id": "node/402087331"
  },
  {
    "type": "Feature",
    "properties": {
      "@id": "node/403654454",
      "alt_name": "Kentucky Fried Chicken",
      "amenity": "fast_food",
      "brand": "KFC",
      "brand:wikidata": "Q524757",
      "brand:wikipedia": "en:KFC",
      "cuisine": "chicken",
      "name": "KFC",
      "takeaway": "yes"
    },
    "geometry": {
      "type": "Point",
      "coordinates": [
        -71.3689152,
        46.8447185
      ]
    },
    "id": "node/403654454"
  },
  {
    "type": "Feature",
    "properties": {
      "@id": "node/430549060",
      "addr:city": "Québec",
      "addr:housenumber": "15500",
      "addr:postcode": "G2G 2Z4",
      "addr:street": "Boulevard de la Colline",
      "amenity": "fast_food",
      "brand": "Subway",
      "brand:wikidata": "Q244457",
      "brand:wikipedia": "en:Subway (restaurant)",
      "cuisine": "sandwich",
      "name": "Subway",
      "phone": "+1-418-849-5291",
      "takeaway": "yes"
    },
    "geometry": {
      "type": "Point",
      "coordinates": [
        -71.3712751,
        46.8887635
      ]
    },
    "id": "node/430549060"
  },
  {
    "type": "Feature",
    "properties": {
      "@id": "node/453832419",
      "amenity": "restaurant",
      "cuisine": "thai",
      "name": "Thaizone"
    },
    "geometry": {
      "type": "Point",
      "coordinates": [
        -71.1915824,
        46.8995186
      ]
    },
    "id": "node/453832419"
  },
  {
    "type": "Feature",
    "properties": {
      "@id": "node/453832426",
      "amenity": "cafe",
      "brand": "Tim Hortons",
      "brand:wikidata": "Q175106",
      "brand:wikipedia": "en:Tim Hortons",
      "cuisine": "coffee_shop",
      "name": "Tim Hortons",
      "operator": "Restaurant Brands International Inc.",
      "takeaway": "yes",
      "website": "https://www.timhortons.com/"
    },
    "geometry": {
      "type": "Point",
      "coordinates": [
        -71.1913348,
        46.8995568
      ]
    },
    "id": "node/453832426"
  },
  {
    "type": "Feature",
    "properties": {
      "@id": "node/518278751",
      "amenity": "fast_food",
      "brand": "Subway",
      "brand:wikidata": "Q244457",
      "brand:wikipedia": "en:Subway (restaurant)",
      "cuisine": "sandwich",
      "name": "Subway",
      "takeaway": "yes"
    },
    "geometry": {
      "type": "Point",
      "coordinates": [
        -71.4184548,
        46.8558499
      ]
    },
    "id": "node/518278751"
  },
  {
    "type": "Feature",
    "properties": {
      "@id": "node/594413912",
      "amenity": "restaurant",
      "cuisine": "steak_house",
      "name": "Rascal"
    },
    "geometry": {
      "type": "Point",
      "coordinates": [
        -71.3303409,
        46.8039493
      ]
    },
    "id": "node/594413912"
  },
  {
    "type": "Feature",
    "properties": {
      "@id": "node/760690039",
      "addr:city": "Québec",
      "addr:housenumber": "2360",
      "addr:street": "Chemin Sainte-Foy",
      "amenity": "restaurant",
      "cuisine": "burger",
      "indoor": "yes",
      "name": "Chez Victor",
      "phone": "+1-418-353-0905",
      "website": "https://chezvictorburger.com/"
    },
    "geometry": {
      "type": "Point",
      "coordinates": [
        -71.2817875,
        46.7867215
      ]
    },
    "id": "node/760690039"
  },
  {
    "type": "Feature",
    "properties": {
      "@id": "node/760695939",
      "amenity": "fast_food",
      "cuisine": "thai",
      "indoor": "yes",
      "name": "ThaïZone"
    },
    "geometry": {
      "type": "Point",
      "coordinates": [
        -71.2821917,
        46.7864424
      ]
    },
    "id": "node/760695939"
  },
  {
    "type": "Feature",
    "properties": {
      "@id": "node/761252268",
      "amenity": "restaurant",
      "cuisine": "italian",
      "indoor": "yes",
      "name": "Topla!"
    },
    "geometry": {
      "type": "Point",
      "coordinates": [
        -71.2820261,
        46.7869034
      ]
    },
    "id": "node/761252268"
  },
  {
    "type": "Feature",
    "properties": {
      "@id": "node/762108116",
      "amenity": "fast_food",
      "cuisine": "pizza",
      "name": "Salvatore"
    },
    "geometry": {
      "type": "Point",
      "coordinates": [
        -71.281904,
        46.7856417
      ]
    },
    "id": "node/762108116"
  },
  {
    "type": "Feature",
    "properties": {
      "@id": "node/762109369",
      "addr:city": "Québec",
      "addr:housenumber": "2377",
      "addr:street": "Chemin Sainte-Foy",
      "amenity": "cafe",
      "brand": "Tim Hortons",
      "brand:wikidata": "Q175106",
      "brand:wikipedia": "en:Tim Hortons",
      "cuisine": "coffee_shop",
      "internet_access": "wlan",
      "internet_access:fee": "no",
      "name": "Tim Hortons",
      "operator": "Restaurant Brands International Inc.",
      "phone": "+1-418-653-3222",
      "takeaway": "yes",
      "website": "https://www.timhortons.com/"
    },
    "geometry": {
      "type": "Point",
      "coordinates": [
        -71.2819255,
        46.7856936
      ]
    },
    "id": "node/762109369"
  },
  {
    "type": "Feature",
    "properties": {
      "@id": "node/762110744",
      "amenity": "fast_food",
      "brand": "Extreme Pita",
      "brand:wikidata": "Q5422367",
      "brand:wikipedia": "en:Extreme Pita",
      "cuisine": "pita",
      "indoor": "yes",
      "name": "Extreme Pita",
      "takeaway": "yes"
    },
    "geometry": {
      "type": "Point",
      "coordinates": [
        -71.2819617,
        46.7865874
      ]
    },
    "id": "node/762110744"
  },
  {
    "type": "Feature",
    "properties": {
      "@id": "node/955278468",
      "addr:housename": "Le Château Frontenac",
      "addr:street": "Rue des Carrières",
      "amenity": "cafe",
      "brand": "Starbucks",
      "brand:wikidata": "Q37158",
      "brand:wikipedia": "en:Starbucks",
      "cuisine": "coffee_shop",
      "internet_access": "wlan",
      "internet_access:fee": "no",
      "name": "Starbucks",
      "official_name": "Starbucks Coffee",
      "source": "parangon",
      "takeaway": "yes",
      "wheelchair": "yes"
    },
    "geometry": {
      "type": "Point",
      "coordinates": [
        -71.2049182,
        46.8123728
      ]
    },
    "id": "node/955278468"
  },
  {
    "type": "Feature",
    "properties": {
      "@id": "node/1198901655",
      "addr:city": "Québec",
      "addr:housenumber": "585",
      "addr:street": "Rue Saint-Jean",
      "amenity": "restaurant",
      "cuisine": "tapas",
      "name": "Le Moine Échanson",
      "opening_hours": "Mo-Su 11:00-23:00",
      "phone": "+1-418-524-7832",
      "source": "NRCan-CanVec-7.0"
    },
    "geometry": {
      "type": "Point",
      "coordinates": [
        -71.2200854,
        46.8099106
      ]
    },
    "id": "node/1198901655"
  },
  {
    "type": "Feature",
    "properties": {
      "@id": "node/1263352650",
      "addr:housename": "Tim Hortons",
      "addr:street": "Rue Clemenceau",
      "alt_name": "Tim Hortons",
      "amenity": "cafe",
      "brand": "Tim Hortons",
      "brand:wikidata": "Q175106",
      "brand:wikipedia": "en:Tim Hortons",
      "cuisine": "coffee_shop",
      "int_name": "Tim Hortons",
      "name": "Tim Hortons",
      "old_name": "Tim Hortons",
      "operator": "Restaurant Brands International Inc.",
      "takeaway": "yes",
      "website": "https://www.timhortons.com/"
    },
    "geometry": {
      "type": "Point",
      "coordinates": [
        -71.1976355,
        46.8742731
      ]
    },
    "id": "node/1263352650"
  },
  {
    "type": "Feature",
    "properties": {
      "@id": "node/1559350941",
      "addr:housenumber": "9155",
      "addr:postcode": "G2B 3K3",
      "addr:street": "Boulevard de l'Ormière",
      "amenity": "fast_food",
      "cuisine": "sushi",
      "name": "Sushi Shop",
      "operator": "Groupe MTY",
      "website": "https://sushishop.com/fr/"
    },
    "geometry": {
      "type": "Point",
      "coordinates": [
        -71.3521293,
        46.832981
      ]
    },
    "id": "node/1559350941"
  },
  {
    "type": "Feature",
    "properties": {
      "@id": "node/1577692642",
      "addr:housenumber": "217",
      "addr:postcode": "G1K 3W3",
      "addr:street": "Rue Saint-Paul",
      "amenity": "cafe",
      "cuisine": "sandwich",
      "name": "Baguette & Cie",
      "operator": "Karine Bourbeau",
      "phone": "+1-418-694-7246"
    },
    "geometry": {
      "type": "Point",
      "coordinates": [
        -71.2089509,
        46.8168296
      ]
    },
    "id": "node/1577692642"
  },
  {
    "type": "Feature",
    "properties": {
      "@id": "node/1609541717",
      "alt_name": "Harveh's",
      "amenity": "fast_food",
      "brand": "Harvey's",
      "brand:wikidata": "Q1466184",
      "brand:wikipedia": "en:Harvey's",
      "cuisine": "burger",
      "drive_through": "yes",
      "name": "Harvey's",
      "operator": "Cara",
      "takeaway": "yes"
    },
    "geometry": {
      "type": "Point",
      "coordinates": [
        -71.3504648,
        46.8327006
      ]
    },
    "id": "node/1609541717"
  },
  {
    "type": "Feature",
    "properties": {
      "@id": "node/1609614631",
      "amenity": "fast_food",
      "brand": "Quiznos",
      "brand:wikidata": "Q1936229",
      "brand:wikipedia": "en:Quiznos",
      "cuisine": "sandwich",
      "name": "Quiznos",
      "takeaway": "yes"
    },
    "geometry": {
      "type": "Point",
      "coordinates": [
        -71.3562085,
        46.8370243
      ]
    },
    "id": "node/1609614631"
  },
  {
    "type": "Feature",
    "properties": {
      "@id": "node/1613798376",
      "addr:city": "Québec",
      "addr:housenumber": "2790",
      "addr:postcode": "G3E 1H1",
      "addr:province": "Québec",
      "addr:street": "Rue de la Faune",
      "amenity": "cafe",
      "brand": "Tim Hortons",
      "brand:wikidata": "Q175106",
      "brand:wikipedia": "en:Tim Hortons",
      "cuisine": "coffee_shop",
      "internet_access": "wlan",
      "internet_access:fee": "no",
      "name": "Tim Hortons",
      "operator": "Restaurant Brands International Inc.",
      "takeaway": "yes",
      "wheelchair": "yes"
    },
    "geometry": {
      "type": "Point",
      "coordinates": [
        -71.3500856,
        46.8659689
      ]
    },
    "id": "node/1613798376"
  },
  {
    "type": "Feature",
    "properties": {
      "@id": "node/1615218045",
      "amenity": "cafe",
      "brand": "Tim Hortons",
      "brand:wikidata": "Q175106",
      "brand:wikipedia": "en:Tim Hortons",
      "cuisine": "coffee_shop",
      "name": "Tim Hortons",
      "operator": "Restaurant Brands International Inc.",
      "takeaway": "yes",
      "toilets:wheelchair": "yes",
      "website": "https://www.timhortons.com/",
      "wheelchair": "yes"
    },
    "geometry": {
      "type": "Point",
      "coordinates": [
        -71.2472005,
        46.8408971
      ]
    },
    "id": "node/1615218045"
  },
  {
    "type": "Feature",
    "properties": {
      "@id": "node/1615221585",
      "amenity": "restaurant",
      "brand": "Mikes",
      "brand:wikidata": "Q3313615",
      "brand:wikipedia": "fr:Toujours Mikes",
      "cuisine": "pizza;pasta;sandwich",
      "name": "Mikes"
    },
    "geometry": {
      "type": "Point",
      "coordinates": [
        -71.2476181,
        46.8403798
      ]
    },
    "id": "node/1615221585"
  },
  {
    "type": "Feature",
    "properties": {
      "@id": "node/1615221586",
      "amenity": "restaurant",
      "brand": "Benny & Co.",
      "brand:wikidata": "Q106963815",
      "cuisine": "chicken;barbecue;poutine",
      "name": "Benny & Co.",
      "takeaway": "yes"
    },
    "geometry": {
      "type": "Point",
      "coordinates": [
        -71.246894,
        46.8403303
      ]
    },
    "id": "node/1615221586"
  },
  {
    "type": "Feature",
    "properties": {
      "@id": "node/1616631055",
      "addr:city": "Québec",
      "addr:housenumber": "1060",
      "addr:postcode": "G1R 5E6",
      "addr:street": "Rue Louis-Alexandre Taschereau",
      "amenity": "cafe",
      "brand": "Tim Hortons",
      "brand:wikidata": "Q175106",
      "brand:wikipedia": "en:Tim Hortons",
      "cuisine": "coffee_shop",
      "name": "Tim Hortons",
      "operator": "Restaurant Brands International Inc.",
      "takeaway": "yes",
      "website": "https://www.timhortons.com/"
    },
    "geometry": {
      "type": "Point",
      "coordinates": [
        -71.2164155,
        46.8077723
      ]
    },
    "id": "node/1616631055"
  },
  {
    "type": "Feature",
    "properties": {
      "@id": "node/1616631056",
      "amenity": "cafe",
      "brand": "Tim Hortons",
      "brand:wikidata": "Q175106",
      "brand:wikipedia": "en:Tim Hortons",
      "cuisine": "coffee_shop",
      "internet_access": "wlan",
      "name": "Tim Hortons",
      "operator": "Restaurant Brands International Inc.",
      "takeaway": "yes",
      "website": "https://www.timhortons.com/"
    },
    "geometry": {
      "type": "Point",
      "coordinates": [
        -71.2237783,
        46.8061305
      ]
    },
    "id": "node/1616631056"
  },
  {
    "type": "Feature",
    "properties": {
      "@id": "node/1617981771",
      "addr:street": "Chemin Sainte-Foy",
      "amenity": "restaurant",
      "cuisine": "asian",
      "name": "Fleur d'Asie"
    },
    "geometry": {
      "type": "Point",
      "coordinates": [
        -71.2284249,
        46.8058831
      ]
    },
    "id": "node/1617981771"
  },
  {
    "type": "Feature",
    "properties": {
      "@id": "node/1628893640",
      "amenity": "fast_food",
      "brand": "Chez Ashton",
      "brand:wikidata": "Q2963156",
      "brand:wikipedia": "en:Chez Ashton",
      "cuisine": "poutine",
      "name": "Chez Ashton",
      "takeaway": "yes"
    },
    "geometry": {
      "type": "Point",
      "coordinates": [
        -71.2430464,
        46.8362979
      ]
    },
    "id": "node/1628893640"
  },
  {
    "type": "Feature",
    "properties": {
      "@id": "node/1628908735",
      "addr:housenumber": "830",
      "addr:street": "Boulevard Charest Est",
      "amenity": "fast_food",
      "brand": "Chez Ashton",
      "brand:wikidata": "Q2963156",
      "brand:wikipedia": "en:Chez Ashton",
      "cuisine": "poutine",
      "name": "Chez Ashton",
      "opening_hours": "24/7",
      "phone": "+1 418 648 0891",
      "takeaway": "yes"
    },
    "geometry": {
      "type": "Point",
      "coordinates": [
        -71.2185401,
        46.8160562
      ]
    },
    "id": "node/1628908735"
  },
  {
    "type": "Feature",
    "properties": {
      "@id": "node/1628948099",
      "addr:city": "Québec",
      "addr:housenumber": "300",
      "addr:postcode": "G1K 7R1",
      "addr:province": "QC",
      "addr:street": "Rue Saint-Paul",
      "amenity": "restaurant",
      "cuisine": "burger",
      "internet_1": "no",
      "internet_2": "ZAP Québec",
      "internet_access": "wlan",
      "internet_access:fee": "no",
      "name": "Chez Victor",
      "phone": "+1 418-781-2511",
      "source": "Bing Maps + ZAP Québec"
    },
    "geometry": {
      "type": "Point",
      "coordinates": [
        -71.2116542,
        46.8171238
      ]
    },
    "id": "node/1628948099"
  },
  {
    "type": "Feature",
    "properties": {
      "@id": "node/1629203226",
      "amenity": "fast_food",
      "brand": "Subway",
      "brand:wikidata": "Q244457",
      "brand:wikipedia": "en:Subway (restaurant)",
      "cuisine": "sandwich",
      "name": "Subway",
      "takeaway": "yes"
    },
    "geometry": {
      "type": "Point",
      "coordinates": [
        -71.2818443,
        46.7855917
      ]
    },
    "id": "node/1629203226"
  },
  {
    "type": "Feature",
    "properties": {
      "@id": "node/1682266062",
      "amenity": "fast_food",
      "cuisine": "ice_cream",
      "name": "Cremerie Bunny",
      "source": "Bing+knowledge"
    },
    "geometry": {
      "type": "Point",
      "coordinates": [
        -71.3535103,
        46.8346595
      ]
    },
    "id": "node/1682266062"
  },
  {
    "type": "Feature",
    "properties": {
      "@id": "node/1768925187",
      "amenity": "restaurant",
      "brand": "Scores",
      "brand:wikidata": "Q3476059",
      "brand:wikipedia": "fr:Scores",
      "cuisine": "chicken;barbecue",
      "name": "Scores"
    },
    "geometry": {
      "type": "Point",
      "coordinates": [
        -71.2070397,
        46.867879
      ]
    },
    "id": "node/1768925187"
  },
  {
    "type": "Feature",
    "properties": {
      "@id": "node/1784601408",
      "amenity": "cafe",
      "brand": "Tim Hortons",
      "brand:wikidata": "Q175106",
      "brand:wikipedia": "en:Tim Hortons",
      "cuisine": "coffee_shop",
      "name": "Tim Hortons",
      "operator": "Restaurant Brands International Inc.",
      "source": "knoledge",
      "takeaway": "yes",
      "website": "https://www.timhortons.com/"
    },
    "geometry": {
      "type": "Point",
      "coordinates": [
        -71.3266502,
        46.8414125
      ]
    },
    "id": "node/1784601408"
  },
  {
    "type": "Feature",
    "properties": {
      "@id": "node/1784601410",
      "addr:city": "Québec",
      "addr:flats": "100",
      "addr:housenumber": "2289",
      "addr:street": "Avenue Chauveau",
      "amenity": "fast_food",
      "brand": "Subway",
      "brand:wikidata": "Q244457",
      "brand:wikipedia": "en:Subway (restaurant)",
      "cuisine": "sandwich",
      "name": "Subway",
      "phone": "+1-418-845-0101",
      "source": "knoledge",
      "takeaway": "yes"
    },
    "geometry": {
      "type": "Point",
      "coordinates": [
        -71.3259836,
        46.8407743
      ]
    },
    "id": "node/1784601410"
  },
  {
    "type": "Feature",
    "properties": {
      "@id": "node/1784607142",
      "amenity": "fast_food",
      "brand": "Subway",
      "brand:wikidata": "Q244457",
      "brand:wikipedia": "en:Subway (restaurant)",
      "cuisine": "sandwich",
      "name": "Subway",
      "takeaway": "yes"
    },
    "geometry": {
      "type": "Point",
      "coordinates": [
        -71.3494429,
        46.8311866
      ]
    },
    "id": "node/1784607142"
  },
  {
    "type": "Feature",
    "properties": {
      "@id": "node/1788815228",
      "amenity": "restaurant",
      "cuisine": "regional",
      "name": "Resto-Chef Café"
    },
    "geometry": {
      "type": "Point",
      "coordinates": [
        -71.359718,
        46.8531626
      ]
    },
    "id": "node/1788815228"
  },
  {
    "type": "Feature",
    "properties": {
      "@id": "node/1789314859",
      "amenity": "restaurant",
      "cuisine": "chinese",
      "name": "Le Soba"
    },
    "geometry": {
      "type": "Point",
      "coordinates": [
        -71.3017733,
        46.7634639
      ]
    },
    "id": "node/1789314859"
  },
  {
    "type": "Feature",
    "properties": {
      "@id": "node/1840206198",
      "addr:city": "Lévis",
      "addr:housenumber": "2140",
      "addr:province": "Québec",
      "addr:street": "Boulevard Guillaume-Couture",
      "amenity": "restaurant",
      "cuisine": "asian;thai;cambodian",
      "name": "Les Délices d'Angkor"
    },
    "geometry": {
      "type": "Point",
      "coordinates": [
        -71.2355656,
        46.753379
      ]
    },
    "id": "node/1840206198"
  },
  {
    "type": "Feature",
    "properties": {
      "@id": "node/1899342939",
      "amenity": "fast_food",
      "brand": "McDonald's",
      "brand:wikidata": "Q38076",
      "brand:wikipedia": "en:McDonald's",
      "cuisine": "burger",
      "name": "McDonald's",
      "takeaway": "yes"
    },
    "geometry": {
      "type": "Point",
      "coordinates": [
        -71.314791,
        46.8065535
      ]
    },
    "id": "node/1899342939"
  },
  {
    "type": "Feature",
    "properties": {
      "@id": "node/1899342946",
      "amenity": "fast_food",
      "brand": "Subway",
      "brand:wikidata": "Q244457",
      "brand:wikipedia": "en:Subway (restaurant)",
      "cuisine": "sandwich",
      "name": "Subway",
      "takeaway": "yes"
    },
    "geometry": {
      "type": "Point",
      "coordinates": [
        -71.3160651,
        46.8065517
      ]
    },
    "id": "node/1899342946"
  },
  {
    "type": "Feature",
    "properties": {
      "@id": "node/1899402992",
      "amenity": "fast_food",
      "cuisine": "burger",
      "name": "La Fringale Glacée"
    },
    "geometry": {
      "type": "Point",
      "coordinates": [
        -71.364986,
        46.7826384
      ]
    },
    "id": "node/1899402992"
  },
  {
    "type": "Feature",
    "properties": {
      "@id": "node/1907763105",
      "addr:housenumber": "2750",
      "addr:postcode": "G1P 2X8",
      "addr:street": "Boulevard Père-Lelièvre",
      "amenity": "fast_food",
      "cuisine": "burger",
      "name": "Buffet du Nord"
    },
    "geometry": {
      "type": "Point",
      "coordinates": [
        -71.3081609,
        46.8130418
      ]
    },
    "id": "node/1907763105"
  },
  {
    "type": "Feature",
    "properties": {
      "@id": "node/1907766885",
      "addr:housenumber": "2185",
      "addr:postcode": "G1P 2X2",
      "addr:street": "Boulevard Père-Lelièvre",
      "amenity": "restaurant",
      "cuisine": "pizza",
      "name": "Restaurant Normandin",
      "website": "https://www.restaurantnormandin.com/"
    },
    "geometry": {
      "type": "Point",
      "coordinates": [
        -71.2968447,
        46.8114769
      ]
    },
    "id": "node/1907766885"
  },
  {
    "type": "Feature",
    "properties": {
      "@id": "node/1907772689",
      "addr:housenumber": "2045",
      "addr:postcode": "G1P 2W8",
      "addr:street": "Boulevard Père-Lelièvre",
      "amenity": "fast_food",
      "brand": "Valentine",
      "brand:wikidata": "Q3553635",
      "brand:wikipedia": "fr:Valentine (restaurant)",
      "cuisine": "burger",
      "name": "Valentine",
      "takeaway": "yes",
      "website": "http://valentine.ca"
    },
    "geometry": {
      "type": "Point",
      "coordinates": [
        -71.2944978,
        46.8112777
      ]
    },
    "id": "node/1907772689"
  },
  {
    "type": "Feature",
    "properties": {
      "@id": "node/1907800952",
      "addr:housenumber": "2000",
      "addr:postcode": "G2K 0B8",
      "addr:street": "Boulevard Lebourgneuf",
      "amenity": "restaurant",
      "cuisine": "chinese",
      "name": "Thai Zone",
      "website": "https://www.thaizone.ca/"
    },
    "geometry": {
      "type": "Point",
      "coordinates": [
        -71.3058766,
        46.8309571
      ]
    },
    "id": "node/1907800952"
  },
  {
    "type": "Feature",
    "properties": {
      "@id": "node/1912931557",
      "addr:city": "Québec",
      "addr:housenumber": "1280",
      "addr:postcode": "G1S 1E8",
      "addr:province": "Québec",
      "addr:street": "Grande Allée Ouest",
      "amenity": "cafe",
      "brand": "Tim Hortons",
      "brand:wikidata": "Q175106",
      "brand:wikipedia": "en:Tim Hortons",
      "cuisine": "coffee_shop",
      "internet_access": "no",
      "name": "Tim Hortons",
      "opening_hours": "24/7",
      "operator": "Restaurant Brands International Inc.",
      "takeaway": "yes",
      "website": "https://www.timhortons.com/"
    },
    "geometry": {
      "type": "Point",
      "coordinates": [
        -71.2459741,
        46.789832
      ]
    },
    "id": "node/1912931557"
  },
  {
    "type": "Feature",
    "properties": {
      "@id": "node/1918609366",
      "amenity": "fast_food",
      "brand": "McDonald's",
      "brand:wikidata": "Q38076",
      "brand:wikipedia": "en:McDonald's",
      "cuisine": "burger",
      "name": "McDonald's",
      "takeaway": "yes",
      "website": "http://www.mcdonalds.ca/"
    },
    "geometry": {
      "type": "Point",
      "coordinates": [
        -71.2867693,
        46.7829001
      ]
    },
    "id": "node/1918609366"
  },
  {
    "type": "Feature",
    "properties": {
      "@id": "node/2007395109",
      "amenity": "fast_food",
      "cuisine": "sandwich",
      "name": "Subway"
    },
    "geometry": {
      "type": "Point",
      "coordinates": [
        -71.3698123,
        46.8084488
      ]
    },
    "id": "node/2007395109"
  },
  {
    "type": "Feature",
    "properties": {
      "@id": "node/2011648375",
      "amenity": "restaurant",
      "cuisine": "asian",
      "name": "Restaurant Thai Exotique"
    },
    "geometry": {
      "type": "Point",
      "coordinates": [
        -71.2499611,
        46.8512246
      ]
    },
    "id": "node/2011648375"
  },
  {
    "type": "Feature",
    "properties": {
      "@id": "node/2022360464",
      "amenity": "restaurant",
      "cuisine": "french",
      "name": "Le Piolet",
      "opening_hours": "Tu-Fr 11:30-13:30",
      "phone": "+1-418-842-7462",
      "website": "http://www.lepiolet.com/"
    },
    "geometry": {
      "type": "Point",
      "coordinates": [
        -71.3558525,
        46.8541164
      ]
    },
    "id": "node/2022360464"
  },
  {
    "type": "Feature",
    "properties": {
      "@id": "node/2194800757",
      "addr:city": "L'Ancienne-Lorette",
      "addr:housenumber": "1333-A",
      "addr:postcode": "G2G 1G5",
      "addr:street": "Route de l'Aéroport",
      "amenity": "fast_food",
      "brand": "Subway",
      "brand:wikidata": "Q244457",
      "brand:wikipedia": "en:Subway (restaurant)",
      "cuisine": "sandwich",
      "internet_access": "wlan",
      "internet_access:fee": "no",
      "name": "Subway",
      "phone": "+1-418-877-5641",
      "takeaway": "yes"
    },
    "geometry": {
      "type": "Point",
      "coordinates": [
        -71.3552016,
        46.7895008
      ]
    },
    "id": "node/2194800757"
  },
  {
    "type": "Feature",
    "properties": {
      "@id": "node/2250913705",
      "addr:housenumber": "595",
      "addr:postcode": "G1R 2K5",
      "addr:street": "Grande-Allee Est",
      "amenity": "restaurant",
      "cuisine": "spanish",
      "name": "Copas",
      "name:es": "Copas",
      "name:fr": "Copas",
      "phone": "+1-418-521-2373",
      "website": "http://www.copas.ca"
    },
    "geometry": {
      "type": "Point",
      "coordinates": [
        -71.2168074,
        46.8059148
      ]
    },
    "id": "node/2250913705"
  },
  {
    "type": "Feature",
    "properties": {
      "@id": "node/2262623845",
      "amenity": "fast_food",
      "brand": "Domino's",
      "brand:wikidata": "Q839466",
      "brand:wikipedia": "en:Domino's Pizza",
      "cuisine": "pizza",
      "name": "Domino's",
      "takeaway": "yes"
    },
    "geometry": {
      "type": "Point",
      "coordinates": [
        -71.351196,
        46.8324038
      ]
    },
    "id": "node/2262623845"
  },
  {
    "type": "Feature",
    "properties": {
      "@id": "node/2272226656",
      "addr:city": "Québec",
      "addr:housenumber": "927",
      "addr:postcode": "G1X 4M4",
      "addr:street": "Route Jean-Gauvin",
      "amenity": "restaurant",
      "brewery": "Sleeman Blonde;Sleeman Rousse;Blanche de Chambly",
      "cuisine": "pizza",
      "name": "Chic Alors !",
      "phone": "+1-418-877-4747"
    },
    "geometry": {
      "type": "Point",
      "coordinates": [
        -71.3645564,
        46.7608115
      ]
    },
    "id": "node/2272226656"
  },
  {
    "type": "Feature",
    "properties": {
      "@id": "node/2282282491",
      "amenity": "restaurant",
      "cuisine": "french",
      "email": "info@bistroxp.com",
      "name": "Bistro XP",
      "phone": "+1-581-742-4460"
    },
    "geometry": {
      "type": "Point",
      "coordinates": [
        -71.2496139,
        46.7798446
      ]
    },
    "id": "node/2282282491"
  },
  {
    "type": "Feature",
    "properties": {
      "@id": "node/2287246888",
      "amenity": "restaurant",
      "cuisine": "sushi",
      "name": "Yuzu Sushi"
    },
    "geometry": {
      "type": "Point",
      "coordinates": [
        -71.2801698,
        46.7865453
      ]
    },
    "id": "node/2287246888"
  },
  {
    "type": "Feature",
    "properties": {
      "@id": "node/2301497652",
      "addr:city": "Québec",
      "addr:country": "CA",
      "addr:housenumber": "2600",
      "addr:province": "QC",
      "addr:street": "Bourg-Royal",
      "amenity": "restaurant",
      "cuisine": "burger",
      "internet_1": "no",
      "internet_2": "ZAP Québec",
      "internet_access": "wlan",
      "internet_access:fee": "no",
      "name": "Chez Victor",
      "phone": "+1 418-661-2510",
      "source": "Bing Maps + ZAP Québec"
    },
    "geometry": {
      "type": "Point",
      "coordinates": [
        -71.2213189,
        46.8597382
      ]
    },
    "id": "node/2301497652"
  },
  {
    "type": "Feature",
    "properties": {
      "@id": "node/2331991901",
      "addr:city": "Québec",
      "addr:housenumber": "333",
      "addr:street": "Rue Saint-Amable",
      "amenity": "cafe",
      "cuisine": "coffee_shop",
      "internet_access": "wlan",
      "internet_access:fee": "no",
      "name": "Van Houtte"
    },
    "geometry": {
      "type": "Point",
      "coordinates": [
        -71.2215187,
        46.8052391
      ]
    },
    "id": "node/2331991901"
  },
  {
    "type": "Feature",
    "properties": {
      "@id": "node/2333285549",
      "addr:city": "Québec",
      "addr:housename": "Place Quatre-Bourgeois",
      "addr:housenumber": "999",
      "addr:postcode": "G1W 4S6",
      "addr:street": "Rue de Bourgogne",
      "amenity": "restaurant",
      "cuisine": "italian",
      "name": "Pacini",
      "website": "http://www.pacini.ca/restaurants/sainte-foy-bourgeois/"
    },
    "geometry": {
      "type": "Point",
      "coordinates": [
        -71.3090838,
        46.7642046
      ]
    },
    "id": "node/2333285549"
  },
  {
    "type": "Feature",
    "properties": {
      "@id": "node/2333325222",
      "addr:city": "Québec",
      "addr:housename": "Place De La Capitale",
      "addr:housenumber": "150",
      "addr:street": "Boulevard René-Lévesque Est",
      "amenity": "restaurant",
      "cuisine": "japanese",
      "name": "Enzo Shushi Bar"
    },
    "geometry": {
      "type": "Point",
      "coordinates": [
        -71.2239446,
        46.8060283
      ]
    },
    "id": "node/2333325222"
  },
  {
    "type": "Feature",
    "properties": {
      "@id": "node/2336567815",
      "amenity": "restaurant",
      "cuisine": "thai",
      "name": "Thaïzone"
    },
    "geometry": {
      "type": "Point",
      "coordinates": [
        -71.3689686,
        46.7644307
      ]
    },
    "id": "node/2336567815"
  },
  {
    "type": "Feature",
    "properties": {
      "@id": "node/2336571440",
      "amenity": "cafe",
      "brand": "Second Cup",
      "brand:wikidata": "Q862180",
      "brand:wikipedia": "en:Second Cup",
      "cuisine": "coffee_shop",
      "internet_access": "wlan",
      "internet_access:fee": "no",
      "internet_access:operator": "Rogers",
      "name": "Second Cup",
      "takeaway": "yes",
      "toilets:wheelchair": "no",
      "wheelchair": "yes"
    },
    "geometry": {
      "type": "Point",
      "coordinates": [
        -71.369944,
        46.7636632
      ]
    },
    "id": "node/2336571440"
  },
  {
    "type": "Feature",
    "properties": {
      "@id": "node/2339393384",
      "amenity": "restaurant",
      "cuisine": "thai",
      "name": "Thaïzone"
    },
    "geometry": {
      "type": "Point",
      "coordinates": [
        -71.2261664,
        46.8041295
      ]
    },
    "id": "node/2339393384"
  },
  {
    "type": "Feature",
    "properties": {
      "@id": "node/2342175796",
      "addr:city": "Québec",
      "addr:housenumber": "54",
      "addr:street": "Boulevard René-Lévesque Ouest",
      "amenity": "restaurant",
      "cuisine": "lebanese",
      "name": "Bachir",
      "phone": "+1-418-523-8383"
    },
    "geometry": {
      "type": "Point",
      "coordinates": [
        -71.2263229,
        46.8045958
      ]
    },
    "id": "node/2342175796"
  },
  {
    "type": "Feature",
    "properties": {
      "@id": "node/2351083274",
      "amenity": "restaurant",
      "cuisine": "burger",
      "name": "Chez Victor"
    },
    "geometry": {
      "type": "Point",
      "coordinates": [
        -71.2885963,
        46.7666366
      ]
    },
    "id": "node/2351083274"
  },
  {
    "type": "Feature",
    "properties": {
      "@id": "node/2363806264",
      "amenity": "fast_food",
      "cuisine": "ice_cream",
      "name": "La Peltrie bar laitier"
    },
    "geometry": {
      "type": "Point",
      "coordinates": [
        -71.3457467,
        46.7482138
      ]
    },
    "id": "node/2363806264"
  },
  {
    "type": "Feature",
    "properties": {
      "@id": "node/2363807543",
      "amenity": "restaurant",
      "brewery": "Boréale Blonde;Boréale Blanche;Boréale Rousse;Boréale Noire;Boréale IPA",
      "cuisine": "burger",
      "name": "Chez Victor"
    },
    "geometry": {
      "type": "Point",
      "coordinates": [
        -71.3464138,
        46.748062
      ]
    },
    "id": "node/2363807543"
  },
  {
    "type": "Feature",
    "properties": {
      "@id": "node/2365213009",
      "amenity": "restaurant",
      "cuisine": "italian",
      "delivery": "no",
      "name": "Pacini",
      "outdoor_seating": "no",
      "source": "Bing Maps"
    },
    "geometry": {
      "type": "Point",
      "coordinates": [
        -71.2530039,
        46.8176989
      ]
    },
    "id": "node/2365213009"
  },
  {
    "type": "Feature",
    "properties": {
      "@id": "node/2365221483",
      "amenity": "fast_food",
      "brand": "McDonald's",
      "brand:wikidata": "Q38076",
      "brand:wikipedia": "en:McDonald's",
      "cuisine": "burger",
      "name": "McDonald's",
      "takeaway": "yes",
      "website": "http://www.mcdonalds.ca/"
    },
    "geometry": {
      "type": "Point",
      "coordinates": [
        -71.2509182,
        46.8177488
      ]
    },
    "id": "node/2365221483"
  },
  {
    "type": "Feature",
    "properties": {
      "@id": "node/2371449727",
      "addr:housenumber": "601",
      "amenity": "fast_food",
      "brand": "Subway",
      "brand:wikidata": "Q244457",
      "brand:wikipedia": "en:Subway (restaurant)",
      "cuisine": "sandwich",
      "name": "Subway",
      "source": "survey",
      "takeaway": "yes"
    },
    "geometry": {
      "type": "Point",
      "coordinates": [
        -71.2507451,
        46.816136
      ]
    },
    "id": "node/2371449727"
  },
  {
    "type": "Feature",
    "properties": {
      "@id": "node/2371461275",
      "amenity": "fast_food",
      "brand": "Valentine",
      "brand:wikidata": "Q3553635",
      "brand:wikipedia": "en:Groupe Valentine Inc.",
      "cuisine": "burger",
      "internet_access": "wlan",
      "name": "Valentine",
      "takeaway": "yes"
    },
    "geometry": {
      "type": "Point",
      "coordinates": [
        -71.2998792,
        46.7744385
      ]
    },
    "id": "node/2371461275"
  },
  {
    "type": "Feature",
    "properties": {
      "@id": "node/2372842216",
      "amenity": "restaurant",
      "cuisine": "chicken",
      "name": "Rôtisserie Fusée"
    },
    "geometry": {
      "type": "Point",
      "coordinates": [
        -71.3015189,
        46.7734064
      ]
    },
    "id": "node/2372842216"
  },
  {
    "type": "Feature",
    "properties": {
      "@id": "node/2372842217",
      "amenity": "restaurant",
      "cuisine": "chinese",
      "name": "Lao Express",
      "phone": "+1-418-614-7574"
    },
    "geometry": {
      "type": "Point",
      "coordinates": [
        -71.3016134,
        46.7733328
      ]
    },
    "id": "node/2372842217"
  },
  {
    "type": "Feature",
    "properties": {
      "@id": "node/2376597645",
      "addr:city": "Québec",
      "addr:housenumber": "800",
      "addr:postcode": "G1R 3P4",
      "addr:province": "Québec",
      "addr:street": "Rue d'Youville",
      "amenity": "cafe",
      "brand": "Second Cup",
      "brand:wikidata": "Q862180",
      "brand:wikipedia": "en:Second Cup",
      "cuisine": "coffee_shop",
      "name": "Second Cup",
      "opening_hours": "Mo,Tu 06:30-22:00; We-Fr 06:30-23:00; Sa 07:00-23:00; Su 07:00-22:00",
      "phone": "+1-418-694-0808",
      "source": "survey",
      "takeaway": "yes"
    },
    "geometry": {
      "type": "Point",
      "coordinates": [
        -71.2145902,
        46.8120642
      ]
    },
    "id": "node/2376597645"
  },
  {
    "type": "Feature",
    "properties": {
      "@id": "node/2376612717",
      "amenity": "restaurant",
      "cuisine": "french",
      "name": "Le Beffroi",
      "source": "survey"
    },
    "geometry": {
      "type": "Point",
      "coordinates": [
        -71.2149469,
        46.8124235
      ]
    },
    "id": "node/2376612717"
  },
  {
    "type": "Feature",
    "properties": {
      "@id": "node/2376630270",
      "addr:city": "Québec",
      "addr:postcode": "G1R 4H8",
      "addr:street": "Côte du Palais",
      "amenity": "cafe",
      "brand": "Tim Hortons",
      "brand:wikidata": "Q175106",
      "brand:wikipedia": "en:Tim Hortons",
      "contact:phone": "+1-418-694-1000",
      "cuisine": "coffee_shop",
      "name": "Tim Hortons",
      "operator": "Restaurant Brands International Inc.",
      "takeaway": "yes",
      "website": "https://www.timhortons.com/"
    },
    "geometry": {
      "type": "Point",
      "coordinates": [
        -71.2105561,
        46.8144544
      ]
    },
    "id": "node/2376630270"
  },
  {
    "type": "Feature",
    "properties": {
      "@id": "node/2376641922",
      "addr:housenumber": "52",
      "amenity": "fast_food",
      "brand": "Sushi Shop",
      "brand:wikidata": "Q64840990",
      "cuisine": "sushi",
      "name": "Sushi Shop",
      "source": "survey",
      "takeaway": "yes"
    },
    "geometry": {
      "type": "Point",
      "coordinates": [
        -71.2104865,
        46.8143917
      ]
    },
    "id": "node/2376641922"
  },
  {
    "type": "Feature",
    "properties": {
      "@id": "node/2393798907",
      "amenity": "fast_food",
      "brand": "McDonald's",
      "brand:wikidata": "Q38076",
      "brand:wikipedia": "en:McDonald's",
      "cuisine": "burger",
      "internet_access": "wlan",
      "internet_access:fee": "no",
      "name": "McDonald's",
      "takeaway": "yes",
      "website": "http://www.mcdonalds.ca/"
    },
    "geometry": {
      "type": "Point",
      "coordinates": [
        -71.2917039,
        46.7661153
      ]
    },
    "id": "node/2393798907"
  },
  {
    "type": "Feature",
    "properties": {
      "@id": "node/2395595764",
      "addr:city": "Québec",
      "addr:housenumber": "1420",
      "addr:postcode": "G1N 2E5",
      "addr:province": "QC",
      "addr:street": "Rue Cyrille-Duquet",
      "amenity": "cafe",
      "brand": "Tim Hortons",
      "brand:wikidata": "Q175106",
      "brand:wikipedia": "en:Tim Hortons",
      "cuisine": "coffee_shop",
      "drive_through": "yes",
      "internet_access": "wlan",
      "name": "Tim Hortons",
      "opening_hours": "Mo-Su 06:00-22:00",
      "operator": "Restaurant Brands International Inc.",
      "phone": "+1418-682-9614",
      "smoking": "no",
      "takeaway": "yes",
      "website": "https://locations.timhortons.com/ca/qc/quebec/1420-rue-cyrille-duquet.html",
      "wheelchair": "yes"
    },
    "geometry": {
      "type": "Point",
      "coordinates": [
        -71.2606295,
        46.7983883
      ]
    },
    "id": "node/2395595764"
  },
  {
    "type": "Feature",
    "properties": {
      "@id": "node/2395664503",
      "addr:city": "Québec",
      "addr:housenumber": "7730",
      "addr:postcode": "G1H 3G2",
      "addr:street": "Boulevard Henri-Bourassa",
      "amenity": "restaurant",
      "cuisine": "sandwich",
      "internet_access": "wlan",
      "internet_access:fee": "no",
      "name": "Tim Hortons",
      "operator": "Restaurant Brands International Inc.",
      "phone": "+1-418-263-0139",
      "source": "survey",
      "website": "https://www.timhortons.com/",
      "wheelchair": "yes"
    },
    "geometry": {
      "type": "Point",
      "coordinates": [
        -71.2656067,
        46.8608854
      ]
    },
    "id": "node/2395664503"
  },
  {
    "type": "Feature",
    "properties": {
      "@id": "node/2395689741",
      "amenity": "fast_food",
      "brand": "Dairy Queen",
      "brand:wikidata": "Q1141226",
      "brand:wikipedia": "en:Dairy Queen",
      "cuisine": "ice_cream;burger",
      "name": "Dairy Queen",
      "takeaway": "yes"
    },
    "geometry": {
      "type": "Point",
      "coordinates": [
        -71.3522203,
        46.7942733
      ]
    },
    "id": "node/2395689741"
  },
  {
    "type": "Feature",
    "properties": {
      "@id": "node/2395689747",
      "amenity": "cafe",
      "brand": "Tim Hortons",
      "brand:wikidata": "Q175106",
      "brand:wikipedia": "en:Tim Hortons",
      "cuisine": "coffee_shop",
      "drive_in": "yes",
      "internet_access": "wlan",
      "internet_access:fee": "no",
      "name": "Tim Hortons",
      "opening_hours": "24/7",
      "operator": "Restaurant Brands International Inc.",
      "takeaway": "yes",
      "website": "https://www.timhortons.com/",
      "wheelchair": "yes"
    },
    "geometry": {
      "type": "Point",
      "coordinates": [
        -71.331503,
        46.803946
      ]
    },
    "id": "node/2395689747"
  },
  {
    "type": "Feature",
    "properties": {
      "@id": "node/2395695353",
      "amenity": "restaurant",
      "cuisine": "sushi",
      "name": "Yuzu sushi"
    },
    "geometry": {
      "type": "Point",
      "coordinates": [
        -71.4218724,
        46.8567444
      ]
    },
    "id": "node/2395695353"
  },
  {
    "type": "Feature",
    "properties": {
      "@id": "node/2395710898",
      "addr:housenumber": "1440",
      "addr:street": "Boulevard Pie XI Nord",
      "amenity": "restaurant",
      "cuisine": "chinese",
      "name": "La Noble Maison",
      "website": "www.lanoblemaison.com"
    },
    "geometry": {
      "type": "Point",
      "coordinates": [
        -71.4326388,
        46.8650855
      ]
    },
    "id": "node/2395710898"
  },
  {
    "type": "Feature",
    "properties": {
      "@id": "node/2396680668",
      "addr:city": "Québec",
      "addr:housenumber": "7272",
      "addr:street": "Boulevard Wilfrid-Hamel",
      "amenity": "restaurant",
      "cuisine": "chinese",
      "name": "Jardin de Tang",
      "phone": "+1 418 877 8737",
      "website": "http://restaurantjardindetang.com"
    },
    "geometry": {
      "type": "Point",
      "coordinates": [
        -71.3661869,
        46.7823067
      ]
    },
    "id": "node/2396680668"
  },
  {
    "type": "Feature",
    "properties": {
      "@id": "node/2396692603",
      "amenity": "fast_food",
      "brand": "Subway",
      "brand:wikidata": "Q244457",
      "brand:wikipedia": "en:Subway (restaurant)",
      "cuisine": "sandwich",
      "name": "Subway",
      "source": "survey",
      "takeaway": "yes"
    },
    "geometry": {
      "type": "Point",
      "coordinates": [
        -71.3084834,
        46.7649303
      ]
    },
    "id": "node/2396692603"
  },
  {
    "type": "Feature",
    "properties": {
      "@id": "node/2397215721",
      "addr:city": "Québec",
      "addr:province": "QC",
      "addr:street": "Boulevard Auclair",
      "amenity": "cafe",
      "brand": "Tim Hortons",
      "brand:wikidata": "Q175106",
      "brand:wikipedia": "en:Tim Hortons",
      "cuisine": "coffee_shop",
      "name": "Tim Hortons",
      "opening_hours": "Mo-Su 05:00-23:00",
      "operator": "Restaurant Brands International Inc.",
      "outdoor_seating": "no",
      "takeaway": "yes",
      "website": "https://www.timhortons.com/"
    },
    "geometry": {
      "type": "Point",
      "coordinates": [
        -71.3585686,
        46.777153
      ]
    },
    "id": "node/2397215721"
  },
  {
    "type": "Feature",
    "properties": {
      "@id": "node/2405016918",
      "addr:city": "Québec",
      "addr:housenumber": "203",
      "addr:postcode": "G1R 1N8",
      "addr:province": "Québec",
      "addr:street": "Rue Saint-Jean",
      "amenity": "restaurant",
      "cuisine": "portuguese",
      "name": "Le Poulet Portugais",
      "opening_hours": "Tu-We 11:00-20:00; Th-Sa 11:00-22:00; Su 15:00-20:00",
      "phone": "+1-418-204-3300",
      "takeaway": "yes",
      "website": "https://www.pouletportugais.net/"
    },
    "geometry": {
      "type": "Point",
      "coordinates": [
        -71.2251622,
        46.8079871
      ]
    },
    "id": "node/2405016918"
  },
  {
    "type": "Feature",
    "properties": {
      "@id": "node/2409284183",
      "amenity": "restaurant",
      "cuisine": "kebab",
      "name": "Al Balade"
    },
    "geometry": {
      "type": "Point",
      "coordinates": [
        -71.2268495,
        46.8133517
      ]
    },
    "id": "node/2409284183"
  },
  {
    "type": "Feature",
    "properties": {
      "@id": "node/2409289571",
      "amenity": "restaurant",
      "cuisine": "italian",
      "name": "Mia Pasta"
    },
    "geometry": {
      "type": "Point",
      "coordinates": [
        -71.2235219,
        46.8139973
      ]
    },
    "id": "node/2409289571"
  },
  {
    "type": "Feature",
    "properties": {
      "@id": "node/2409372559",
      "amenity": "fast_food",
      "brand": "Subway",
      "brand:wikidata": "Q244457",
      "brand:wikipedia": "en:Subway (restaurant)",
      "cuisine": "sandwich",
      "name": "Subway",
      "takeaway": "yes"
    },
    "geometry": {
      "type": "Point",
      "coordinates": [
        -71.2253985,
        46.8133545
      ]
    },
    "id": "node/2409372559"
  },
  {
    "type": "Feature",
    "properties": {
      "@id": "node/2409372560",
      "addr:city": "Québec",
      "addr:country": "CA",
      "addr:housenumber": "354",
      "addr:province": "QC",
      "addr:street": "Boulevard Charest Est",
      "amenity": "fast_food",
      "brand": "Extreme Pita",
      "brand:wikidata": "Q5422367",
      "brand:wikipedia": "en:Extreme Pita",
      "cuisine": "pita",
      "internet_1": "no",
      "internet_2": "ZAP Québec",
      "internet_access": "wlan",
      "internet_access:fee": "no",
      "name": "Extreme Pita",
      "takeaway": "yes"
    },
    "geometry": {
      "type": "Point",
      "coordinates": [
        -71.2252192,
        46.8134155
      ]
    },
    "id": "node/2409372560"
  },
  {
    "type": "Feature",
    "properties": {
      "@id": "node/2409378997",
      "amenity": "restaurant",
      "cuisine": "breakfast",
      "name": "Nagano",
      "name:fr": "L'Usine gourmande"
    },
    "geometry": {
      "type": "Point",
      "coordinates": [
        -71.4359685,
        46.7498387
      ]
    },
    "id": "node/2409378997"
  },
  {
    "type": "Feature",
    "properties": {
      "@id": "node/2417226368",
      "addr:housenumber": "5000",
      "addr:street": "3e Avenue Ouest",
      "amenity": "fast_food",
      "cuisine": "pizza",
      "name": "2 pour 1 Pizza",
      "source": "Survey"
    },
    "geometry": {
      "type": "Point",
      "coordinates": [
        -71.2573721,
        46.8459644
      ]
    },
    "id": "node/2417226368"
  },
  {
    "type": "Feature",
    "properties": {
      "@id": "node/2417267265",
      "addr:city": "Québec",
      "addr:housenumber": "4585",
      "addr:postcode": "G1H 6E6",
      "addr:province": "Québec",
      "addr:street": "3e Avenue Ouest",
      "amenity": "fast_food",
      "cuisine": "burger;ice_cream;poutine;friture",
      "drive_through": "no",
      "name": "Casse-croûte La Dégustation",
      "opening_hours": "Mo-Su 11:00-23:00",
      "phone": "+1-418-621-9660",
      "source": "Survey",
      "takeaway": "only"
    },
    "geometry": {
      "type": "Point",
      "coordinates": [
        -71.2553532,
        46.8425947
      ]
    },
    "id": "node/2417267265"
  },
  {
    "type": "Feature",
    "properties": {
      "@id": "node/2417267266",
      "amenity": "restaurant",
      "cuisine": "thai",
      "name": "Thaï Moderne",
      "source": "Survey"
    },
    "geometry": {
      "type": "Point",
      "coordinates": [
        -71.255749,
        46.8430754
      ]
    },
    "id": "node/2417267266"
  },
  {
    "type": "Feature",
    "properties": {
      "@id": "node/2417269562",
      "addr:housenumber": "5000",
      "addr:street": "3e Avenue Ouest",
      "amenity": "restaurant",
      "cuisine": "indian",
      "name": "Cari",
      "source": "Survey"
    },
    "geometry": {
      "type": "Point",
      "coordinates": [
        -71.2576298,
        46.8461351
      ]
    },
    "id": "node/2417269562"
  },
  {
    "type": "Feature",
    "properties": {
      "@id": "node/2418444912",
      "addr:street": "1e Avenue",
      "amenity": "fast_food",
      "brand": "A&W",
      "brand:wikidata": "Q2818848",
      "brand:wikipedia": "en:A&W (Canada)",
      "cuisine": "burger",
      "name": "A&W",
      "source": "Survey",
      "takeaway": "yes",
      "wheelchair": "yes"
    },
    "geometry": {
      "type": "Point",
      "coordinates": [
        -71.2523448,
        46.8450494
      ]
    },
    "id": "node/2418444912"
  },
  {
    "type": "Feature",
    "properties": {
      "@id": "node/2418444913",
      "addr:street": "1e Avenue",
      "amenity": "fast_food",
      "brand": "Subway",
      "brand:wikidata": "Q244457",
      "brand:wikipedia": "en:Subway (restaurant)",
      "cuisine": "sandwich",
      "name": "Subway",
      "source": "Survey",
      "takeaway": "yes"
    },
    "geometry": {
      "type": "Point",
      "coordinates": [
        -71.2522778,
        46.8448127
      ]
    },
    "id": "node/2418444913"
  },
  {
    "type": "Feature",
    "properties": {
      "@id": "node/2418444915",
      "addr:housenumber": "4560",
      "addr:street": "1e Avenue",
      "amenity": "restaurant",
      "cuisine": "chinese",
      "name": "Jardin du Bonheur",
      "source": "Survey"
    },
    "geometry": {
      "type": "Point",
      "coordinates": [
        -71.2508991,
        46.8446182
      ]
    },
    "id": "node/2418444915"
  },
  {
    "type": "Feature",
    "properties": {
      "@id": "node/2421232471",
      "amenity": "restaurant",
      "cuisine": "asian",
      "name": "La Merveille du Viêt-nam",
      "source": "survey"
    },
    "geometry": {
      "type": "Point",
      "coordinates": [
        -71.2378232,
        46.8304443
      ]
    },
    "id": "node/2421232471"
  },
  {
    "type": "Feature",
    "properties": {
      "@id": "node/2424154055",
      "amenity": "restaurant",
      "cuisine": "kebab",
      "name": "Le Buffet des Continents",
      "source": "Bing and personnal knowledge"
    },
    "geometry": {
      "type": "Point",
      "coordinates": [
        -71.2462375,
        46.8436747
      ]
    },
    "id": "node/2424154055"
  },
  {
    "type": "Feature",
    "properties": {
      "@id": "node/2424154058",
      "amenity": "cafe",
      "brand": "Tim Hortons",
      "brand:wikidata": "Q175106",
      "brand:wikipedia": "en:Tim Hortons",
      "cuisine": "coffee_shop",
      "name": "Tim Hortons",
      "operator": "Restaurant Brands International Inc.",
      "source": "Bing and personnal knowledge",
      "takeaway": "yes",
      "website": "https://www.timhortons.com/"
    },
    "geometry": {
      "type": "Point",
      "coordinates": [
        -71.2443184,
        46.8435577
      ]
    },
    "id": "node/2424154058"
  },
  {
    "type": "Feature",
    "properties": {
      "@id": "node/2426275406",
      "amenity": "restaurant",
      "brand": "La Cage",
      "brand:wikidata": "Q3206980",
      "brand:wikipedia": "fr:La Cage aux Sports",
      "cuisine": "burger;chicken;sandwich;fish;pasta",
      "name": "La Cage",
      "source": "Survey"
    },
    "geometry": {
      "type": "Point",
      "coordinates": [
        -71.2729593,
        46.841305
      ]
    },
    "id": "node/2426275406"
  },
  {
    "type": "Feature",
    "properties": {
      "@id": "node/2428820650",
      "amenity": "restaurant",
      "brand": "Boston Pizza",
      "brand:wikidata": "Q894578",
      "brand:wikipedia": "en:Boston Pizza",
      "cuisine": "pizza",
      "name": "Boston Pizza"
    },
    "geometry": {
      "type": "Point",
      "coordinates": [
        -71.2137362,
        46.8647035
      ]
    },
    "id": "node/2428820650"
  },
  {
    "type": "Feature",
    "properties": {
      "@id": "node/2428820702",
      "amenity": "cafe",
      "brand": "Starbucks",
      "brand:wikidata": "Q37158",
      "brand:wikipedia": "en:Starbucks",
      "cuisine": "coffee_shop",
      "internet_access": "wlan",
      "internet_access:fee": "no",
      "name": "Starbucks",
      "official_name": "Starbucks Coffee",
      "source": "Bing Maps and personnal knowledge",
      "takeaway": "yes",
      "toilets:wheelchair": "yes",
      "wheelchair": "yes"
    },
    "geometry": {
      "type": "Point",
      "coordinates": [
        -71.2143041,
        46.8643692
      ]
    },
    "id": "node/2428820702"
  },
  {
    "type": "Feature",
    "properties": {
      "@id": "node/2428831247",
      "amenity": "fast_food",
      "brand": "McDonald's",
      "brand:wikidata": "Q38076",
      "brand:wikipedia": "en:McDonald's",
      "cuisine": "burger",
      "internet_access": "wlan",
      "internet_access:fee": "no",
      "name": "McDonald's",
      "takeaway": "yes",
      "website": "http://www.mcdonalds.ca/"
    },
    "geometry": {
      "type": "Point",
      "coordinates": [
        -71.2154582,
        46.8640176
      ]
    },
    "id": "node/2428831247"
  },
  {
    "type": "Feature",
    "properties": {
      "@id": "node/2428831281",
      "amenity": "fast_food",
      "brand": "Burger King",
      "brand:wikidata": "Q177054",
      "brand:wikipedia": "en:Burger King",
      "cuisine": "burger",
      "name": "Burger King",
      "takeaway": "yes"
    },
    "geometry": {
      "type": "Point",
      "coordinates": [
        -71.2059792,
        46.8686554
      ]
    },
    "id": "node/2428831281"
  },
  {
    "type": "Feature",
    "properties": {
      "@id": "node/2428831285",
      "amenity": "fast_food",
      "brand": "Subway",
      "brand:wikidata": "Q244457",
      "brand:wikipedia": "en:Subway (restaurant)",
      "cuisine": "sandwich",
      "name": "Subway",
      "takeaway": "yes"
    },
    "geometry": {
      "type": "Point",
      "coordinates": [
        -71.2164452,
        46.8642524
      ]
    },
    "id": "node/2428831285"
  },
  {
    "type": "Feature",
    "properties": {
      "@id": "node/2428831313",
      "alt_name": "Harveh's",
      "amenity": "fast_food",
      "brand": "Harvey's",
      "brand:wikidata": "Q1466184",
      "brand:wikipedia": "en:Harvey's",
      "cuisine": "burger",
      "name": "Harvey's",
      "takeaway": "yes"
    },
    "geometry": {
      "type": "Point",
      "coordinates": [
        -71.2025631,
        46.870652
      ]
    },
    "id": "node/2428831313"
  },
  {
    "type": "Feature",
    "properties": {
      "@id": "node/2428831317",
      "amenity": "fast_food",
      "brand": "Sushi Shop",
      "brand:wikidata": "Q64840990",
      "cuisine": "sushi",
      "name": "Sushi Shop",
      "takeaway": "yes"
    },
    "geometry": {
      "type": "Point",
      "coordinates": [
        -71.2165042,
        46.8643221
      ]
    },
    "id": "node/2428831317"
  },
  {
    "type": "Feature",
    "properties": {
      "@id": "node/2440002764",
      "amenity": "restaurant",
      "cuisine": "thai",
      "name": "Thai Zone"
    },
    "geometry": {
      "type": "Point",
      "coordinates": [
        -71.2495285,
        46.8177145
      ]
    },
    "id": "node/2440002764"
  },
  {
    "type": "Feature",
    "properties": {
      "@id": "node/2444312257",
      "amenity": "restaurant",
      "cuisine": "thai",
      "name": "Wazy"
    },
    "geometry": {
      "type": "Point",
      "coordinates": [
        -71.2887384,
        46.7665281
      ]
    },
    "id": "node/2444312257"
  },
  {
    "type": "Feature",
    "properties": {
      "@id": "node/2468728598",
      "addr:city": "Québec",
      "addr:housenumber": "1298",
      "addr:postcode": "G1S 0A6",
      "addr:province": "QC",
      "addr:street": "Chemin Sainte-Foy",
      "amenity": "cafe",
      "brand": "Second Cup",
      "brand:wikidata": "Q862180",
      "brand:wikipedia": "en:Second Cup",
      "cuisine": "coffee_shop",
      "internet_access": "wlan",
      "name": "Second Cup",
      "phone": "+1 418-527-3095",
      "source": "survey",
      "takeaway": "yes"
    },
    "geometry": {
      "type": "Point",
      "coordinates": [
        -71.2529585,
        46.7956674
      ]
    },
    "id": "node/2468728598"
  },
  {
    "type": "Feature",
    "properties": {
      "@id": "node/2498067279",
      "amenity": "fast_food",
      "brand": "Subway",
      "brand:wikidata": "Q244457",
      "brand:wikipedia": "en:Subway (restaurant)",
      "cuisine": "sandwich",
      "name": "Subway",
      "takeaway": "yes"
    },
    "geometry": {
      "type": "Point",
      "coordinates": [
        -71.1415324,
        46.7715264
      ]
    },
    "id": "node/2498067279"
  },
  {
    "type": "Feature",
    "properties": {
      "@id": "node/2498355450",
      "amenity": "restaurant",
      "cuisine": "italian",
      "name": "Portofino"
    },
    "geometry": {
      "type": "Point",
      "coordinates": [
        -71.2985923,
        46.7742001
      ]
    },
    "id": "node/2498355450"
  },
  {
    "type": "Feature",
    "properties": {
      "@id": "node/2504364702",
      "amenity": "restaurant",
      "brand": "La Cage",
      "brand:wikidata": "Q3206980",
      "brand:wikipedia": "fr:La Cage aux Sports",
      "cuisine": "burger;chicken;sandwich;fish;pasta",
      "indoor": "yes",
      "internet_access": "wlan",
      "internet_access:fee": "no",
      "name": "La Cage"
    },
    "geometry": {
      "type": "Point",
      "coordinates": [
        -71.2836347,
        46.7704802
      ]
    },
    "id": "node/2504364702"
  },
  {
    "type": "Feature",
    "properties": {
      "@id": "node/2507405050",
      "addr:city": "Québec",
      "addr:housenumber": "1180",
      "addr:postcode": "G1R 3N8",
      "addr:street": "Rue D'Artigny",
      "amenity": "restaurant",
      "cuisine": "chinese",
      "name": "Baifoo Express",
      "phone": "+1 418-914-7681",
      "wheelchair": "no"
    },
    "geometry": {
      "type": "Point",
      "coordinates": [
        -71.2158347,
        46.8071456
      ]
    },
    "id": "node/2507405050"
  },
  {
    "type": "Feature",
    "properties": {
      "@id": "node/2509482014",
      "addr:city": "Québec",
      "addr:housenumber": "272",
      "addr:postcode": "G1C 3P8",
      "addr:province": "QC",
      "addr:street": "Rue Seigneuriale",
      "amenity": "restaurant",
      "cuisine": "pizza",
      "internet_1": "no",
      "internet_2": "ZAP Québec",
      "internet_access": "wlan",
      "internet_access:fee": "no",
      "name": "Pizza Passion",
      "phone": "+1 418-667-7679",
      "source": "Bing Maps + ZAP Québec"
    },
    "geometry": {
      "type": "Point",
      "coordinates": [
        -71.1989165,
        46.877196
      ]
    },
    "id": "node/2509482014"
  },
  {
    "type": "Feature",
    "properties": {
      "@id": "node/2509482015",
      "addr:city": "Québec",
      "addr:country": "CA",
      "addr:housenumber": "228",
      "addr:province": "QC",
      "addr:street": "Rue Seigneuriale",
      "amenity": "fast_food",
      "cuisine": "pizza",
      "internet_1": "no",
      "internet_2": "ZAP Québec",
      "internet_access": "wlan",
      "internet_access:fee": "no",
      "name": "Pizza Salvatoré",
      "phone": "+1 418-660-0000",
      "source": "Bing Maps + ZAP Québec"
    },
    "geometry": {
      "type": "Point",
      "coordinates": [
        -71.1966849,
        46.8749162
      ]
    },
    "id": "node/2509482015"
  },
  {
    "type": "Feature",
    "properties": {
      "@id": "node/2509482016",
      "amenity": "fast_food",
      "cuisine": "thai",
      "name": "Thaï Express",
      "source": "Bing Maps and personnal knowledge"
    },
    "geometry": {
      "type": "Point",
      "coordinates": [
        -71.1967239,
        46.8750741
      ]
    },
    "id": "node/2509482016"
  },
  {
    "type": "Feature",
    "properties": {
      "@id": "node/2517403870",
      "addr:city": "Québec",
      "addr:housenumber": "1238",
      "addr:postcode": "G1L 3K9",
      "addr:province": "QC",
      "addr:street": "1ère Avenue",
      "amenity": "restaurant",
      "cuisine": "mediterranean",
      "name": "Kebaberie Limoilou Izgara",
      "phone": "+1 418-523-7634"
    },
    "geometry": {
      "type": "Point",
      "coordinates": [
        -71.2343576,
        46.8267316
      ]
    },
    "id": "node/2517403870"
  },
  {
    "type": "Feature",
    "properties": {
      "@id": "node/2519977531",
      "addr:city": "Québec",
      "addr:housenumber": "1063",
      "addr:postcode": "G1L 2X2",
      "addr:province": "QC",
      "addr:street": "3e Avenue",
      "amenity": "restaurant",
      "cuisine": "mexican",
      "name": "La Salsa",
      "phone": "+1-418-522-0032"
    },
    "geometry": {
      "type": "Point",
      "coordinates": [
        -71.2303578,
        46.8268062
      ]
    },
    "id": "node/2519977531"
  },
  {
    "type": "Feature",
    "properties": {
      "@id": "node/2519977533",
      "addr:city": "Québec",
      "addr:country": "CA",
      "addr:housenumber": "1073",
      "addr:province": "QC",
      "addr:street": "3e Avenue",
      "amenity": "restaurant",
      "cuisine": "sandwich",
      "name": "Le Fun en Bouche"
    },
    "geometry": {
      "type": "Point",
      "coordinates": [
        -71.2304115,
        46.8268484
      ]
    },
    "id": "node/2519977533"
  },
  {
    "type": "Feature",
    "properties": {
      "@id": "node/2519977537",
      "addr:city": "Québec",
      "addr:housenumber": "1099",
      "addr:province": "QC",
      "addr:street": "3e Avenue",
      "amenity": "restaurant",
      "cuisine": "pizza",
      "name": "Stratos Pizzeria",
      "phone": "+1-418-521-4040",
      "source": "Bing Maps"
    },
    "geometry": {
      "type": "Point",
      "coordinates": [
        -71.2304866,
        46.8269328
      ]
    },
    "id": "node/2519977537"
  },
  {
    "type": "Feature",
    "properties": {
      "@id": "node/2522671394",
      "amenity": "restaurant",
      "cuisine": "breakfast",
      "name": "Eggsquis"
    },
    "geometry": {
      "type": "Point",
      "coordinates": [
        -71.2552735,
        46.8202721
      ]
    },
    "id": "node/2522671394"
  },
  {
    "type": "Feature",
    "properties": {
      "@id": "node/2522792246",
      "amenity": "cafe",
      "cuisine": "ice_cream",
      "name": "Maitre Glacier"
    },
    "geometry": {
      "type": "Point",
      "coordinates": [
        -71.227446,
        46.8241881
      ]
    },
    "id": "node/2522792246"
  },
  {
    "type": "Feature",
    "properties": {
      "@id": "node/2525483631",
      "amenity": "restaurant",
      "cuisine": "pizza",
      "name": "Pizzeria Express 67"
    },
    "geometry": {
      "type": "Point",
      "coordinates": [
        -71.3253663,
        46.8771067
      ]
    },
    "id": "node/2525483631"
  },
  {
    "type": "Feature",
    "properties": {
      "@id": "node/2525483633",
      "amenity": "restaurant",
      "cuisine": "sushi",
      "name": "YUZU"
    },
    "geometry": {
      "type": "Point",
      "coordinates": [
        -71.3259326,
        46.8768388
      ]
    },
    "id": "node/2525483633"
  },
  {
    "type": "Feature",
    "properties": {
      "@id": "node/2527418382",
      "addr:housenumber": "269",
      "amenity": "restaurant",
      "cuisine": "asian",
      "name": "Angkor siemreap"
    },
    "geometry": {
      "type": "Point",
      "coordinates": [
        -71.2239846,
        46.8083163
      ]
    },
    "id": "node/2527418382"
  },
  {
    "type": "Feature",
    "properties": {
      "@id": "node/2527452373",
      "amenity": "restaurant",
      "cuisine": "japanese",
      "name": "Tokyo"
    },
    "geometry": {
      "type": "Point",
      "coordinates": [
        -71.2220942,
        46.8090065
      ]
    },
    "id": "node/2527452373"
  },
  {
    "type": "Feature",
    "properties": {
      "@id": "node/2527478942",
      "addr:city": "Québec",
      "addr:housenumber": "575",
      "addr:postcode": "G1R 1P5",
      "addr:province": "Québec",
      "addr:street": "Rue Saint-Jean",
      "amenity": "cafe",
      "cuisine": "coffee_shop",
      "name": "La Brûlerie de café de Québec",
      "opening_hours": "Mo-We 07:30-20:00; Th,Fr 07:30-21:00; Sa,Su 08:30-17:00",
      "phone": "+1-418-529-4769",
      "website": "http://cantookcafe.com/"
    },
    "geometry": {
      "type": "Point",
      "coordinates": [
        -71.2200509,
        46.8099001
      ]
    },
    "id": "node/2527478942"
  },
  {
    "type": "Feature",
    "properties": {
      "@id": "node/2527478943",
      "addr:city": "Québec",
      "addr:housenumber": "555",
      "addr:postcode": "G1R 1P5",
      "addr:province": "Québec",
      "addr:street": "Rue Saint-Jean",
      "amenity": "restaurant",
      "cuisine": "asian",
      "name": "La Campagne",
      "opening_hours": "Mo-Th 11:00-14:00,17:00-21:00; Fr 11:00-14:00,17:00-21:30; Sa 17:00-21:30",
      "phone": "+1-418-525-5247",
      "website": "http://resto-la-campagne.com/"
    },
    "geometry": {
      "type": "Point",
      "coordinates": [
        -71.2202775,
        46.8098017
      ]
    },
    "id": "node/2527478943"
  },
  {
    "type": "Feature",
    "properties": {
      "@id": "node/2529913297",
      "amenity": "fast_food",
      "cuisine": "chicken",
      "name": "Rôtisserie Fusée",
      "source": "Bing Maps"
    },
    "geometry": {
      "type": "Point",
      "coordinates": [
        -71.2277194,
        46.8120696
      ]
    },
    "id": "node/2529913297"
  },
  {
    "type": "Feature",
    "properties": {
      "@id": "node/2531494514",
      "addr:city": "Québec",
      "addr:housenumber": "782",
      "addr:postcode": "G1K 3C3",
      "addr:province": "Québec",
      "addr:street": "Rue Saint-Joseph Est",
      "amenity": "cafe",
      "breakfast": "yes",
      "cuisine": "soup;salad;sandwich;pizza",
      "internet_access": "wlan",
      "name": "Caffè Roma",
      "phone": "+1 418 914 9773",
      "source": "Bing Maps"
    },
    "geometry": {
      "type": "Point",
      "coordinates": [
        -71.2195086,
        46.8159802
      ]
    },
    "id": "node/2531494514"
  },
  {
    "type": "Feature",
    "properties": {
      "@id": "node/2531494530",
      "amenity": "restaurant",
      "cuisine": "sushi",
      "name": "Yuzu",
      "source": "Bing Maps"
    },
    "geometry": {
      "type": "Point",
      "coordinates": [
        -71.2190914,
        46.8158838
      ]
    },
    "id": "node/2531494530"
  },
  {
    "type": "Feature",
    "properties": {
      "@id": "node/2538484280",
      "addr:city": "Lévis",
      "addr:housename": "Asthon Lévis",
      "addr:housenumber": "5430",
      "addr:postcode": "G6V 9Y1",
      "addr:street": "Rue Wilfrid-Hallé",
      "amenity": "restaurant",
      "cuisine": "poutine;burger;traditional",
      "name": "Ashton Lévis"
    },
    "geometry": {
      "type": "Point",
      "coordinates": [
        -71.1630382,
        46.7838343
      ]
    },
    "id": "node/2538484280"
  },
  {
    "type": "Feature",
    "properties": {
      "@id": "node/2538725223",
      "amenity": "restaurant",
      "cuisine": "pizza",
      "name": "Mille et une pizzas",
      "source": "Bing Maps"
    },
    "geometry": {
      "type": "Point",
      "coordinates": [
        -71.2137589,
        46.8163507
      ]
    },
    "id": "node/2538725223"
  },
  {
    "type": "Feature",
    "properties": {
      "@id": "node/2545304462",
      "addr:city": "Québec",
      "addr:housenumber": "75",
      "addr:postcode": "G1K 3V8",
      "addr:province": "QC",
      "addr:street": "Rue Saint-Paul",
      "amenity": "cafe",
      "cuisine": "french",
      "email": "lecafestmalo@hotmail.com",
      "internet_1": "no",
      "internet_2": "ZAP Québec",
      "internet_access": "wlan",
      "internet_access:fee": "no",
      "name": "Café Le Saint-Malo",
      "phone": "+1 418-692-2004",
      "website": "http://www.lecafestmalo.com/"
    },
    "geometry": {
      "type": "Point",
      "coordinates": [
        -71.2041174,
        46.8162329
      ]
    },
    "id": "node/2545304462"
  },
  {
    "type": "Feature",
    "properties": {
      "@id": "node/2545347037",
      "addr:city": "Québec",
      "addr:housenumber": "89",
      "addr:street": "Rue du Saunt Au Matelot",
      "amenity": "restaurant",
      "cuisine": "asian",
      "name": "Asia",
      "source": "Bing Maps",
      "takeaway": "yes"
    },
    "geometry": {
      "type": "Point",
      "coordinates": [
        -71.2037244,
        46.8160478
      ]
    },
    "id": "node/2545347037"
  },
  {
    "type": "Feature",
    "properties": {
      "@id": "node/2545347044",
      "amenity": "restaurant",
      "cuisine": "pizza",
      "name": "La Piazetta",
      "source": "Bing Maps"
    },
    "geometry": {
      "type": "Point",
      "coordinates": [
        -71.2038445,
        46.816206
      ]
    },
    "id": "node/2545347044"
  },
  {
    "type": "Feature",
    "properties": {
      "@id": "node/2545719254",
      "addr:city": "Québec",
      "addr:housenumber": "95",
      "addr:postcode": "G1K 3V8",
      "addr:province": "QC",
      "addr:street": "Rue Saint-Paul",
      "amenity": "restaurant",
      "cuisine": "regional",
      "name": "Buffet de l'Antiquaire",
      "phone": "+1-418-692-2661",
      "source": "Bing Maps"
    },
    "geometry": {
      "type": "Point",
      "coordinates": [
        -71.2045252,
        46.8162731
      ]
    },
    "id": "node/2545719254"
  },
  {
    "type": "Feature",
    "properties": {
      "@id": "node/2545821015",
      "addr:city": "Québec",
      "addr:country": "CA",
      "addr:housenumber": "84",
      "addr:province": "QC",
      "addr:street": "Rue Dalhousie",
      "amenity": "restaurant",
      "cuisine": "french",
      "internet_1": "no",
      "internet_2": "ZAP Québec",
      "internet_access": "wlan",
      "internet_access:fee": "no",
      "name": "Café du Monde",
      "phone": "+1 418-692-4455",
      "source": "Bing Maps + ZAP Québec",
      "website": "https://www.lecafedumonde.com/"
    },
    "geometry": {
      "type": "Point",
      "coordinates": [
        -71.2004741,
        46.8166831
      ]
    },
    "id": "node/2545821015"
  },
  {
    "type": "Feature",
    "properties": {
      "@id": "node/2546164544",
      "addr:city": "Québec",
      "addr:housenumber": "24",
      "addr:postcode": "G1K 4H7",
      "addr:province": "QC",
      "addr:street": "Boulevard Champlain",
      "amenity": "restaurant",
      "cuisine": "sandwich",
      "fax": "+1-418-694-0303",
      "internet_1": "no",
      "internet_2": "ZAP Québec",
      "internet_access": "wlan",
      "internet_access:fee": "no",
      "name": "Le Petit Cochon Dingue",
      "source": "Bing Maps + ZAP Québec",
      "website": "http://www.lepetitcochondingue.com/"
    },
    "geometry": {
      "type": "Point",
      "coordinates": [
        -71.2034293,
        46.8120852
      ]
    },
    "id": "node/2546164544"
  },
  {
    "type": "Feature",
    "properties": {
      "@id": "node/2546164549",
      "amenity": "restaurant",
      "cuisine": "italian",
      "name": "Trattoria Sant-Angelo",
      "source": "Bing Maps"
    },
    "geometry": {
      "type": "Point",
      "coordinates": [
        -71.2034427,
        46.8124244
      ]
    },
    "id": "node/2546164549"
  },
  {
    "type": "Feature",
    "properties": {
      "@id": "node/2623031594",
      "addr:city": "Québec",
      "addr:housenumber": "2300",
      "addr:postcode": "G1V 1S5",
      "addr:province": "Québec",
      "addr:street": "Chemin Sainte-Foy",
      "amenity": "restaurant",
      "brand": "Boston Pizza",
      "brand:wikidata": "Q894578",
      "brand:wikipedia": "en:Boston Pizza",
      "cuisine": "pizza",
      "name": "Boston Pizza",
      "opening_hours": "Su-We 11:00-12:00; Th-Sa 11:00-02:00",
      "phone": "+1 418 914-6044",
      "website": "https://bostonpizza.com/"
    },
    "geometry": {
      "type": "Point",
      "coordinates": [
        -71.278733,
        46.7869512
      ]
    },
    "id": "node/2623031594"
  },
  {
    "type": "Feature",
    "properties": {
      "@id": "node/2664058017",
      "amenity": "restaurant",
      "cuisine": "sushi",
      "delivery": "no",
      "internet_access": "no",
      "name": "Sushibox",
      "outdoor_seating": "no",
      "smoking": "no",
      "takeaway": "yes",
      "website": "https://www.sushibox.ca/"
    },
    "geometry": {
      "type": "Point",
      "coordinates": [
        -71.3636961,
        46.7603924
      ]
    },
    "id": "node/2664058017"
  },
  {
    "type": "Feature",
    "properties": {
      "@id": "node/2664198491",
      "amenity": "restaurant",
      "brewery": "Sleeman Silvercreek;Okanagan Pale Ale",
      "cuisine": "barbecue",
      "name": "Restaurant Les Boucanes",
      "website": "http://www.lesboucanes.com/"
    },
    "geometry": {
      "type": "Point",
      "coordinates": [
        -71.363504,
        46.760141
      ]
    },
    "id": "node/2664198491"
  },
  {
    "type": "Feature",
    "properties": {
      "@id": "node/2706157253",
      "amenity": "restaurant",
      "cuisine": "sushi",
      "name": "Yuzu"
    },
    "geometry": {
      "type": "Point",
      "coordinates": [
        -71.2501999,
        46.8410116
      ]
    },
    "id": "node/2706157253"
  },
  {
    "type": "Feature",
    "properties": {
      "@id": "node/2706157256",
      "amenity": "fast_food",
      "brand": "Harvey's",
      "brand:wikidata": "Q1466184",
      "brand:wikipedia": "en:Harvey's",
      "cuisine": "burger",
      "name": "Harvey's",
      "takeaway": "yes"
    },
    "geometry": {
      "type": "Point",
      "coordinates": [
        -71.2504852,
        46.840892
      ]
    },
    "id": "node/2706157256"
  },
  {
    "type": "Feature",
    "properties": {
      "@id": "node/2711545248",
      "addr:housenumber": "736",
      "addr:street": "Avenue Royale",
      "amenity": "restaurant",
      "cuisine": "sushi",
      "name": "Sushi World Beauport",
      "phone": "+1-418-522-2252",
      "source:phone": "survey"
    },
    "geometry": {
      "type": "Point",
      "coordinates": [
        -71.1888563,
        46.8612226
      ]
    },
    "id": "node/2711545248"
  },
  {
    "type": "Feature",
    "properties": {
      "@id": "node/2711581665",
      "amenity": "restaurant",
      "cuisine": "sushi",
      "name": "Yuzu"
    },
    "geometry": {
      "type": "Point",
      "coordinates": [
        -71.2258057,
        46.8289888
      ]
    },
    "id": "node/2711581665"
  },
  {
    "type": "Feature",
    "properties": {
      "@id": "node/2716322678",
      "amenity": "restaurant",
      "cuisine": "sushi",
      "name": "Kimono Sushi Bar"
    },
    "geometry": {
      "type": "Point",
      "coordinates": [
        -71.2919231,
        46.769612
      ]
    },
    "id": "node/2716322678"
  },
  {
    "type": "Feature",
    "properties": {
      "@id": "node/2719632959",
      "amenity": "fast_food",
      "brand": "Subway",
      "brand:wikidata": "Q244457",
      "brand:wikipedia": "en:Subway (restaurant)",
      "cuisine": "sandwich",
      "name": "Subway",
      "takeaway": "yes"
    },
    "geometry": {
      "type": "Point",
      "coordinates": [
        -71.3201399,
        46.7707815
      ]
    },
    "id": "node/2719632959"
  },
  {
    "type": "Feature",
    "properties": {
      "@id": "node/2719632962",
      "addr:housenumber": "3280",
      "addr:street": "Chemin Sainte-Foy",
      "amenity": "restaurant",
      "cuisine": "chinese",
      "name": "La Lanterne Rouge",
      "phone": "+1-418-651-6578"
    },
    "geometry": {
      "type": "Point",
      "coordinates": [
        -71.3197503,
        46.7710329
      ]
    },
    "id": "node/2719632962"
  },
  {
    "type": "Feature",
    "properties": {
      "@id": "node/2721770452",
      "addr:city": "Québec",
      "addr:housenumber": "109",
      "addr:postcode": "G1L 2M3",
      "addr:street": "10e Rue",
      "amenity": "restaurant",
      "capacity": "30",
      "cuisine": "poutine;pizza;burger",
      "name": "Casse-Croûte Pierrot",
      "opening_hours": "24/7",
      "phone": "+1-418-529-4273",
      "website": "http://casse-croute.com/"
    },
    "geometry": {
      "type": "Point",
      "coordinates": [
        -71.2329888,
        46.8252667
      ]
    },
    "id": "node/2721770452"
  },
  {
    "type": "Feature",
    "properties": {
      "@id": "node/2766941685",
      "amenity": "restaurant",
      "cuisine": "italian",
      "name": "La Scala"
    },
    "geometry": {
      "type": "Point",
      "coordinates": [
        -71.2258269,
        46.804557
      ]
    },
    "id": "node/2766941685"
  },
  {
    "type": "Feature",
    "properties": {
      "@id": "node/2774269915",
      "amenity": "restaurant",
      "cuisine": "pizza",
      "name": "Resto-Usine Zapp"
    },
    "geometry": {
      "type": "Point",
      "coordinates": [
        -71.1840563,
        46.866174
      ]
    },
    "id": "node/2774269915"
  },
  {
    "type": "Feature",
    "properties": {
      "@id": "node/2786288978",
      "amenity": "restaurant",
      "cuisine": "thai",
      "name": "Thaï Zone",
      "source": "survey"
    },
    "geometry": {
      "type": "Point",
      "coordinates": [
        -71.2784206,
        46.8708572
      ]
    },
    "id": "node/2786288978"
  },
  {
    "type": "Feature",
    "properties": {
      "@id": "node/2786289017",
      "amenity": "restaurant",
      "cuisine": "chicken",
      "name": "PFK",
      "source": "survey"
    },
    "geometry": {
      "type": "Point",
      "coordinates": [
        -71.2768613,
        46.8704655
      ]
    },
    "id": "node/2786289017"
  },
  {
    "type": "Feature",
    "properties": {
      "@id": "node/2786289022",
      "amenity": "restaurant",
      "cuisine": "pizza",
      "name": "Stratos",
      "source": "survey"
    },
    "geometry": {
      "type": "Point",
      "coordinates": [
        -71.2780471,
        46.8718064
      ]
    },
    "id": "node/2786289022"
  },
  {
    "type": "Feature",
    "properties": {
      "@id": "node/2786938349",
      "amenity": "restaurant",
      "cuisine": "sushi",
      "name": "Sushi Oshima"
    },
    "geometry": {
      "type": "Point",
      "coordinates": [
        -71.3053409,
        46.8993898
      ]
    },
    "id": "node/2786938349"
  },
  {
    "type": "Feature",
    "properties": {
      "@id": "node/2786938376",
      "amenity": "fast_food",
      "brand": "Subway",
      "brand:wikidata": "Q244457",
      "brand:wikipedia": "en:Subway (restaurant)",
      "cuisine": "sandwich",
      "name": "Subway",
      "opening_hours": "Mo-Su 07:00-22:00",
      "takeaway": "yes"
    },
    "geometry": {
      "type": "Point",
      "coordinates": [
        -71.2999804,
        46.8951873
      ]
    },
    "id": "node/2786938376"
  },
  {
    "type": "Feature",
    "properties": {
      "@id": "node/2790769114",
      "addr:city": "Québec",
      "addr:housenumber": "122",
      "addr:postcode": "G1R 1X5",
      "addr:province": "Québec",
      "addr:street": "Rue Crémazie Ouest",
      "amenity": "restaurant",
      "cuisine": "burger",
      "name": "Frite Alors!",
      "opening_hours": "Sa-We 11:30-21:00; Th-Fr 11:30-02:00"
    },
    "geometry": {
      "type": "Point",
      "coordinates": [
        -71.2277223,
        46.8047495
      ]
    },
    "id": "node/2790769114"
  },
  {
    "type": "Feature",
    "properties": {
      "@id": "node/2793894182",
      "amenity": "fast_food",
      "brand": "Sushi Shop",
      "brand:wikidata": "Q64840990",
      "cuisine": "sushi",
      "name": "Sushi Shop",
      "source": "survey",
      "takeaway": "yes"
    },
    "geometry": {
      "type": "Point",
      "coordinates": [
        -71.2469135,
        46.8410585
      ]
    },
    "id": "node/2793894182"
  },
  {
    "type": "Feature",
    "properties": {
      "@id": "node/2793894190",
      "amenity": "fast_food",
      "brand": "Domino's",
      "brand:wikidata": "Q839466",
      "brand:wikipedia": "en:Domino's Pizza",
      "cuisine": "pizza",
      "name": "Domino's",
      "takeaway": "yes"
    },
    "geometry": {
      "type": "Point",
      "coordinates": [
        -71.246817,
        46.8411007
      ]
    },
    "id": "node/2793894190"
  },
  {
    "type": "Feature",
    "properties": {
      "@id": "node/2807666167",
      "amenity": "fast_food",
      "brand": "Subway",
      "brand:wikidata": "Q244457",
      "brand:wikipedia": "en:Subway (restaurant)",
      "cuisine": "sandwich",
      "name": "Subway",
      "takeaway": "yes"
    },
    "geometry": {
      "type": "Point",
      "coordinates": [
        -71.2157762,
        46.807086
      ]
    },
    "id": "node/2807666167"
  },
  {
    "type": "Feature",
    "properties": {
      "@id": "node/2826245205",
      "addr:housenumber": "586",
      "amenity": "cafe",
      "brand": "Second Cup",
      "brand:wikidata": "Q862180",
      "brand:wikipedia": "en:Second Cup",
      "cuisine": "coffee_shop",
      "name": "Second Cup",
      "takeaway": "yes"
    },
    "geometry": {
      "type": "Point",
      "coordinates": [
        -71.2176561,
        46.8057981
      ]
    },
    "id": "node/2826245205"
  },
  {
    "type": "Feature",
    "properties": {
      "@id": "node/2826245208",
      "amenity": "fast_food",
      "brand": "Chez Ashton",
      "brand:wikidata": "Q2963156",
      "brand:wikipedia": "en:Chez Ashton",
      "cuisine": "poutine",
      "name": "Chez Ashton",
      "takeaway": "yes"
    },
    "geometry": {
      "type": "Point",
      "coordinates": [
        -71.2165553,
        46.8065518
      ]
    },
    "id": "node/2826245208"
  },
  {
    "type": "Feature",
    "properties": {
      "@id": "node/2826245213",
      "addr:housenumber": "684",
      "amenity": "cafe",
      "brand": "Starbucks",
      "brand:wikidata": "Q37158",
      "brand:wikipedia": "en:Starbucks",
      "cuisine": "coffee_shop",
      "internet_access": "wlan",
      "internet_access:fee": "no",
      "name": "Starbucks",
      "official_name": "Starbucks Coffee",
      "takeaway": "yes"
    },
    "geometry": {
      "type": "Point",
      "coordinates": [
        -71.2159167,
        46.8069005
      ]
    },
    "id": "node/2826245213"
  },
  {
    "type": "Feature",
    "properties": {
      "@id": "node/2827871978",
      "amenity": "restaurant",
      "cuisine": "kebab",
      "name": "Mana'ish"
    },
    "geometry": {
      "type": "Point",
      "coordinates": [
        -71.2162805,
        46.8062682
      ]
    },
    "id": "node/2827871978"
  },
  {
    "type": "Feature",
    "properties": {
      "@id": "node/2827871980",
      "amenity": "restaurant",
      "cuisine": "steak_house",
      "name": "Feu Sacré Resto-Grill"
    },
    "geometry": {
      "type": "Point",
      "coordinates": [
        -71.2167028,
        46.80599
      ]
    },
    "id": "node/2827871980"
  },
  {
    "type": "Feature",
    "properties": {
      "@id": "node/2827871982",
      "amenity": "restaurant",
      "brand": "St-Hubert",
      "brand:wikidata": "Q3495225",
      "brand:wikipedia": "fr:St-Hubert (restaurant)",
      "cuisine": "chicken;barbecue",
      "name": "St-Hubert"
    },
    "geometry": {
      "type": "Point",
      "coordinates": [
        -71.215429,
        46.8067465
      ]
    },
    "id": "node/2827871982"
  },
  {
    "type": "Feature",
    "properties": {
      "@id": "node/2827871985",
      "amenity": "restaurant",
      "cuisine": "kebab",
      "name": "Al Waadi"
    },
    "geometry": {
      "type": "Point",
      "coordinates": [
        -71.2165969,
        46.8060433
      ]
    },
    "id": "node/2827871985"
  },
  {
    "type": "Feature",
    "properties": {
      "@id": "node/2843220602",
      "amenity": "fast_food",
      "brand": "Chez Ashton",
      "brand:wikidata": "Q2963156",
      "brand:wikipedia": "en:Chez Ashton",
      "cuisine": "poutine",
      "name": "Chez Ashton",
      "takeaway": "yes"
    },
    "geometry": {
      "type": "Point",
      "coordinates": [
        -71.1918674,
        46.898804
      ]
    },
    "id": "node/2843220602"
  },
  {
    "type": "Feature",
    "properties": {
      "@id": "node/2844892613",
      "addr:housenumber": "1155",
      "addr:street": "Rue de la Chevrotière",
      "amenity": "restaurant",
      "cuisine": "steak_house",
      "name": "Jack Saloon urbain"
    },
    "geometry": {
      "type": "Point",
      "coordinates": [
        -71.217171,
        46.8064732
      ]
    },
    "id": "node/2844892613"
  },
  {
    "type": "Feature",
    "properties": {
      "@id": "node/2861307526",
      "amenity": "restaurant",
      "cuisine": "pizza",
      "name": "Jet Pizza"
    },
    "geometry": {
      "type": "Point",
      "coordinates": [
        -71.1914105,
        46.9057973
      ]
    },
    "id": "node/2861307526"
  },
  {
    "type": "Feature",
    "properties": {
      "@id": "node/2861312352",
      "addr:housenumber": "650",
      "addr:street": "Grande Allée Est",
      "amenity": "restaurant",
      "cuisine": "burger;french",
      "name": "Les 3 Brasseurs",
      "website": "http://3brasseurs.ca"
    },
    "geometry": {
      "type": "Point",
      "coordinates": [
        -71.2163929,
        46.8066759
      ]
    },
    "id": "node/2861312352"
  },
  {
    "type": "Feature",
    "properties": {
      "@id": "node/2867578201",
      "addr:housenumber": "3321",
      "addr:postcode": "G1C 7E1",
      "addr:street": "Rue du Carrefour",
      "amenity": "fast_food",
      "brand": "A&W",
      "brand:wikidata": "Q2818848",
      "brand:wikipedia": "en:A&W (Canada)",
      "cuisine": "burger",
      "drive_through": "yes",
      "internet_access": "wlan",
      "internet_access:fee": "no",
      "name": "A&W",
      "phone": "+1-418-661-1331",
      "source": "survey",
      "takeaway": "yes",
      "wheelchair": "no"
    },
    "geometry": {
      "type": "Point",
      "coordinates": [
        -71.2147096,
        46.8624037
      ]
    },
    "id": "node/2867578201"
  },
  {
    "type": "Feature",
    "properties": {
      "@id": "node/2867579001",
      "amenity": "fast_food",
      "brand": "Quiznos",
      "brand:wikidata": "Q1936229",
      "brand:wikipedia": "en:Quiznos",
      "cuisine": "sandwich",
      "name": "Quiznos",
      "source": "survey",
      "takeaway": "yes"
    },
    "geometry": {
      "type": "Point",
      "coordinates": [
        -71.2138884,
        46.862504
      ]
    },
    "id": "node/2867579001"
  },
  {
    "type": "Feature",
    "properties": {
      "@id": "node/2869372592",
      "amenity": "cafe",
      "brand": "Tim Hortons",
      "brand:wikidata": "Q175106",
      "brand:wikipedia": "en:Tim Hortons",
      "cuisine": "coffee_shop",
      "name": "Tim Hortons",
      "operator": "Restaurant Brands International Inc.",
      "takeaway": "yes",
      "website": "https://www.timhortons.com/"
    },
    "geometry": {
      "type": "Point",
      "coordinates": [
        -71.389615,
        46.8445359
      ]
    },
    "id": "node/2869372592"
  },
  {
    "type": "Feature",
    "properties": {
      "@id": "node/2876059828",
      "amenity": "restaurant",
      "cuisine": "pizza",
      "name": "Pizza POP"
    },
    "geometry": {
      "type": "Point",
      "coordinates": [
        -71.2633808,
        46.8900102
      ]
    },
    "id": "node/2876059828"
  },
  {
    "type": "Feature",
    "properties": {
      "@id": "node/2887836378",
      "amenity": "restaurant",
      "cuisine": "sandwich",
      "name": "Subway's",
      "wheelchair": "no"
    },
    "geometry": {
      "type": "Point",
      "coordinates": [
        -71.3703355,
        46.7662187
      ]
    },
    "id": "node/2887836378"
  },
  {
    "type": "Feature",
    "properties": {
      "@id": "node/2887856868",
      "addr:housenumber": "1221",
      "amenity": "restaurant",
      "cuisine": "sushi",
      "name": "Sushi Shop",
      "wheelchair": "no"
    },
    "geometry": {
      "type": "Point",
      "coordinates": [
        -71.3702309,
        46.7662427
      ]
    },
    "id": "node/2887856868"
  },
  {
    "type": "Feature",
    "properties": {
      "@id": "node/2898315314",
      "amenity": "restaurant",
      "cuisine": "italian",
      "internet_access": "wlan",
      "name": "Pacini"
    },
    "geometry": {
      "type": "Point",
      "coordinates": [
        -71.2963879,
        46.8362721
      ]
    },
    "id": "node/2898315314"
  },
  {
    "type": "Feature",
    "properties": {
      "@id": "node/2898973734",
      "amenity": "restaurant",
      "cuisine": "sushi",
      "name": "Sushi Stock"
    },
    "geometry": {
      "type": "Point",
      "coordinates": [
        -71.2751022,
        46.868125
      ]
    },
    "id": "node/2898973734"
  },
  {
    "type": "Feature",
    "properties": {
      "@id": "node/2898973736",
      "amenity": "restaurant",
      "cuisine": "asian",
      "name": "Parfum d'Asie"
    },
    "geometry": {
      "type": "Point",
      "coordinates": [
        -71.2752516,
        46.8683875
      ]
    },
    "id": "node/2898973736"
  },
  {
    "type": "Feature",
    "properties": {
      "@id": "node/2898973738",
      "amenity": "restaurant",
      "cuisine": "pizza",
      "name": "Krust Pizza"
    },
    "geometry": {
      "type": "Point",
      "coordinates": [
        -71.2741393,
        46.8672157
      ]
    },
    "id": "node/2898973738"
  },
  {
    "type": "Feature",
    "properties": {
      "@id": "node/2899879283",
      "amenity": "restaurant",
      "cuisine": "greek",
      "name": "Au Vieux Duluth"
    },
    "geometry": {
      "type": "Point",
      "coordinates": [
        -71.2153026,
        46.8619701
      ]
    },
    "id": "node/2899879283"
  },
  {
    "type": "Feature",
    "properties": {
      "@id": "node/2899902913",
      "amenity": "restaurant",
      "cuisine": "sandwich",
      "name": "Tim Hortons",
      "operator": "Restaurant Brands International Inc.",
      "website": "https://www.timhortons.com/"
    },
    "geometry": {
      "type": "Point",
      "coordinates": [
        -71.1742611,
        46.8881533
      ]
    },
    "id": "node/2899902913"
  },
  {
    "type": "Feature",
    "properties": {
      "@id": "node/2901433174",
      "amenity": "cafe",
      "brand": "Starbucks",
      "brand:wikidata": "Q37158",
      "brand:wikipedia": "en:Starbucks",
      "cuisine": "coffee_shop",
      "name": "Starbucks",
      "official_name": "Starbucks Coffee",
      "takeaway": "yes"
    },
    "geometry": {
      "type": "Point",
      "coordinates": [
        -71.296495,
        46.836252
      ]
    },
    "id": "node/2901433174"
  },
  {
    "type": "Feature",
    "properties": {
      "@id": "node/2901433181",
      "amenity": "fast_food",
      "brand": "Subway",
      "brand:wikidata": "Q244457",
      "brand:wikipedia": "en:Subway (restaurant)",
      "cuisine": "sandwich",
      "name": "Subway",
      "takeaway": "yes"
    },
    "geometry": {
      "type": "Point",
      "coordinates": [
        -71.296428,
        46.8363492
      ]
    },
    "id": "node/2901433181"
  },
  {
    "type": "Feature",
    "properties": {
      "@id": "node/2920171971",
      "amenity": "restaurant",
      "cuisine": "thai",
      "name": "Thai Express"
    },
    "geometry": {
      "type": "Point",
      "coordinates": [
        -71.2165212,
        46.8116238
      ]
    },
    "id": "node/2920171971"
  },
  {
    "type": "Feature",
    "properties": {
      "@id": "node/2920171983",
      "addr:city": "Québec",
      "addr:housenumber": "837",
      "addr:postcode": "G1R 1R2",
      "addr:province": "Québec",
      "addr:street": "Rue Saint-Jean",
      "amenity": "restaurant",
      "cuisine": "sushi",
      "name": "Yuzu",
      "opening_hours": "Sa-We 11:00-20:00; Th,Fr 11:00-21:00",
      "phone": "+1-418-614-6010"
    },
    "geometry": {
      "type": "Point",
      "coordinates": [
        -71.2167271,
        46.8114186
      ]
    },
    "id": "node/2920171983"
  },
  {
    "type": "Feature",
    "properties": {
      "@id": "node/2920171991",
      "addr:city": "Québec",
      "addr:housenumber": "881",
      "addr:postcode": "G1R 1R1",
      "addr:province": "Québec",
      "addr:street": "Rue Saint-Jean",
      "amenity": "cafe",
      "cuisine": "coffee_shop",
      "internet_access": "yes",
      "name": "La Brûlerie St-Jean",
      "smoking": "no"
    },
    "geometry": {
      "type": "Point",
      "coordinates": [
        -71.2158092,
        46.8118261
      ]
    },
    "id": "node/2920171991"
  },
  {
    "type": "Feature",
    "properties": {
      "@id": "node/2922397857",
      "amenity": "cafe",
      "cuisine": "sandwich;coffee_shop",
      "internet_access": "wlan",
      "name": "Presse Café"
    },
    "geometry": {
      "type": "Point",
      "coordinates": [
        -71.2197318,
        46.806194
      ]
    },
    "id": "node/2922397857"
  },
  {
    "type": "Feature",
    "properties": {
      "@id": "node/2945111572",
      "amenity": "restaurant",
      "cuisine": "seafood",
      "name": "La Cabane"
    },
    "geometry": {
      "type": "Point",
      "coordinates": [
        -71.2079478,
        46.8171048
      ]
    },
    "id": "node/2945111572"
  },
  {
    "type": "Feature",
    "properties": {
      "@id": "node/2946700959",
      "addr:housenumber": "2843",
      "addr:postcode": "G1C",
      "addr:street": "Avenue Saint-David",
      "amenity": "restaurant",
      "cuisine": "italian",
      "name": "Topla!",
      "website": "https://www.topla.com/"
    },
    "geometry": {
      "type": "Point",
      "coordinates": [
        -71.2160282,
        46.8648978
      ]
    },
    "id": "node/2946700959"
  },
  {
    "type": "Feature",
    "properties": {
      "@id": "node/2964282013",
      "addr:city": "Québec",
      "addr:housenumber": "1298",
      "addr:postcode": "G1L 4L9",
      "addr:street": "Rue de la Pointe-aux-Lièvres",
      "amenity": "restaurant",
      "cuisine": "pizza",
      "name": "Casa Calzone",
      "phone": "+1-418-522-3000",
      "website": "http://casacalzone.com"
    },
    "geometry": {
      "type": "Point",
      "coordinates": [
        -71.2414642,
        46.8223853
      ]
    },
    "id": "node/2964282013"
  },
  {
    "type": "Feature",
    "properties": {
      "@id": "node/2965141092",
      "addr:city": "Boischatel",
      "addr:housenumber": "5556",
      "addr:postcode": "G0A 1H0",
      "addr:province": "QC",
      "addr:street": "Boulevard Sainte-Anne",
      "amenity": "cafe",
      "cuisine": "coffee_shop",
      "drive_through": "yes",
      "internet_access": "wlan",
      "internet_access:fee": "no",
      "name": "Tim Hortons",
      "operator": "Restaurant Brands International Inc.",
      "website": "https://www.timhortons.com/",
      "wheelchair": "yes"
    },
    "geometry": {
      "type": "Point",
      "coordinates": [
        -71.1225397,
        46.8981382
      ]
    },
    "id": "node/2965141092"
  },
  {
    "type": "Feature",
    "properties": {
      "@id": "node/2976099678",
      "addr:housenumber": "2383",
      "addr:postcode": "G1V 1T1",
      "addr:street": "Chemin Sainte-Foy",
      "amenity": "restaurant",
      "cuisine": "vietnamese",
      "name": "Pho Tonkinoise"
    },
    "geometry": {
      "type": "Point",
      "coordinates": [
        -71.2825074,
        46.7855163
      ]
    },
    "id": "node/2976099678"
  },
  {
    "type": "Feature",
    "properties": {
      "@id": "node/2998951654",
      "addr:city": "Québec",
      "addr:housenumber": "481",
      "addr:postcode": "G1R 1P4",
      "addr:province": "Québec",
      "addr:street": "Rue Saint-Jean",
      "amenity": "restaurant",
      "brewery": "Boréale Blanche;Boréale Blonde;Boréale Brune;Boréale Noire",
      "cuisine": "pancake",
      "name": "Le Billig",
      "opening_hours": "Mo-Fr 11:00-22:00; Sa,Su 10:00-22:00",
      "phone": "+1-418-524-8341"
    },
    "geometry": {
      "type": "Point",
      "coordinates": [
        -71.2212291,
        46.8093557
      ]
    },
    "id": "node/2998951654"
  },
  {
    "type": "Feature",
    "properties": {
      "@id": "node/3016368136",
      "addr:city": "Quebec",
      "addr:housenumber": "854",
      "addr:street": "Rue Saint Jean",
      "amenity": "cafe",
      "atm": "no",
      "brand": "Café Dépôt",
      "brand:wikidata": "Q64924449",
      "cuisine": "coffee_shop;cake;bagel;bistro",
      "drive_through": "no",
      "internet_access": "wlan",
      "name": "Café Dépôt",
      "outdoor_seating": "no",
      "smoking": "no",
      "takeaway": "yes"
    },
    "geometry": {
      "type": "Point",
      "coordinates": [
        -71.216497,
        46.811635
      ]
    },
    "id": "node/3016368136"
  },
  {
    "type": "Feature",
    "properties": {
      "@id": "node/3086610345",
      "amenity": "restaurant",
      "cuisine": "regional",
      "name": "Jaja La Pizz"
    },
    "geometry": {
      "type": "Point",
      "coordinates": [
        -71.217072,
        46.8050921
      ]
    },
    "id": "node/3086610345"
  },
  {
    "type": "Feature",
    "properties": {
      "@id": "node/3111989204",
      "amenity": "fast_food",
      "brand": "Subway",
      "brand:wikidata": "Q244457",
      "brand:wikipedia": "en:Subway (restaurant)",
      "cuisine": "sandwich",
      "name": "Subway",
      "takeaway": "yes"
    },
    "geometry": {
      "type": "Point",
      "coordinates": [
        -71.3203726,
        46.7611033
      ]
    },
    "id": "node/3111989204"
  },
  {
    "type": "Feature",
    "properties": {
      "@id": "node/3142488668",
      "addr:housenumber": "311",
      "addr:street": "Chemin de la Canardière",
      "amenity": "restaurant",
      "cuisine": "sushi",
      "name": "Sushi Nicky",
      "name:en": "Nicky Sushi",
      "name:fr": "Nicky Suchi",
      "opening_hours": "Mo-Su 16:00-00:00",
      "phone": "+14188458484",
      "website": "https://nickysushi.com/limoilou/?lang=fr"
    },
    "geometry": {
      "type": "Point",
      "coordinates": [
        -71.2274449,
        46.8243965
      ]
    },
    "id": "node/3142488668"
  },
  {
    "type": "Feature",
    "properties": {
      "@id": "node/3195490261",
      "addr:city": "Québec",
      "addr:housenumber": "14034",
      "addr:street": "Boulevard Henri-Bourassa",
      "amenity": "fast_food",
      "cuisine": "sandwich",
      "internet_access": "no",
      "name": "Subway",
      "toilets:wheelchair": "yes",
      "wheelchair": "yes"
    },
    "geometry": {
      "type": "Point",
      "coordinates": [
        -71.2851467,
        46.8793569
      ]
    },
    "id": "node/3195490261"
  },
  {
    "type": "Feature",
    "properties": {
      "@id": "node/3196970961",
      "addr:city": "Québec",
      "addr:housenumber": "2960",
      "addr:street": "Boulevard Laurier",
      "amenity": "fast_food",
      "brand": "Subway",
      "brand:wikidata": "Q244457",
      "brand:wikipedia": "en:Subway (restaurant)",
      "cuisine": "sandwich",
      "internet_access": "no",
      "name": "Subway",
      "phone": "+1-418-650-2992",
      "takeaway": "yes"
    },
    "geometry": {
      "type": "Point",
      "coordinates": [
        -71.2925557,
        46.7659257
      ]
    },
    "id": "node/3196970961"
  },
  {
    "type": "Feature",
    "properties": {
      "@id": "node/3222724968",
      "amenity": "restaurant",
      "brand": "3 Brasseurs",
      "brand:wikidata": "Q3230326",
      "brand:wikipedia": "fr:Les 3 Brasseurs",
      "cuisine": "burger;pizza;seafood",
      "indoor": "yes",
      "name": "3 Brasseurs",
      "name:en": "3 Brewers",
      "official_name": "Les 3 Brasseurs"
    },
    "geometry": {
      "type": "Point",
      "coordinates": [
        -71.3005144,
        46.8314256
      ]
    },
    "id": "node/3222724968"
  },
  {
    "type": "Feature",
    "properties": {
      "@id": "node/3222726793",
      "amenity": "fast_food",
      "brand": "McDonald's",
      "brand:wikidata": "Q38076",
      "brand:wikipedia": "en:McDonald's",
      "cuisine": "burger",
      "name": "McDonald's",
      "takeaway": "yes",
      "website": "http://www.mcdonalds.ca/"
    },
    "geometry": {
      "type": "Point",
      "coordinates": [
        -71.3043832,
        46.8336076
      ]
    },
    "id": "node/3222726793"
  },
  {
    "type": "Feature",
    "properties": {
      "@id": "node/3224171081",
      "addr:city": "Québec",
      "addr:housenumber": "825",
      "addr:province": "QC",
      "addr:street": "Boulevard Lebourgneuf",
      "amenity": "restaurant",
      "cuisine": "italian",
      "name": "La Popessa",
      "phone": "+1-418-614-7798"
    },
    "geometry": {
      "type": "Point",
      "coordinates": [
        -71.2827002,
        46.839703
      ]
    },
    "id": "node/3224171081"
  },
  {
    "type": "Feature",
    "properties": {
      "@id": "node/3250273348",
      "amenity": "restaurant",
      "cuisine": "pizza",
      "name": "Pizz'art"
    },
    "geometry": {
      "type": "Point",
      "coordinates": [
        -71.2870697,
        46.7829102
      ]
    },
    "id": "node/3250273348"
  },
  {
    "type": "Feature",
    "properties": {
      "@id": "node/3252684639",
      "amenity": "restaurant",
      "cuisine": "italian",
      "name": "Momento"
    },
    "geometry": {
      "type": "Point",
      "coordinates": [
        -71.2882672,
        46.7846089
      ]
    },
    "id": "node/3252684639"
  },
  {
    "type": "Feature",
    "properties": {
      "@id": "node/3252684641",
      "amenity": "fast_food",
      "brand": "Sushi Shop",
      "brand:wikidata": "Q64840990",
      "cuisine": "sushi",
      "name": "Sushi Shop",
      "takeaway": "yes"
    },
    "geometry": {
      "type": "Point",
      "coordinates": [
        -71.2885678,
        46.7842262
      ]
    },
    "id": "node/3252684641"
  },
  {
    "type": "Feature",
    "properties": {
      "@id": "node/3255575292",
      "addr:housenumber": "2",
      "addr:street": "Rue des Andastes",
      "amenity": "restaurant",
      "cuisine": "huronne-wendat",
      "name": "La Traite Mobile",
      "opening_hours": "Mo-Sa 11:00-20:00;Su 10:00-18:00"
    },
    "geometry": {
      "type": "Point",
      "coordinates": [
        -71.3573152,
        46.874089
      ]
    },
    "id": "node/3255575292"
  },
  {
    "type": "Feature",
    "properties": {
      "@id": "node/3257551686",
      "amenity": "fast_food",
      "brand": "Sushi Shop",
      "brand:wikidata": "Q64840990",
      "cuisine": "sushi",
      "name": "Sushi Shop",
      "opening_hours": "Mo-Su 11:00-20:00",
      "phone": "+1-418-683-3999",
      "takeaway": "yes",
      "website": "https://sushishop.com/",
      "wheelchair": "no"
    },
    "geometry": {
      "type": "Point",
      "coordinates": [
        -71.2557747,
        46.7941701
      ]
    },
    "id": "node/3257551686"
  },
  {
    "type": "Feature",
    "properties": {
      "@id": "node/3259890171",
      "amenity": "cafe",
      "brand": "Tim Hortons",
      "brand:wikidata": "Q175106",
      "brand:wikipedia": "en:Tim Hortons",
      "cuisine": "coffee_shop",
      "name": "Tim Hortons",
      "operator": "Restaurant Brands International Inc.",
      "takeaway": "yes",
      "website": "https://www.timhortons.com/"
    },
    "geometry": {
      "type": "Point",
      "coordinates": [
        -71.1885914,
        46.8893747
      ]
    },
    "id": "node/3259890171"
  },
  {
    "type": "Feature",
    "properties": {
      "@id": "node/3372635268",
      "addr:city": "Québec",
      "addr:housenumber": "1300",
      "addr:postcode": "G1J 3B6",
      "addr:street": "4e Avenue",
      "amenity": "restaurant",
      "cuisine": "pizza",
      "delivery": "yes",
      "name": "Pizzeria Gemini",
      "opening_hours": "Mo-Fr 11:00-14:00,17:00-23:00; Sa-Su 17:00-23:00",
      "phone": "+1-418-529-3131",
      "takeaway": "yes",
      "website": "https://www.facebook.com/geminipizza/"
    },
    "geometry": {
      "type": "Point",
      "coordinates": [
        -71.2296524,
        46.829407
      ]
    },
    "id": "node/3372635268"
  },
  {
    "type": "Feature",
    "properties": {
      "@id": "node/3396694293",
      "amenity": "cafe",
      "brand": "Starbucks",
      "brand:wikidata": "Q37158",
      "brand:wikipedia": "en:Starbucks",
      "cuisine": "coffee_shop",
      "internet_access": "wlan",
      "internet_access:fee": "no",
      "name": "Starbucks",
      "official_name": "Starbucks Coffee",
      "takeaway": "yes"
    },
    "geometry": {
      "type": "Point",
      "coordinates": [
        -71.2263906,
        46.8043291
      ]
    },
    "id": "node/3396694293"
  },
  {
    "type": "Feature",
    "properties": {
      "@id": "node/3398066539",
      "addr:city": "Québec",
      "addr:housenumber": "8555",
      "addr:postcode": "G1G 4E1",
      "addr:province": "QC",
      "addr:street": "Boulevard Henri-Bourassa",
      "amenity": "restaurant",
      "cuisine": "italian",
      "name": "Topla!",
      "opening_hours": "Mo-We 06:00-22:00;Th-Sa 06:00-23:00;Su 06:00-22:00",
      "phone": "+1 418 781-6400",
      "website": "https://www.topla.com/"
    },
    "geometry": {
      "type": "Point",
      "coordinates": [
        -71.2715228,
        46.8652708
      ]
    },
    "id": "node/3398066539"
  },
  {
    "type": "Feature",
    "properties": {
      "@id": "node/3403053109",
      "addr:city": "Québec",
      "addr:country": "CA",
      "addr:housenumber": "7",
      "addr:postcode": "G1R 4C7",
      "addr:province": "Québec",
      "addr:street": "Rue Saint-Ursule",
      "amenity": "restaurant",
      "cuisine": "moroccan",
      "name": "Un Thé Au Sahara",
      "opening_hours": "Mo-Fr 11:00-22:00; Sa,Su 11:00-24:00",
      "phone": "+1-418-692-5315",
      "wheelchair": "no"
    },
    "geometry": {
      "type": "Point",
      "coordinates": [
        -71.211998,
        46.8128881
      ]
    },
    "id": "node/3403053109"
  },
  {
    "type": "Feature",
    "properties": {
      "@id": "node/3405200068",
      "addr:city": "Saint-Augustin-de-Desmaures",
      "addr:housenumber": "3572",
      "addr:street": "Rue de l'Hêtrière",
      "amenity": "restaurant",
      "contact:phone": "+1-418-800-9899",
      "cuisine": "pizza",
      "name": "Bonna",
      "website": "www.bonnapizza.ca"
    },
    "geometry": {
      "type": "Point",
      "coordinates": [
        -71.3775972,
        46.7571644
      ]
    },
    "id": "node/3405200068"
  },
  {
    "type": "Feature",
    "properties": {
      "@id": "node/3412527073",
      "amenity": "cafe",
      "brand": "Second Cup",
      "brand:wikidata": "Q862180",
      "brand:wikipedia": "en:Second Cup",
      "cuisine": "coffee_shop",
      "name": "Second Cup",
      "takeaway": "yes"
    },
    "geometry": {
      "type": "Point",
      "coordinates": [
        -71.3167561,
        46.7638071
      ]
    },
    "id": "node/3412527073"
  },
  {
    "type": "Feature",
    "properties": {
      "@id": "node/3416544305",
      "amenity": "fast_food",
      "brand": "McDonald's",
      "brand:wikidata": "Q38076",
      "brand:wikipedia": "en:McDonald's",
      "cuisine": "burger",
      "internet_access": "wlan",
      "internet_access:fee": "no",
      "name": "McDonald's",
      "takeaway": "yes"
    },
    "geometry": {
      "type": "Point",
      "coordinates": [
        -71.2741353,
        46.8682379
      ]
    },
    "id": "node/3416544305"
  },
  {
    "type": "Feature",
    "properties": {
      "@id": "node/3420781513",
      "addr:city": "Québec",
      "addr:country": "CA",
      "addr:housenumber": "1014",
      "addr:postcode": "G1R 1R6",
      "addr:street": "Rue Saint-Jean",
      "amenity": "restaurant",
      "cuisine": "pizza",
      "name": "Pizzeria d'Youville"
    },
    "geometry": {
      "type": "Point",
      "coordinates": [
        -71.2126106,
        46.8130434
      ]
    },
    "id": "node/3420781513"
  },
  {
    "type": "Feature",
    "properties": {
      "@id": "node/3493662715",
      "addr:city": "Québec",
      "addr:country": "CA",
      "addr:housenumber": "23",
      "addr:postcode": "G1R 4B9",
      "addr:street": "Rue D'Auteuil",
      "amenity": "fast_food",
      "cuisine": "lebanese",
      "name": "Liban",
      "opening_hours": "10:00-21:00"
    },
    "geometry": {
      "type": "Point",
      "coordinates": [
        -71.2125478,
        46.8126824
      ]
    },
    "id": "node/3493662715"
  },
  {
    "type": "Feature",
    "properties": {
      "@id": "node/3522330745",
      "amenity": "restaurant",
      "cuisine": "thai;vietnamese",
      "name": "Vietnam Express"
    },
    "geometry": {
      "type": "Point",
      "coordinates": [
        -71.2460968,
        46.8395495
      ]
    },
    "id": "node/3522330745"
  },
  {
    "type": "Feature",
    "properties": {
      "@id": "node/3611610798",
      "addr:housenumber": "825",
      "addr:street": "Boulevard Lebourgneuf",
      "amenity": "restaurant",
      "cuisine": "burger",
      "name": "Chez Victor"
    },
    "geometry": {
      "type": "Point",
      "coordinates": [
        -71.2823846,
        46.8397459
      ]
    },
    "id": "node/3611610798"
  },
  {
    "type": "Feature",
    "properties": {
      "@id": "node/3652557776",
      "addr:city": "Québec",
      "addr:housenumber": "895",
      "addr:postcode": "G1N 2C9",
      "addr:street": "Boulevard Charest Ouest",
      "amenity": "fast_food",
      "brand": "Subway",
      "brand:wikidata": "Q244457",
      "brand:wikipedia": "en:Subway (restaurant)",
      "cuisine": "sandwich",
      "name": "Subway",
      "phone": "+1-418-688-3322",
      "takeaway": "yes"
    },
    "geometry": {
      "type": "Point",
      "coordinates": [
        -71.2472471,
        46.8019785
      ]
    },
    "id": "node/3652557776"
  },
  {
    "type": "Feature",
    "properties": {
      "@id": "node/3722024725",
      "amenity": "restaurant",
      "cuisine": "pizza",
      "name": "Pizzéria Paquet",
      "outdoor_seating": "yes"
    },
    "geometry": {
      "type": "Point",
      "coordinates": [
        -71.4359995,
        46.7492037
      ]
    },
    "id": "node/3722024725"
  },
  {
    "type": "Feature",
    "properties": {
      "@id": "node/3750700825",
      "amenity": "fast_food",
      "cuisine": "sandwich",
      "internet_access": "no",
      "name": "Subway",
      "smoking": "no",
      "wheelchair": "no"
    },
    "geometry": {
      "type": "Point",
      "coordinates": [
        -71.1227137,
        46.8980213
      ]
    },
    "id": "node/3750700825"
  },
  {
    "type": "Feature",
    "properties": {
      "@id": "node/3801921158",
      "amenity": "restaurant",
      "cuisine": "italian",
      "name": "Le Commandant",
      "phone": "+1-418-204-2145",
      "website": "http://complexech.com/resto-bar"
    },
    "geometry": {
      "type": "Point",
      "coordinates": [
        -71.3724437,
        46.8000705
      ]
    },
    "id": "node/3801921158"
  },
  {
    "type": "Feature",
    "properties": {
      "@id": "node/3811701601",
      "addr:city": "Québec",
      "addr:housenumber": "1535",
      "addr:postcode": "G1S 2P3",
      "addr:province": "Québec",
      "addr:street": "Chemin Sainte-Foy",
      "amenity": "fast_food",
      "brand": "Subway",
      "brand:wikidata": "Q244457",
      "brand:wikipedia": "en:Subway (restaurant)",
      "cuisine": "sandwich",
      "delivery": "no",
      "drive_through": "no",
      "indoor": "yes",
      "name": "Subway",
      "phone": "+1-418-527-2111",
      "takeaway": "yes"
    },
    "geometry": {
      "type": "Point",
      "coordinates": [
        -71.2586543,
        46.792421
      ]
    },
    "id": "node/3811701601"
  },
  {
    "type": "Feature",
    "properties": {
      "@id": "node/3813216713",
      "addr:city": "Québec",
      "addr:housenumber": "2815",
      "addr:postcode": "G1V 4H3",
      "addr:province": "Québec",
      "addr:street": "Boulevard Laurier",
      "amenity": "restaurant",
      "capacity": "75",
      "cuisine": "sushi",
      "internet_access": "wlan",
      "internet_access:fee": "no",
      "name": "Shogun Sushi"
    },
    "geometry": {
      "type": "Point",
      "coordinates": [
        -71.2869261,
        46.7674577
      ]
    },
    "id": "node/3813216713"
  },
  {
    "type": "Feature",
    "properties": {
      "@id": "node/3816478545",
      "addr:city": "Québec",
      "addr:housenumber": "1326",
      "addr:postcode": "G1T 1Z3",
      "addr:province": "Québec",
      "addr:street": "Avenue Maguire",
      "amenity": "restaurant",
      "building": "yes",
      "cuisine": "regional",
      "name": "CHAZ",
      "phone": "+1418-682-8888",
      "shop": "vacant"
    },
    "geometry": {
      "type": "Point",
      "coordinates": [
        -71.2513867,
        46.7811793
      ]
    },
    "id": "node/3816478545"
  },
  {
    "type": "Feature",
    "properties": {
      "@id": "node/3819922181",
      "addr:city": "Québec",
      "addr:housenumber": "801",
      "addr:postcode": "G1S 1C1",
      "addr:province": "Québec",
      "addr:street": "Grande Allée Ouest",
      "amenity": "cafe",
      "cuisine": "coffee_shop",
      "delivery": "yes",
      "internet_access": "yes",
      "name": "Presse Café"
    },
    "geometry": {
      "type": "Point",
      "coordinates": [
        -71.2346261,
        46.7950235
      ]
    },
    "id": "node/3819922181"
  },
  {
    "type": "Feature",
    "properties": {
      "@id": "node/3861726542",
      "addr:city": "Québec",
      "addr:province": "Québec",
      "amenity": "cafe",
      "brand": "Starbucks",
      "brand:wikidata": "Q37158",
      "brand:wikipedia": "en:Starbucks",
      "cuisine": "coffee_shop",
      "indoor": "yes",
      "internet_access": "wlan",
      "internet_access:fee": "no",
      "name": "Starbucks",
      "official_name": "Starbucks Coffee",
      "takeaway": "yes"
    },
    "geometry": {
      "type": "Point",
      "coordinates": [
        -71.2844641,
        46.7701436
      ]
    },
    "id": "node/3861726542"
  },
  {
    "type": "Feature",
    "properties": {
      "@id": "node/3861726543",
      "amenity": "cafe",
      "brand": "Starbucks",
      "brand:wikidata": "Q37158",
      "brand:wikipedia": "en:Starbucks",
      "cuisine": "coffee_shop",
      "indoor": "yes",
      "internet_access": "wlan",
      "internet_access:fee": "no",
      "name": "Starbucks",
      "official_name": "Starbucks Coffee",
      "takeaway": "yes"
    },
    "geometry": {
      "type": "Point",
      "coordinates": [
        -71.2785543,
        46.773782
      ]
    },
    "id": "node/3861726543"
  },
  {
    "type": "Feature",
    "properties": {
      "@id": "node/3865639075",
      "amenity": "fast_food",
      "brand": "McDonald's",
      "brand:wikidata": "Q38076",
      "brand:wikipedia": "en:McDonald's",
      "cuisine": "burger",
      "drive_through": "yes",
      "name": "McDonald's",
      "takeaway": "yes",
      "website": "http://www.mcdonalds.ca/"
    },
    "geometry": {
      "type": "Point",
      "coordinates": [
        -71.2483167,
        46.8419995
      ]
    },
    "id": "node/3865639075"
  },
  {
    "type": "Feature",
    "properties": {
      "@id": "node/3890879460",
      "amenity": "restaurant",
      "cuisine": "burger",
      "internet_access": "wlan",
      "internet_access:fee": "no",
      "name": "Chez Victor",
      "wheelchair": "no"
    },
    "geometry": {
      "type": "Point",
      "coordinates": [
        -71.3314152,
        46.8040105
      ]
    },
    "id": "node/3890879460"
  },
  {
    "type": "Feature",
    "properties": {
      "@id": "node/3895223257",
      "addr:city": "Québec",
      "addr:province": "Québec",
      "amenity": "cafe",
      "brand": "Starbucks",
      "brand:wikidata": "Q37158",
      "brand:wikipedia": "en:Starbucks",
      "cuisine": "coffee_shop",
      "indoor": "yes",
      "internet_access": "wlan",
      "internet_access:fee": "no",
      "name": "Starbucks",
      "official_name": "Starbucks Coffee",
      "takeaway": "yes"
    },
    "geometry": {
      "type": "Point",
      "coordinates": [
        -71.2821896,
        46.7869758
      ]
    },
    "id": "node/3895223257"
  },
  {
    "type": "Feature",
    "properties": {
      "@id": "node/3906794059",
      "amenity": "restaurant",
      "cuisine": "french",
      "name": "Le Cochon Dingue"
    },
    "geometry": {
      "type": "Point",
      "coordinates": [
        -71.2261777,
        46.8047692
      ]
    },
    "id": "node/3906794059"
  },
  {
    "type": "Feature",
    "properties": {
      "@id": "node/3906794060",
      "amenity": "restaurant",
      "cuisine": "italian",
      "name": "Papillote & Cie"
    },
    "geometry": {
      "type": "Point",
      "coordinates": [
        -71.226216,
        46.8047008
      ]
    },
    "id": "node/3906794060"
  },
  {
    "type": "Feature",
    "properties": {
      "@id": "node/3909533858",
      "amenity": "restaurant",
      "cuisine": "greek",
      "name": "Au Vieux Duluth"
    },
    "geometry": {
      "type": "Point",
      "coordinates": [
        -71.3298491,
        46.8027746
      ]
    },
    "id": "node/3909533858"
  },
  {
    "type": "Feature",
    "properties": {
      "@id": "node/3909533860",
      "amenity": "restaurant",
      "cuisine": "sushi",
      "name": "Yuzu"
    },
    "geometry": {
      "type": "Point",
      "coordinates": [
        -71.3294019,
        46.8033269
      ]
    },
    "id": "node/3909533860"
  },
  {
    "type": "Feature",
    "properties": {
      "@id": "node/3909573757",
      "amenity": "restaurant",
      "cuisine": "pizza",
      "internet_access": "wlan",
      "name": "La Boîte à Pizza"
    },
    "geometry": {
      "type": "Point",
      "coordinates": [
        -71.3201566,
        46.7612398
      ]
    },
    "id": "node/3909573757"
  },
  {
    "type": "Feature",
    "properties": {
      "@id": "node/3909573857",
      "amenity": "restaurant",
      "cuisine": "sushi",
      "name": "Yuzu"
    },
    "geometry": {
      "type": "Point",
      "coordinates": [
        -71.3202831,
        46.7611809
      ]
    },
    "id": "node/3909573857"
  },
  {
    "type": "Feature",
    "properties": {
      "@id": "node/3911447753",
      "amenity": "restaurant",
      "brand": "La Cage",
      "brand:wikidata": "Q3206980",
      "brand:wikipedia": "fr:La Cage aux Sports",
      "cuisine": "burger;chicken;sandwich;fish;pasta",
      "name": "La Cage"
    },
    "geometry": {
      "type": "Point",
      "coordinates": [
        -71.2076062,
        46.8674386
      ]
    },
    "id": "node/3911447753"
  },
  {
    "type": "Feature",
    "properties": {
      "@id": "node/3992351057",
      "addr:city": "L'Ancienne-Lorette",
      "addr:housenumber": "1333-B",
      "addr:street": "Route de l'Aéroport",
      "amenity": "restaurant",
      "brand": "Cora",
      "brand:wikidata": "Q2996960",
      "brand:wikipedia": "en:Cora (restaurant)",
      "cuisine": "breakfast",
      "internet_access": "wlan",
      "internet_access:fee": "no",
      "name": "Cora"
    },
    "geometry": {
      "type": "Point",
      "coordinates": [
        -71.3553189,
        46.7895664
      ]
    },
    "id": "node/3992351057"
  },
  {
    "type": "Feature",
    "properties": {
      "@id": "node/4013245975",
      "addr:city": "Québec",
      "addr:housenumber": "1001",
      "addr:postcode": "G1L 2X3",
      "addr:province": "Québec",
      "addr:street": "3e Avenue",
      "amenity": "cafe",
      "cuisine": "coffee_shop",
      "internet_access": "yes",
      "name": "Nektar Caféologue Limoilou",
      "smoking": "no",
      "source": "monlimoilou.com",
      "website": "nektarcafeologue.com"
    },
    "geometry": {
      "type": "Point",
      "coordinates": [
        -71.2300871,
        46.826541
      ]
    },
    "id": "node/4013245975"
  },
  {
    "type": "Feature",
    "properties": {
      "@id": "node/4035370571",
      "addr:city": "Québec",
      "addr:housenumber": "1568",
      "addr:postcode": "G3E 1L2",
      "addr:street": "Rue de la Faune",
      "amenity": "restaurant",
      "cuisine": "thai",
      "name": "Lao Paradise"
    },
    "geometry": {
      "type": "Point",
      "coordinates": [
        -71.3306777,
        46.8743624
      ]
    },
    "id": "node/4035370571"
  },
  {
    "type": "Feature",
    "properties": {
      "@id": "node/4106965789",
      "addr:housenumber": "893",
      "addr:postcode": "G1X 4G8",
      "addr:street": "Rue Grandjean",
      "amenity": "fast_food",
      "cuisine": "sandwich",
      "internet_access": "wlan",
      "name": "Le Subtil",
      "opening_hours": "Mo-Su 07:00-21:00",
      "phone": "+1 418 651 8904",
      "website": "http://lesubtil.com"
    },
    "geometry": {
      "type": "Point",
      "coordinates": [
        -71.3315447,
        46.761931
      ]
    },
    "id": "node/4106965789"
  },
  {
    "type": "Feature",
    "properties": {
      "@id": "node/4139455604",
      "addr:housenumber": "44",
      "addr:street": "Rue Saint-Paul",
      "amenity": "fast_food",
      "brand": "Subway",
      "brand:wikidata": "Q244457",
      "brand:wikipedia": "en:Subway (restaurant)",
      "contact:phone": "+1-418-692-5665",
      "cuisine": "sandwich",
      "internet_access": "wlan",
      "internet_access:fee": "no",
      "name": "Subway",
      "takeaway": "yes"
    },
    "geometry": {
      "type": "Point",
      "coordinates": [
        -71.202876,
        46.8164358
      ]
    },
    "id": "node/4139455604"
  },
  {
    "type": "Feature",
    "properties": {
      "@id": "node/4139456492",
      "addr:city": "Québec",
      "addr:housenumber": "337",
      "addr:postcode": "G1K 0C8",
      "addr:street": "Rue Saint-Paul",
      "amenity": "restaurant",
      "contact:phone": "+1-581-742-5688",
      "cuisine": "sushi",
      "name": "Sushi Samurai",
      "opening_hours": "Mo-Fr 11:30-21:00, Th 11:30-22:30; Tu-Sa 11:30-22:00; Su 11:30-21:00"
    },
    "geometry": {
      "type": "Point",
      "coordinates": [
        -71.2127585,
        46.8165294
      ]
    },
    "id": "node/4139456492"
  },
  {
    "type": "Feature",
    "properties": {
      "@id": "node/4185778532",
      "amenity": "restaurant",
      "cuisine": "sushi",
      "name": "sushi to go"
    },
    "geometry": {
      "type": "Point",
      "coordinates": [
        -71.2194537,
        46.8104154
      ]
    },
    "id": "node/4185778532"
  },
  {
    "type": "Feature",
    "properties": {
      "@id": "node/4231914032",
      "addr:city": "Québec",
      "addr:housenumber": "1084",
      "addr:postcode": "G1R 1S4",
      "addr:province": "QC",
      "addr:street": "Rue Saint-Jean",
      "amenity": "restaurant",
      "cuisine": "burger",
      "email": "info@bistro3garcons.com",
      "name": "Les Trois Garçons",
      "phone": "+1-418-692-3900"
    },
    "geometry": {
      "type": "Point",
      "coordinates": [
        -71.2111733,
        46.8138271
      ]
    },
    "id": "node/4231914032"
  },
  {
    "type": "Feature",
    "properties": {
      "@id": "node/4266768822",
      "addr:city": "Québec",
      "addr:housenumber": "797",
      "addr:postcode": "G2J 0B5",
      "addr:province": "QC",
      "addr:street": "Boulevard Lebourgneuf",
      "amenity": "restaurant",
      "cuisine": "french",
      "name": "Espace Artevino",
      "phone": "+1-418-623-7775",
      "smoking": "no",
      "website": "https://www.espaceartevino.com/"
    },
    "geometry": {
      "type": "Point",
      "coordinates": [
        -71.2813394,
        46.840929
      ]
    },
    "id": "node/4266768822"
  },
  {
    "type": "Feature",
    "properties": {
      "@id": "node/4280764612",
      "addr:street": "Rue Saint-Louis",
      "amenity": "restaurant",
      "cuisine": "french",
      "internet_access": "wlan",
      "name": "L'Omelette"
    },
    "geometry": {
      "type": "Point",
      "coordinates": [
        -71.2088438,
        46.8109639
      ]
    },
    "id": "node/4280764612"
  },
  {
    "type": "Feature",
    "properties": {
      "@id": "node/4288543092",
      "addr:housenumber": "108",
      "addr:postcode": "G6V 6C9",
      "addr:street": "Route du Président-Kennedy",
      "amenity": "fast_food",
      "cuisine": "burger",
      "internet_access": "wlan",
      "name": "A&W",
      "opening_hours": "Mo-Sa 06:00-22:00; Su 07:00-22:00",
      "phone": "+1-418-835-8338",
      "website": "http://aw.ca",
      "wheelchair": "yes"
    },
    "geometry": {
      "type": "Point",
      "coordinates": [
        -71.1677963,
        46.7886446
      ]
    },
    "id": "node/4288543092"
  },
  {
    "type": "Feature",
    "properties": {
      "@id": "node/4289007372",
      "addr:city": "Québec",
      "addr:street": "Avenue Industrielle",
      "amenity": "fast_food",
      "cuisine": "poutine",
      "name": "PLanete poutine"
    },
    "geometry": {
      "type": "Point",
      "coordinates": [
        -71.4104174,
        46.8581888
      ]
    },
    "id": "node/4289007372"
  },
  {
    "type": "Feature",
    "properties": {
      "@id": "node/4330057890",
      "addr:housenumber": "10",
      "addr:street": "Rue Saint-Antoine",
      "amenity": "restaurant",
      "cuisine": "french",
      "name": "Panache",
      "name:fr": "Chez Muffy",
      "phone": "+1-418-692-1022",
      "website": "https://www.saint-antoine.com/"
    },
    "geometry": {
      "type": "Point",
      "coordinates": [
        -71.2019339,
        46.8145675
      ]
    },
    "id": "node/4330057890"
  },
  {
    "type": "Feature",
    "properties": {
      "@id": "node/4330071789",
      "addr:housenumber": "46",
      "addr:street": "Rue Saint-Joseph Est",
      "amenity": "restaurant",
      "cuisine": "french",
      "name": "L'Affaire Est Ketchup"
    },
    "geometry": {
      "type": "Point",
      "coordinates": [
        -71.2305671,
        46.8123637
      ]
    },
    "id": "node/4330071789"
  },
  {
    "type": "Feature",
    "properties": {
      "@id": "node/4343370393",
      "addr:city": "Québec",
      "addr:housenumber": "1169",
      "addr:postcode": "G1R 1S4",
      "addr:province": "Québec",
      "addr:street": "Rue Saint-Jean",
      "amenity": "restaurant",
      "cuisine": "moroccan",
      "name": "Maison marocaine Québec",
      "opening_hours": "Mo-Th 17:00-23:00; Fr-Su 17:00-03:00",
      "phone": "+1-418-692-4301",
      "website": "https://www.restaurantmarocainquebec.com/"
    },
    "geometry": {
      "type": "Point",
      "coordinates": [
        -71.2091324,
        46.8142055
      ]
    },
    "id": "node/4343370393"
  },
  {
    "type": "Feature",
    "properties": {
      "@id": "node/4346144052",
      "addr:city": "Québec",
      "addr:housenumber": "774",
      "addr:province": "Québec",
      "addr:street": "Rue Raoul-Jobin",
      "amenity": "restaurant",
      "cocktails": "yes",
      "cuisine": "burger;pizza;salad",
      "name": "Le Fin Gourmet",
      "note": "Un accent de Charlevoix dans St-Sauveur",
      "opening_hours": "\"Lunch & dinner, brunch on Sundays \"",
      "phone": "+1-418-682-5849",
      "smoking": "outside",
      "source": "survey",
      "website": "http://www.lefingourmet.ca/"
    },
    "geometry": {
      "type": "Point",
      "coordinates": [
        -71.2457544,
        46.8067687
      ]
    },
    "id": "node/4346144052"
  },
  {
    "type": "Feature",
    "properties": {
      "@id": "node/4348948849",
      "addr:city": "Québec",
      "addr:housenumber": "27",
      "addr:postcode": "G1R 4G5",
      "addr:province": "Québec",
      "addr:street": "Rue Sainte-Angele",
      "amenity": "restaurant",
      "cuisine": "chinese",
      "name": "Chez-Soi La Chine",
      "opening_hours": "Mo-Su 17:30-22:00",
      "phone": "+1-418-523-8858"
    },
    "geometry": {
      "type": "Point",
      "coordinates": [
        -71.2114459,
        46.813137
      ]
    },
    "id": "node/4348948849"
  },
  {
    "type": "Feature",
    "properties": {
      "@id": "node/4348955813",
      "addr:city": "Québec",
      "addr:housenumber": "1029",
      "addr:postcode": "G1R 1R6",
      "addr:province": "Québec",
      "addr:street": "Rue Saint-Jean",
      "amenity": "restaurant",
      "cuisine": "pancake",
      "name": "Au Petit Coin Breton",
      "opening_hours": "Su-Th 08:30-21:00; Fr-Sa 08:30-22:00",
      "phone": "+1-418-694-0758",
      "takeaway": "yes",
      "website": "http://aupetitcoinbreton.ca/",
      "wheelchair": "no"
    },
    "geometry": {
      "type": "Point",
      "coordinates": [
        -71.2119059,
        46.8131764
      ]
    },
    "id": "node/4348955813"
  },
  {
    "type": "Feature",
    "properties": {
      "@id": "node/4349079213",
      "addr:housenumber": "48",
      "addr:postcode": "G1K 4G9",
      "addr:street": "Rue Sous-le-Fort",
      "amenity": "restaurant",
      "cuisine": "french",
      "internet_access": "wlan",
      "name": "Bistro Sous le Fort",
      "opening_hours": "Mo-Su 09:00-22:00",
      "phone": "+1-418-694-0852"
    },
    "geometry": {
      "type": "Point",
      "coordinates": [
        -71.2032423,
        46.812671
      ]
    },
    "id": "node/4349079213"
  },
  {
    "type": "Feature",
    "properties": {
      "@id": "node/4349285889",
      "addr:street": "Rue Saint-Joseph Est",
      "amenity": "restaurant",
      "cuisine": "italian",
      "name": "Piazzetta"
    },
    "geometry": {
      "type": "Point",
      "coordinates": [
        -71.2290424,
        46.8127211
      ]
    },
    "id": "node/4349285889"
  },
  {
    "type": "Feature",
    "properties": {
      "@id": "node/4453519602",
      "addr:city": "Québec",
      "addr:housenumber": "1114",
      "addr:postcode": "G1R 2S5",
      "addr:province": "Québec",
      "addr:street": "Avenue Cartier",
      "amenity": "restaurant",
      "cuisine": "indian",
      "internet_access": "wlan",
      "name": "Épices de l'inde",
      "opening_hours": "Mo-Su 11:30-14:00, 17:30-22:00",
      "phone": "+1 418 522 4979"
    },
    "geometry": {
      "type": "Point",
      "coordinates": [
        -71.2256288,
        46.8032615
      ]
    },
    "id": "node/4453519602"
  },
  {
    "type": "Feature",
    "properties": {
      "@id": "node/4494664589",
      "amenity": "restaurant",
      "cuisine": "greek",
      "name": "Café Sirocco"
    },
    "geometry": {
      "type": "Point",
      "coordinates": [
        -71.22639,
        46.8045784
      ]
    },
    "id": "node/4494664589"
  },
  {
    "type": "Feature",
    "properties": {
      "@id": "node/4724555235",
      "addr:housenumber": "1862",
      "addr:street": "Avenue Industrielle",
      "amenity": "restaurant",
      "cuisine": "sushi",
      "name": "Sushi shop",
      "name:fr": "Sushi shop"
    },
    "geometry": {
      "type": "Point",
      "coordinates": [
        -71.4102721,
        46.8582106
      ]
    },
    "id": "node/4724555235"
  },
  {
    "type": "Feature",
    "properties": {
      "@id": "node/4769836223",
      "amenity": "restaurant",
      "brand": "Cora",
      "brand:wikidata": "Q2996960",
      "brand:wikipedia": "fr:Cora (chaîne de restaurants)",
      "cuisine": "breakfast",
      "name": "Cora",
      "name:fr": "Chez cora"
    },
    "geometry": {
      "type": "Point",
      "coordinates": [
        -71.2758112,
        46.8347623
      ]
    },
    "id": "node/4769836223"
  },
  {
    "type": "Feature",
    "properties": {
      "@id": "node/4769836224",
      "amenity": "restaurant",
      "brand": "Scores",
      "brand:wikidata": "Q3476059",
      "brand:wikipedia": "fr:Scores",
      "cuisine": "chicken;barbecue",
      "name": "Scores",
      "name:en": "Scores",
      "name:fr": "Scores"
    },
    "geometry": {
      "type": "Point",
      "coordinates": [
        -71.2745896,
        46.8343712
      ]
    },
    "id": "node/4769836224"
  },
  {
    "type": "Feature",
    "properties": {
      "@id": "node/4819165721",
      "addr:housenumber": "3035",
      "addr:street": "Avenue Maricourt",
      "amenity": "restaurant",
      "cuisine": "pizza",
      "internet_access": "wlan",
      "name": "Welat Pizza 2 pour 1",
      "name:en": "Welat Pizza 2 pour 1",
      "name:fr": "Welat Pizza 2 pour 1",
      "opening_hours": "Mo, We 11:00-23:00; Th 11:00-23:00; Fr-Sa 11:00-01:00; Su 11:00-22:00",
      "phone": "+1 (418) 658-8282",
      "website": "http://www.welatpizza.com"
    },
    "geometry": {
      "type": "Point",
      "coordinates": [
        -71.3113098,
        46.7634178
      ]
    },
    "id": "node/4819165721"
  },
  {
    "type": "Feature",
    "properties": {
      "@id": "node/5021081062",
      "addr:city": "Lévis",
      "addr:housenumber": "804",
      "addr:postcode": "G6C 1A2",
      "addr:province": "QC",
      "addr:street": "Route du Président-Kennedy",
      "amenity": "restaurant",
      "capacity": "30",
      "cuisine": "regional;burger;poutine",
      "delivery": "no",
      "name": "Resturant Denis de la jungle",
      "opening_hours": "Mo-Fr 06:30-22:00; Sa,Su 09:00-20:00",
      "takeaway": "yes"
    },
    "geometry": {
      "type": "Point",
      "coordinates": [
        -71.1219536,
        46.754832
      ]
    },
    "id": "node/5021081062"
  },
  {
    "type": "Feature",
    "properties": {
      "@id": "node/5021086350",
      "addr:city": "Lévis",
      "addr:housenumber": "170",
      "addr:postcode": "G6V 6E1",
      "addr:province": "QC",
      "addr:street": "Route du Président-Kennedy",
      "amenity": "restaurant",
      "capacity": "50",
      "cuisine": "sandwich",
      "delivery": "no",
      "name": "Quiznos",
      "opening_hours": "Mo-Su 10:00-21:00",
      "outdoor_seating": "no",
      "takeaway": "yes"
    },
    "geometry": {
      "type": "Point",
      "coordinates": [
        -71.1625325,
        46.7842463
      ]
    },
    "id": "node/5021086350"
  },
  {
    "type": "Feature",
    "properties": {
      "@id": "node/5158259123",
      "addr:housenumber": "2828",
      "addr:postcode": "G1V 2M1",
      "addr:street": "Boulevard Laurier",
      "amenity": "restaurant",
      "cuisine": "pizza",
      "name": "Jaja",
      "phone": "+1-418-657-3334",
      "website": "https://jajarestaurant.com/"
    },
    "geometry": {
      "type": "Point",
      "coordinates": [
        -71.289355,
        46.7678322
      ]
    },
    "id": "node/5158259123"
  },
  {
    "type": "Feature",
    "properties": {
      "@id": "node/5158263721",
      "addr:housenumber": "2820",
      "addr:postcode": "G1V 0C1",
      "addr:street": "Boulevard Laurier",
      "amenity": "restaurant",
      "cuisine": "french",
      "internet_access": "wlan",
      "name": "Paris Grill",
      "phone": "+1-418-658-4415",
      "website": "https://parisgrill.com/"
    },
    "geometry": {
      "type": "Point",
      "coordinates": [
        -71.2879715,
        46.7678993
      ]
    },
    "id": "node/5158263721"
  },
  {
    "type": "Feature",
    "properties": {
      "@id": "node/5158289921",
      "addr:city": "Québec",
      "addr:housenumber": "3100",
      "addr:postcode": "G1W 1R8",
      "addr:province": "Québec",
      "addr:street": "Chemin Saint-Louis",
      "amenity": "restaurant",
      "cuisine": "french",
      "name": "La Fenouillère",
      "phone": "+1-418-653-3886",
      "website": "http://fenouilliere.com"
    },
    "geometry": {
      "type": "Point",
      "coordinates": [
        -71.2926026,
        46.7575439
      ]
    },
    "id": "node/5158289921"
  },
  {
    "type": "Feature",
    "properties": {
      "@id": "node/5158292621",
      "addr:housenumber": "1465",
      "addr:postcode": "G1T 1P2",
      "addr:street": "Avenue Maguire",
      "amenity": "restaurant",
      "cuisine": "pizza",
      "name": "Pizza Mag",
      "phone": "+1-418-683-1561",
      "website": "http://pizzamag.com"
    },
    "geometry": {
      "type": "Point",
      "coordinates": [
        -71.2497409,
        46.7793595
      ]
    },
    "id": "node/5158292621"
  },
  {
    "type": "Feature",
    "properties": {
      "@id": "node/5158294623",
      "addr:housenumber": "1460",
      "addr:postcode": "G1T 1P2",
      "addr:street": "Avenue Maguire",
      "amenity": "restaurant",
      "cuisine": "italian",
      "name": "Montego",
      "phone": "+1-418-688-7991",
      "website": "http://montegoclub.com"
    },
    "geometry": {
      "type": "Point",
      "coordinates": [
        -71.2494964,
        46.7794925
      ]
    },
    "id": "node/5158294623"
  },
  {
    "type": "Feature",
    "properties": {
      "@id": "node/5183687365",
      "amenity": "restaurant",
      "brand": "East Side Mario's",
      "brand:wikidata": "Q5329375",
      "brand:wikipedia": "en:East Side Mario's",
      "cuisine": "italian",
      "name": "East Side Mario's"
    },
    "geometry": {
      "type": "Point",
      "coordinates": [
        -71.2505736,
        46.8227655
      ]
    },
    "id": "node/5183687365"
  },
  {
    "type": "Feature",
    "properties": {
      "@id": "node/5220717578",
      "amenity": "restaurant",
      "cuisine": "sushi",
      "name": "Ogari San"
    },
    "geometry": {
      "type": "Point",
      "coordinates": [
        -71.2182927,
        46.816148
      ]
    },
    "id": "node/5220717578"
  },
  {
    "type": "Feature",
    "properties": {
      "@id": "node/5220717580",
      "amenity": "restaurant",
      "cuisine": "asian",
      "name": "Polam Express",
      "opening_hours": "Mo-Fr 09:00-17:00",
      "phone": "+1-418-614-2206",
      "takeaway": "yes",
      "wheelchair": "yes"
    },
    "geometry": {
      "type": "Point",
      "coordinates": [
        -71.2166123,
        46.8168769
      ]
    },
    "id": "node/5220717580"
  },
  {
    "type": "Feature",
    "properties": {
      "@id": "node/5238752901",
      "addr:housenumber": "966",
      "addr:street": "Boulevard René-Lévesque Ouest",
      "amenity": "restaurant",
      "cuisine": "medieval",
      "name": "La Chope Gobeline",
      "opening_hours": "Tu-Th 11:00-23:00; Fr 11:00-01:00; Sa 09:00-01:00; Su 09:00-23:00",
      "phone": "+1-418-527-2777",
      "website": "http://www.lachopegobeline.com",
      "wheelchair": "no"
    },
    "geometry": {
      "type": "Point",
      "coordinates": [
        -71.2404398,
        46.7966341
      ]
    },
    "id": "node/5238752901"
  },
  {
    "type": "Feature",
    "properties": {
      "@id": "node/5242354622",
      "addr:housenumber": "1414",
      "addr:postcode": "G1T 1Z3",
      "addr:street": "Avenue Maguire",
      "amenity": "restaurant",
      "cuisine": "asian",
      "name": "Restaurant Champa Maguire",
      "phone": "+1-418-688-1333",
      "website": "http://resraurantchampamaguire.com"
    },
    "geometry": {
      "type": "Point",
      "coordinates": [
        -71.2504004,
        46.7802848
      ]
    },
    "id": "node/5242354622"
  },
  {
    "type": "Feature",
    "properties": {
      "@id": "node/5242358621",
      "addr:housenumber": "1432",
      "addr:postcode": "G1T 1Z3",
      "addr:street": "Avenue Maguire",
      "amenity": "restaurant",
      "cuisine": "thai",
      "name": "Restaurant Erawan",
      "phone": "+1-418-688-6038",
      "website": "http://restauranterawan.com"
    },
    "geometry": {
      "type": "Point",
      "coordinates": [
        -71.2502039,
        46.7801386
      ]
    },
    "id": "node/5242358621"
  },
  {
    "type": "Feature",
    "properties": {
      "@id": "node/5242365624",
      "addr:housenumber": "1282",
      "addr:street": "Avenue Maguire",
      "amenity": "restaurant",
      "cuisine": "african",
      "name": "Le Rameau d'Olivier",
      "phone": "+1-418-687-9725"
    },
    "geometry": {
      "type": "Point",
      "coordinates": [
        -71.2521771,
        46.7817262
      ]
    },
    "id": "node/5242365624"
  },
  {
    "type": "Feature",
    "properties": {
      "@id": "node/5242365739",
      "addr:city": "Québec",
      "addr:housenumber": "1297",
      "addr:postcode": "G1T 1Z2",
      "addr:province": "Québec",
      "addr:street": "Avenue Maguire",
      "amenity": "restaurant",
      "cuisine": "tapas;fish;seafood;bistro",
      "name": "Tapas & Liège",
      "phone": "+1-418-653-2727",
      "website": "https://www.tapasetliege.com/"
    },
    "geometry": {
      "type": "Point",
      "coordinates": [
        -71.2523641,
        46.7814963
      ]
    },
    "id": "node/5242365739"
  },
  {
    "type": "Feature",
    "properties": {
      "@id": "node/5248218222",
      "addr:city": "Québec",
      "addr:housenumber": "1360",
      "addr:postcode": "G1T 1Z3",
      "addr:province": "Québec",
      "addr:street": "Avenue Maguire",
      "amenity": "restaurant",
      "cuisine": "sandwich;meat",
      "name": "Brynd Smoked Meat",
      "outdoor_seating": "no",
      "phone": "+1-581-742-3844",
      "takeaway": "yes",
      "website": "http://brynd.ca/"
    },
    "geometry": {
      "type": "Point",
      "coordinates": [
        -71.2510366,
        46.7808596
      ]
    },
    "id": "node/5248218222"
  },
  {
    "type": "Feature",
    "properties": {
      "@id": "node/5248223321",
      "addr:city": "Québec",
      "addr:housenumber": "1332",
      "addr:postcode": "G1T 1Z3",
      "addr:province": "Québec",
      "addr:street": "Avenue Maguire",
      "amenity": "restaurant",
      "cuisine": "pizza",
      "delivery": "yes",
      "name": "Pizzeria NO.900 - Maguire, Québec",
      "phone": "+1-581-742-5900",
      "start_date": "2016-06",
      "takeaway": "yes",
      "website": "https://no900.com/restaurants/maguire-quebec/"
    },
    "geometry": {
      "type": "Point",
      "coordinates": [
        -71.2511583,
        46.7809383
      ]
    },
    "id": "node/5248223321"
  },
  {
    "type": "Feature",
    "properties": {
      "@id": "node/5248225021",
      "addr:housenumber": "1314",
      "addr:street": "Avenue Maguire",
      "amenity": "restaurant",
      "cuisine": "sushi",
      "name": "Aloha",
      "phone": "+1-418-204-1616"
    },
    "geometry": {
      "type": "Point",
      "coordinates": [
        -71.2516772,
        46.7813402
      ]
    },
    "id": "node/5248225021"
  },
  {
    "type": "Feature",
    "properties": {
      "@id": "node/5255258122",
      "addr:housenumber": "1274",
      "addr:street": "Avenue du Chanoine-Morel",
      "amenity": "restaurant",
      "cuisine": "italian",
      "name": "La Perla",
      "phone": "+1 418 688 6060"
    },
    "geometry": {
      "type": "Point",
      "coordinates": [
        -71.2477896,
        46.7845092
      ]
    },
    "id": "node/5255258122"
  },
  {
    "type": "Feature",
    "properties": {
      "@id": "node/5255263121",
      "addr:housenumber": "3745",
      "addr:postcode": "G1X 4G5",
      "addr:street": "Rue du Campanile",
      "alt_name": "Gusto Saveurs Authentiques",
      "amenity": "restaurant",
      "cuisine": "italian",
      "name": "Gusto Saveurs Authentiques",
      "opening_hours": "Tu-Fr 11:00-21:00; Sa-Su 09:00-21:00",
      "phone": "+1-418-658-8860",
      "website": "http://facebook.com/Gusto-Saveurs-authentiques-1822443674707995",
      "wheelchair": "yes"
    },
    "geometry": {
      "type": "Point",
      "coordinates": [
        -71.3329319,
        46.7617717
      ]
    },
    "id": "node/5255263121"
  },
  {
    "type": "Feature",
    "properties": {
      "@id": "node/5460797022",
      "addr:housenumber": "1740",
      "addr:postcode": "G2G 2R1",
      "addr:street": "Avenue Jules-Verne",
      "amenity": "restaurant",
      "cuisine": "chicken",
      "internet_access": "wlan",
      "name": "Benny & Co",
      "opening_hours": "Mo-Su 11:00-22:00",
      "phone": "+1-418-425-4449",
      "website": "https://www.benny-co.com/rotisseries/ste_foy"
    },
    "geometry": {
      "type": "Point",
      "coordinates": [
        -71.3596506,
        46.7763124
      ]
    },
    "id": "node/5460797022"
  },
  {
    "type": "Feature",
    "properties": {
      "@id": "node/5464992080",
      "addr:city": "Québec",
      "addr:housenumber": "840",
      "addr:postcode": "G2M0C2",
      "addr:street": "Boulevard du Lac",
      "amenity": "restaurant",
      "cuisine": "pizza;burger",
      "name": "Chez Boub",
      "outdoor_seating": "yes",
      "takeaway": "yes"
    },
    "geometry": {
      "type": "Point",
      "coordinates": [
        -71.3133156,
        46.9312655
      ]
    },
    "id": "node/5464992080"
  },
  {
    "type": "Feature",
    "properties": {
      "@id": "node/5485394052",
      "addr:city": "st Augustin-de-Desmaures",
      "addr:housenumber": "237",
      "addr:postcode": "G3A1V9",
      "addr:province": "québec",
      "addr:street": "Chemin du Lac",
      "amenity": "restaurant",
      "cuisine": "regional;cabane_à_sucre;ice_cream",
      "name": "érablière du chemin du Roy",
      "website": "http://erabliere-cheminduroy.qc.ca/"
    },
    "geometry": {
      "type": "Point",
      "coordinates": [
        -71.4146141,
        46.7385296
      ]
    },
    "id": "node/5485394052"
  },
  {
    "type": "Feature",
    "properties": {
      "@id": "node/5485401715",
      "addr:city": "Québec",
      "addr:housenumber": "4155",
      "addr:postcode": "G1Y1W3",
      "addr:province": "Québec",
      "addr:street": "Chemin de la Plage-Jacques-Cartier",
      "amenity": "restaurant",
      "cuisine": "regional;french",
      "name": "Quai 1636",
      "website": "https://www.quai1635.com/"
    },
    "geometry": {
      "type": "Point",
      "coordinates": [
        -71.3416727,
        46.7470587
      ]
    },
    "id": "node/5485401715"
  },
  {
    "type": "Feature",
    "properties": {
      "@id": "node/5526519140",
      "amenity": "restaurant",
      "cuisine": "japanese",
      "name": "Sushi Sakura"
    },
    "geometry": {
      "type": "Point",
      "coordinates": [
        -71.3170999,
        46.7634848
      ]
    },
    "id": "node/5526519140"
  },
  {
    "type": "Feature",
    "properties": {
      "@id": "node/5526519141",
      "amenity": "restaurant",
      "cuisine": "barbecue",
      "name": "La Cohue",
      "outdoor_seating": "yes"
    },
    "geometry": {
      "type": "Point",
      "coordinates": [
        -71.31769,
        46.7631578
      ]
    },
    "id": "node/5526519141"
  },
  {
    "type": "Feature",
    "properties": {
      "@id": "node/5777729053",
      "addr:city": "Lévis",
      "addr:housenumber": "35",
      "addr:street": "Avenue Bégin",
      "amenity": "restaurant",
      "cuisine": "french;fish",
      "name": "L'intimiste",
      "outdoor_seating": "yes"
    },
    "geometry": {
      "type": "Point",
      "coordinates": [
        -71.182331,
        46.8075869
      ]
    },
    "id": "node/5777729053"
  },
  {
    "type": "Feature",
    "properties": {
      "@id": "node/5821198154",
      "addr:housenumber": "5151",
      "addr:postcode": "g1h3b1",
      "addr:street": "Boulevard Henri-Bourassa",
      "amenity": "restaurant",
      "cuisine": "grill;seafood;fish;barbecue",
      "internet_access": "wlan",
      "name": "Biceps BBQ",
      "name:en": "Chez Biceps BBQ",
      "name:fr": "Chez Biceps BBQ",
      "opening_hours": "Tu-Sa 17:00-23:00",
      "operator": "Vincent Chatigny et Jean-Simon Pouliot",
      "phone": "+1 418 914 5991",
      "website": "https://www.chezbicepsbbq.com"
    },
    "geometry": {
      "type": "Point",
      "coordinates": [
        -71.2470578,
        46.8504232
      ]
    },
    "id": "node/5821198154"
  },
  {
    "type": "Feature",
    "properties": {
      "@id": "node/5866604320",
      "addr:city": "Québec",
      "addr:housenumber": "2250",
      "addr:postcode": "G1C1J8",
      "addr:province": "QC",
      "addr:street": "Avenue Larue",
      "amenity": "restaurant",
      "capacity": "70",
      "cuisine": "american",
      "delivery": "yes",
      "name": "Au Coin De La Rue",
      "outdoor_seating": "yes",
      "takeaway": "yes"
    },
    "geometry": {
      "type": "Point",
      "coordinates": [
        -71.1636172,
        46.8883482
      ]
    },
    "id": "node/5866604320"
  },
  {
    "type": "Feature",
    "properties": {
      "@id": "node/5866614590",
      "amenity": "restaurant",
      "cuisine": "pizza",
      "name": "Pizza Royale"
    },
    "geometry": {
      "type": "Point",
      "coordinates": [
        -71.2517104,
        46.8147187
      ]
    },
    "id": "node/5866614590"
  },
  {
    "type": "Feature",
    "properties": {
      "@id": "node/5872134832",
      "amenity": "restaurant",
      "cuisine": "pizza",
      "name": "Brooklyn Pizza"
    },
    "geometry": {
      "type": "Point",
      "coordinates": [
        -71.3305217,
        46.8172059
      ]
    },
    "id": "node/5872134832"
  },
  {
    "type": "Feature",
    "properties": {
      "@id": "node/5895010308",
      "amenity": "restaurant",
      "cuisine": "burger",
      "name": "Frit's Burgers et Poutines"
    },
    "geometry": {
      "type": "Point",
      "coordinates": [
        -71.2822793,
        46.7863643
      ]
    },
    "id": "node/5895010308"
  },
  {
    "type": "Feature",
    "properties": {
      "@id": "node/5927841985",
      "addr:city": "Québec",
      "addr:province": "Québec",
      "amenity": "restaurant",
      "brand": "3 Brasseurs",
      "brand:wikidata": "Q3230326",
      "brand:wikipedia": "fr:Les 3 Brasseurs",
      "cuisine": "burger;pizza;seafood",
      "dog": "yes",
      "name": "3 Brasseurs",
      "name:en": "3 Brewers",
      "official_name": "Les 3 Brasseurs",
      "phone": "+14189146515",
      "website": "https://www.les3brasseurs.ca/"
    },
    "geometry": {
      "type": "Point",
      "coordinates": [
        -71.2790731,
        46.7729701
      ]
    },
    "id": "node/5927841985"
  },
  {
    "type": "Feature",
    "properties": {
      "@id": "node/5930472356",
      "amenity": "restaurant",
      "cuisine": "seafood",
      "name": "L'Ostrea"
    },
    "geometry": {
      "type": "Point",
      "coordinates": [
        -71.3102898,
        46.7572393
      ]
    },
    "id": "node/5930472356"
  },
  {
    "type": "Feature",
    "properties": {
      "@id": "node/6058945836",
      "addr:city": "Québec",
      "addr:housenumber": "136",
      "addr:province": "QC",
      "addr:street": "Rue Racine",
      "amenity": "restaurant",
      "cuisine": "pizza",
      "name": "Pizza Racine"
    },
    "geometry": {
      "type": "Point",
      "coordinates": [
        -71.3569549,
        46.853642
      ]
    },
    "id": "node/6058945836"
  },
  {
    "type": "Feature",
    "properties": {
      "@id": "node/6081329087",
      "addr:housenumber": "725",
      "addr:street": "Boulevard Lebourgneuf",
      "amenity": "restaurant",
      "cuisine": "sushi",
      "name": "Nicky Sushi",
      "opening_hours": "Mo-We 11:00-15:00; Th-Fr 11:00-19:00; Sa 15:00-19:00",
      "phone": "+14188458484",
      "website": "https://nickysushi.com/lebourgneuf/"
    },
    "geometry": {
      "type": "Point",
      "coordinates": [
        -71.279694,
        46.8426708
      ]
    },
    "id": "node/6081329087"
  },
  {
    "type": "Feature",
    "properties": {
      "@id": "node/6136370987",
      "addr:housenumber": "395",
      "addr:postcode": "G1K 7X4",
      "addr:street": "Rue de la Couronne",
      "amenity": "restaurant",
      "cuisine": "local;fine_dining",
      "name": "Table.",
      "operator": "Hôtel Pur",
      "phone": "+18002672002"
    },
    "geometry": {
      "type": "Point",
      "coordinates": [
        -71.223843,
        46.8145724
      ]
    },
    "id": "node/6136370987"
  },
  {
    "type": "Feature",
    "properties": {
      "@id": "node/6150677286",
      "addr:housenumber": "105",
      "amenity": "restaurant",
      "cuisine": "indian",
      "name": "Cari Doré",
      "name:en": "Cari Doré",
      "phone": "+1 418 914 1497"
    },
    "geometry": {
      "type": "Point",
      "coordinates": [
        -71.228644,
        46.8057307
      ]
    },
    "id": "node/6150677286"
  },
  {
    "type": "Feature",
    "properties": {
      "@id": "node/6221945725",
      "addr:city": "Québec",
      "addr:country": "CA",
      "addr:housenumber": "26",
      "addr:postcode": "G1R 3Y9",
      "addr:province": "Québec",
      "addr:street": "Rue Saint-Louis",
      "amenity": "restaurant",
      "cuisine": "french",
      "name": "Le Continental",
      "outdoor_seating": "no",
      "phone": "+1-418-694-9995",
      "website": "http://www.restaurantlecontinental.com"
    },
    "geometry": {
      "type": "Point",
      "coordinates": [
        -71.2069375,
        46.8118992
      ]
    },
    "id": "node/6221945725"
  },
  {
    "type": "Feature",
    "properties": {
      "@id": "node/6282238185",
      "addr:housenumber": "505",
      "addr:postcode": "G1K 3B7",
      "addr:street": "Rue Saint-Joseph Est",
      "amenity": "restaurant",
      "cuisine": "burger;international;irish;regional",
      "name": "London Jack"
    },
    "geometry": {
      "type": "Point",
      "coordinates": [
        -71.2233552,
        46.81451
      ]
    },
    "id": "node/6282238185"
  },
  {
    "type": "Feature",
    "properties": {
      "@id": "node/6422017190",
      "amenity": "restaurant",
      "cuisine": "indian",
      "name": "Les Délices Tendoori",
      "outdoor_seating": "yes"
    },
    "geometry": {
      "type": "Point",
      "coordinates": [
        -71.3220701,
        46.8115825
      ]
    },
    "id": "node/6422017190"
  },
  {
    "type": "Feature",
    "properties": {
      "@id": "node/6590929184",
      "amenity": "restaurant",
      "cuisine": "italian;pizza",
      "name": "Piazzetta"
    },
    "geometry": {
      "type": "Point",
      "coordinates": [
        -71.2254759,
        46.8138139
      ]
    },
    "id": "node/6590929184"
  },
  {
    "type": "Feature",
    "properties": {
      "@id": "node/6965004233",
      "amenity": "restaurant",
      "cuisine": "sushi",
      "name": "Sushi d'Eli"
    },
    "geometry": {
      "type": "Point",
      "coordinates": [
        -71.1489814,
        46.8148291
      ]
    },
    "id": "node/6965004233"
  },
  {
    "type": "Feature",
    "properties": {
      "@id": "node/7105919185",
      "amenity": "restaurant",
      "cuisine": "japanese;asian",
      "diet:vegetarian": "yes",
      "name": "Sésame"
    },
    "geometry": {
      "type": "Point",
      "coordinates": [
        -71.2970397,
        46.8337929
      ]
    },
    "id": "node/7105919185"
  },
  {
    "type": "Feature",
    "properties": {
      "@id": "node/7215503285",
      "addr:city": "Québec",
      "addr:housenumber": "2959",
      "addr:postcode": "G1V 2M2",
      "addr:province": "Québec",
      "addr:street": "Boulevard Laurier",
      "amenity": "restaurant",
      "cuisine": "steak_house",
      "internet_access": "wlan",
      "name": "Barbies Resto Bar Grill",
      "opening_hours": "Su-We 07:00-22:00; Th-Sa 07:00-23:00",
      "phone": "+1 (581) 491-3332",
      "website": "https://barbiesgrill.com/"
    },
    "geometry": {
      "type": "Point",
      "coordinates": [
        -71.290918,
        46.7653745
      ]
    },
    "id": "node/7215503285"
  },
  {
    "type": "Feature",
    "properties": {
      "@id": "node/7548782231",
      "addr:city": "Québec",
      "addr:housenumber": "184",
      "addr:postcode": "G1K 9A4",
      "addr:province": "QC",
      "addr:street": "Rue Saint-Vallier Ouest",
      "amenity": "restaurant",
      "cuisine": "peruvian",
      "name": "El Ceviche",
      "phone": "+1 418-906-7349"
    },
    "geometry": {
      "type": "Point",
      "coordinates": [
        -71.2346125,
        46.811922
      ]
    },
    "id": "node/7548782231"
  },
  {
    "type": "Feature",
    "properties": {
      "@id": "node/7891477345",
      "addr:city": "Québec",
      "addr:housenumber": "2750",
      "addr:province": "QC",
      "addr:street": "Chemin Sainte-Foy",
      "amenity": "restaurant",
      "cuisine": "lebanese",
      "name": "Le Cèdre Restaurant Libanais",
      "opening_hours": "Mo-Sa 11:00-21:00; Su 16:00-21:00",
      "phone": "+1 581 300-3002"
    },
    "geometry": {
      "type": "Point",
      "coordinates": [
        -71.300343,
        46.7812418
      ]
    },
    "id": "node/7891477345"
  },
  {
    "type": "Feature",
    "properties": {
      "@id": "node/7908643769",
      "addr:city": "Québec",
      "addr:housenumber": "303",
      "addr:postcode": "G1M 3L7",
      "addr:province": "QC",
      "addr:street": "Boulevard Pierre-Bertrand",
      "amenity": "restaurant",
      "bar": "no",
      "cuisine": "regional",
      "delivery": "no",
      "internet_access": "no",
      "level": "1",
      "microbrewery": "no",
      "name": "L’étrange Gourmand De L’Ile",
      "opening_hours": "Mo-Fr 07:00-16:00",
      "outdoor_seating": "no",
      "phone": "+1 581 995-4718"
    },
    "geometry": {
      "type": "Point",
      "coordinates": [
        -71.264009,
        46.8142216
      ]
    },
    "id": "node/7908643769"
  },
  {
    "type": "Feature",
    "properties": {
      "@id": "node/8258776617",
      "amenity": "restaurant",
      "brand": "Scores",
      "brand:wikidata": "Q3476059",
      "brand:wikipedia": "fr:Scores",
      "cuisine": "chicken;barbecue",
      "name": "Scores"
    },
    "geometry": {
      "type": "Point",
      "coordinates": [
        -71.1563646,
        46.7874798
      ]
    },
    "id": "node/8258776617"
  },
  {
    "type": "Feature",
    "properties": {
      "@id": "node/8430559097",
      "addr:city": "Québec",
      "addr:housenumber": "11150",
      "addr:postcode": "G2A2M5",
      "addr:province": "QC",
      "addr:street": "Boulevard Valcartier",
      "amenity": "restaurant",
      "cuisine": "chinese",
      "name": "Restaurant Le Wok",
      "opening_hours": "16h à 23h du lundi au vendredi",
      "phone": "+14188472221"
    },
    "geometry": {
      "type": "Point",
      "coordinates": [
        -71.3591037,
        46.8535498
      ]
    },
    "id": "node/8430559097"
  },
  {
    "type": "Feature",
    "properties": {
      "@id": "node/8663668313",
      "amenity": "restaurant",
      "cuisine": "asian",
      "name": "Bali Lotus"
    },
    "geometry": {
      "type": "Point",
      "coordinates": [
        -71.3155577,
        46.7728196
      ]
    },
    "id": "node/8663668313"
  },
  {
    "type": "Feature",
    "properties": {
      "@id": "node/8894836526",
      "addr:housenumber": "577",
      "addr:postcode": "G1N2B7",
      "addr:street": "Boulevard Charest Ouest",
      "amenity": "restaurant",
      "cuisine": "breakfast",
      "name": "Kalimera",
      "opening_hours": "Mo-Su 07:00-15:00",
      "phone": "1 418 523-2727",
      "website": "http://www.restaurantkalimera.com/"
    },
    "geometry": {
      "type": "Point",
      "coordinates": [
        -71.2386657,
        46.8072408
      ]
    },
    "id": "node/8894836526"
  },
  {
    "type": "Feature",
    "properties": {
      "@id": "node/8913617318",
      "addr:city": "Québec",
      "addr:housenumber": "485",
      "addr:postcode": "G1K 1L1",
      "addr:province": "Québec",
      "addr:street": "Rue Saint-Vallier Ouest",
      "amenity": "restaurant",
      "cuisine": "pizza",
      "email": "pizzazorg@gmail.com",
      "name": "Pizzazorg",
      "opening_hours": "We-Sa 16:30-22:00",
      "phone": "+1-581-491-3777",
      "survey:date": "2021-07-12",
      "website": "https://www.pizzazorg.com/"
    },
    "geometry": {
      "type": "Point",
      "coordinates": [
        -71.2405543,
        46.810978
      ]
    },
    "id": "node/8913617318"
  },
  {
    "type": "Feature",
    "properties": {
      "@id": "node/8913627717",
      "addr:city": "Québec",
      "addr:housenumber": "450",
      "addr:postcode": "G1K 1L1",
      "addr:province": "Québec",
      "addr:street": "Rue Saint-Vallier Ouest",
      "amenity": "restaurant",
      "cuisine": "american",
      "name": "Diner Saint-Sauveur",
      "opening_hours": "Mo-Su 17:00-23:00",
      "phone": "+1-581-741-4090",
      "survey:date": "2021-07-12",
      "website": "https://www.dinersaintsauveur.ca/"
    },
    "geometry": {
      "type": "Point",
      "coordinates": [
        -71.2401235,
        46.8114094
      ]
    },
    "id": "node/8913627717"
  },
  {
    "type": "Feature",
    "properties": {
      "@id": "node/6539614585",
      "addr:street": "Rue Sous-le-Fort",
      "amenity": "pub",
      "cuisine": "coffee_shop",
      "internet_access": "wlan",
      "name": "Le Pub des Borgia"
    },
    "geometry": {
      "type": "Point",
      "coordinates": [
        -71.2036373,
        46.8126345
      ]
    },
    "id": "node/6539614585"
  },
  {
    "type": "Feature",
    "properties": {
      "@id": "node/6030952685",
      "addr:housenumber": "240",
      "addr:postcode": "G1K 3A9",
      "addr:street": "Rue Saint-Joseph Est",
      "amenity": "bar",
      "cuisine": "friture;pasta",
      "name": "District Saint-Joseph",
      "opening_hours": "Tu-Fr 11:00-03:00; Sa 17:00-03:00",
      "website": "http://districtsaintjoseph.ca"
    },
    "geometry": {
      "type": "Point",
      "coordinates": [
        -71.2278838,
        46.8132993
      ]
    },
    "id": "node/6030952685"
  },
  {
    "type": "Feature",
    "properties": {
      "@id": "node/4296900294",
      "addr:city": "Québec",
      "addr:housenumber": "375",
      "addr:postcode": "G1K 3B3",
      "addr:province": "QC",
      "addr:street": "Rue Saint-Joseph Est",
      "amenity": "cafe",
      "cuisine": "coffee_shop",
      "internet_access": "wlan",
      "name": "Les Brûleries Saint-Roch",
      "phone": "+1 418-704-4420",
      "website": "https://lesbruleries.com/"
    },
    "geometry": {
      "type": "Point",
      "coordinates": [
        -71.2253627,
        46.8138697
      ]
    },
    "id": "node/4296900294"
  },
  {
    "type": "Feature",
    "properties": {
      "@id": "node/5000059810",
      "addr:city": "Sainte-Pétronille",
      "addr:housenumber": "8700",
      "addr:street": "Chemin Royal",
      "amenity": "cafe",
      "cuisine": "coffee_shop",
      "name": "Café Boutique La Maison Smith"
    },
    "geometry": {
      "type": "Point",
      "coordinates": [
        -71.116043,
        46.8612525
      ]
    },
    "id": "node/5000059810"
  },
  {
    "type": "Feature",
    "properties": {
      "@id": "node/5242327896",
      "addr:housenumber": "1394",
      "addr:postcode": "G1T 1Z3",
      "addr:street": "Avenue Maguire",
      "amenity": "cafe",
      "brand": "Tim Hortons",
      "brand:wikidata": "Q175106",
      "brand:wikipedia": "en:Tim Hortons",
      "cuisine": "coffee_shop",
      "internet_access": "wlan",
      "name": "Tim Hortons",
      "opening_hours": "Mo-Su 06:00-23:00",
      "phone": "+1-418-572-2539",
      "takeaway": "yes",
      "website": "https://www.timhortons.com/"
    },
    "geometry": {
      "type": "Point",
      "coordinates": [
        -71.2507433,
        46.7806006
      ]
    },
    "id": "node/5242327896"
  },
  {
    "type": "Feature",
    "properties": {
      "@id": "node/5248225822",
      "addr:city": "Québec",
      "addr:housenumber": "1298",
      "addr:province": "Québec",
      "addr:street": "Avenue Maguire",
      "amenity": "cafe",
      "cuisine": "coffee_shop",
      "name": "Café Castelo",
      "phone": "+1-418-684-0480"
    },
    "geometry": {
      "type": "Point",
      "coordinates": [
        -71.251919,
        46.7814923
      ]
    },
    "id": "node/5248225822"
  },
  {
    "type": "Feature",
    "properties": {
      "@id": "node/5420963885",
      "addr:city": "Québec",
      "addr:housenumber": "367",
      "addr:postcode": "G1M 1A5",
      "addr:province": "QC",
      "addr:street": "Rue Soumande",
      "amenity": "cafe",
      "cuisine": "coffee_shop",
      "description": "C’est un endroit unique en son genre, un lieu où, comme dans un peloton, le groupe nous rend plus forts que lorsque nous bataillons seuls contre les éléments.",
      "email": "info@velocartel.cc",
      "internet_access": "wlan",
      "internet_access:ssid": "VeloCartelCafe-Guests",
      "name": "Vélo Cartel - Café Cycliste",
      "smoking": "no",
      "website": "https://www.velocartel.blog/"
    },
    "geometry": {
      "type": "Point",
      "coordinates": [
        -71.2554596,
        46.8197936
      ]
    },
    "id": "node/5420963885"
  },
  {
    "type": "Feature",
    "properties": {
      "@id": "node/5638867521",
      "addr:housenumber": "3235",
      "addr:postcode": "G1W 2K9",
      "addr:street": "Chemin des Quatre-Bourgeois",
      "amenity": "cafe",
      "brand": "Tim Hortons",
      "brand:wikidata": "Q175106",
      "brand:wikipedia": "en:Tim Hortons",
      "cuisine": "coffee_shop;donut",
      "name": "Tim Hortons",
      "opening_hours": "24/7",
      "phone": "+1 418 650 9449",
      "website": "https://locations.timhortons.com"
    },
    "geometry": {
      "type": "Point",
      "coordinates": [
        -71.3105126,
        46.7666967
      ]
    },
    "id": "node/5638867521"
  },
  {
    "type": "Feature",
    "properties": {
      "@id": "node/5887744185",
      "addr:housenumber": "1143",
      "addr:street": "Rue Saint-Jean",
      "amenity": "cafe",
      "cuisine": "coffee_shop",
      "name": "La Maison Smith"
    },
    "geometry": {
      "type": "Point",
      "coordinates": [
        -71.2101593,
        46.814098
      ]
    },
    "id": "node/5887744185"
  },
  {
    "type": "Feature",
    "properties": {
      "@id": "node/6965004232",
      "amenity": "cafe",
      "cuisine": "coffee_shop",
      "internet_access": "yes",
      "name": "ES Café Lauzon",
      "outdoor_seating": "no"
    },
    "geometry": {
      "type": "Point",
      "coordinates": [
        -71.1485261,
        46.814965
      ]
    },
    "id": "node/6965004232"
  },
  {
    "type": "Feature",
    "properties": {
      "@id": "node/7893944672",
      "addr:city": "Québec",
      "addr:housenumber": "2880",
      "addr:postcode": "G1v 4x7",
      "addr:street": "Chemin des Quatre-Bourgeois",
      "air_conditioning": "yes",
      "amenity": "cafe",
      "bar": "no",
      "cuisine": "coffee_shop",
      "name": "Isabelle La Cafetière",
      "outdoor_seating": "no",
      "phone": "+1 418 651-9007",
      "smoking": "no",
      "takeaway": "yes",
      "wheelchair": "yes"
    },
    "geometry": {
      "type": "Point",
      "coordinates": [
        -71.3006682,
        46.7741164
      ]
    },
    "id": "node/7893944672"
  },
  {
    "type": "Feature",
    "properties": {
      "@id": "node/8228333221",
      "amenity": "cafe",
      "brand": "Tim Hortons",
      "brand:wikidata": "Q175106",
      "brand:wikipedia": "en:Tim Hortons",
      "cuisine": "coffee_shop",
      "name": "Tim Hortons",
      "takeaway": "yes"
    },
    "geometry": {
      "type": "Point",
      "coordinates": [
        -71.3221896,
        46.8785912
      ]
    },
    "id": "node/8228333221"
  },
  {
    "type": "Feature",
    "properties": {
      "@id": "node/8258701516",
      "amenity": "cafe",
      "brand": "Tim Hortons",
      "brand:wikidata": "Q175106",
      "brand:wikipedia": "en:Tim Hortons",
      "cuisine": "coffee_shop",
      "name": "Tim Hortons",
      "takeaway": "yes"
    },
    "geometry": {
      "type": "Point",
      "coordinates": [
        -71.1565139,
        46.7873348
      ]
    },
    "id": "node/8258701516"
  },
  {
    "type": "Feature",
    "properties": {
      "@id": "node/4296900291",
      "addr:city": "Québec",
      "addr:housenumber": "332",
      "addr:postcode": "G1K 6A2",
      "addr:province": "QC",
      "addr:street": "Rue Dorchester",
      "amenity": "fast_food",
      "cuisine": "regional",
      "delivery": "no",
      "name": "Casse-Croute Chez Gaston",
      "phone": "+1 418 523-0677"
    },
    "geometry": {
      "type": "Point",
      "coordinates": [
        -71.2274594,
        46.8143108
      ]
    },
    "id": "node/4296900291"
  },
  {
    "type": "Feature",
    "properties": {
      "@id": "node/4296900292",
      "addr:city": "Québec",
      "addr:housenumber": "356",
      "addr:postcode": "G1K 6A4",
      "addr:province": "QC",
      "addr:street": "Rue Dorchester",
      "amenity": "fast_food",
      "cuisine": "pizza",
      "delivery": "yes",
      "name": "Toujours 2 Pour 1 Pizzas",
      "phone": "+1 418-522-9999",
      "takeaway": "yes"
    },
    "geometry": {
      "type": "Point",
      "coordinates": [
        -71.2271617,
        46.8140758
      ]
    },
    "id": "node/4296900292"
  },
  {
    "type": "Feature",
    "properties": {
      "@id": "node/4343236968",
      "addr:city": "Québec",
      "addr:housenumber": "331",
      "addr:province": "QC",
      "addr:street": "Rue Saint-Joseph Est",
      "amenity": "fast_food",
      "brand": "Sushi Shop",
      "brand:wikidata": "Q64840990",
      "cuisine": "sushi",
      "name": "Sushi Shop",
      "opening_hours": "Sa-We 11:00-20:00; Th-Fr 11:00-21:00",
      "takeaway": "yes"
    },
    "geometry": {
      "type": "Point",
      "coordinates": [
        -71.2258223,
        46.8137054
      ]
    },
    "id": "node/4343236968"
  },
  {
    "type": "Feature",
    "properties": {
      "@id": "node/4453893778",
      "addr:city": "Québec",
      "addr:housenumber": "1191",
      "addr:postcode": "G1R 2G9",
      "addr:province": "Québec",
      "addr:street": "Avenue Cartier",
      "amenity": "fast_food",
      "cuisine": "burger",
      "name": "Burger Cartier"
    },
    "geometry": {
      "type": "Point",
      "coordinates": [
        -71.224272,
        46.8026727
      ]
    },
    "id": "node/4453893778"
  },
  {
    "type": "Feature",
    "properties": {
      "@id": "node/4721380254",
      "amenity": "fast_food",
      "brand": "McDonald's",
      "brand:wikidata": "Q38076",
      "brand:wikipedia": "en:McDonald's",
      "cuisine": "burger",
      "name": "McDonald's",
      "takeaway": "yes"
    },
    "geometry": {
      "type": "Point",
      "coordinates": [
        -71.3478648,
        46.7822312
      ]
    },
    "id": "node/4721380254"
  },
  {
    "type": "Feature",
    "properties": {
      "@id": "node/4775977566",
      "addr:city": "Québec",
      "addr:housenumber": "1974",
      "addr:postcode": "G3E 1L5",
      "addr:province": "Québec",
      "addr:street": "Rue de la Faune",
      "amenity": "fast_food",
      "cuisine": "fast_food",
      "drive_through": "no",
      "name": "Le Coin de la Patate"
    },
    "geometry": {
      "type": "Point",
      "coordinates": [
        -71.3333782,
        46.872999
      ]
    },
    "id": "node/4775977566"
  },
  {
    "type": "Feature",
    "properties": {
      "@id": "node/5060622631",
      "amenity": "fast_food",
      "brand": "Subway",
      "brand:wikidata": "Q244457",
      "brand:wikipedia": "en:Subway (restaurant)",
      "cuisine": "sandwich",
      "name": "Subway",
      "takeaway": "yes"
    },
    "geometry": {
      "type": "Point",
      "coordinates": [
        -71.2055568,
        46.813414
      ]
    },
    "id": "node/5060622631"
  },
  {
    "type": "Feature",
    "properties": {
      "@id": "node/5158292622",
      "addr:housenumber": "1983",
      "addr:postcode": "G1S 1J7",
      "addr:street": "Rue de Bergerville",
      "amenity": "fast_food",
      "cuisine": "friture",
      "drive_through": "no",
      "name": "Pat Rétro",
      "phone": "+1-418-681-8536",
      "website": "http://patretro.com"
    },
    "geometry": {
      "type": "Point",
      "coordinates": [
        -71.2497503,
        46.7797643
      ]
    },
    "id": "node/5158292622"
  },
  {
    "type": "Feature",
    "properties": {
      "@id": "node/5261150826",
      "amenity": "fast_food",
      "brand": "St-Hubert",
      "brand:wikidata": "Q3495225",
      "brand:wikipedia": "en:St-Hubert",
      "cuisine": "chicken;barbecue",
      "name": "St-Hubert Express",
      "takeaway": "yes"
    },
    "geometry": {
      "type": "Point",
      "coordinates": [
        -71.3021319,
        46.7799137
      ]
    },
    "id": "node/5261150826"
  },
  {
    "type": "Feature",
    "properties": {
      "@id": "node/5261184340",
      "amenity": "fast_food",
      "brand": "Domino's",
      "brand:wikidata": "Q839466",
      "brand:wikipedia": "en:Domino's Pizza",
      "cuisine": "pizza",
      "name": "Domino's",
      "takeaway": "yes"
    },
    "geometry": {
      "type": "Point",
      "coordinates": [
        -71.2978884,
        46.781238
      ]
    },
    "id": "node/5261184340"
  },
  {
    "type": "Feature",
    "properties": {
      "@id": "node/5866598285",
      "addr:city": "Québec",
      "addr:housenumber": "2577",
      "addr:postcode": "G1C1S3",
      "addr:province": "qc",
      "addr:street": "Avenue Royale",
      "amenity": "fast_food",
      "brand": "McDonald's",
      "brand:wikidata": "Q38076",
      "brand:wikipedia": "en:McDonald's",
      "cuisine": "burger",
      "drive_through": "yes",
      "name": "McDonald's",
      "outdoor_seating": "yes",
      "takeaway": "yes"
    },
    "geometry": {
      "type": "Point",
      "coordinates": [
        -71.1497824,
        46.8917851
      ]
    },
    "id": "node/5866598285"
  },
  {
    "type": "Feature",
    "properties": {
      "@id": "node/6424511312",
      "amenity": "fast_food",
      "cuisine": "sushi",
      "name": "Yuzi Sushi"
    },
    "geometry": {
      "type": "Point",
      "coordinates": [
        -71.2495096,
        46.8177914
      ]
    },
    "id": "node/6424511312"
  },
  {
    "type": "Feature",
    "properties": {
      "@id": "node/6434912153",
      "amenity": "fast_food",
      "cuisine": "sandwich",
      "name": "Subway"
    },
    "geometry": {
      "type": "Point",
      "coordinates": [
        -71.1716384,
        46.8882335
      ]
    },
    "id": "node/6434912153"
  },
  {
    "type": "Feature",
    "properties": {
      "@id": "node/6448889255",
      "amenity": "fast_food",
      "cuisine": "pasta",
      "name": "Topla!"
    },
    "geometry": {
      "type": "Point",
      "coordinates": [
        -71.3555038,
        46.8364
      ]
    },
    "id": "node/6448889255"
  },
  {
    "type": "Feature",
    "properties": {
      "@id": "node/6517545579",
      "addr:city": "lévis",
      "addr:housenumber": "2301",
      "addr:postcode": "g6w2s2",
      "addr:province": "lévis",
      "addr:street": "Boulevard Guillaume-Couture",
      "amenity": "fast_food",
      "brand": "Chez Ashton",
      "brand:wikidata": "Q2963156",
      "cuisine": "poutine;burger",
      "name": "Chez Ashton"
    },
    "geometry": {
      "type": "Point",
      "coordinates": [
        -71.2320409,
        46.7559483
      ]
    },
    "id": "node/6517545579"
  },
  {
    "type": "Feature",
    "properties": {
      "@id": "node/7131569633",
      "amenity": "fast_food",
      "brand": "A&W",
      "brand:wikidata": "Q2818848",
      "brand:wikipedia": "en:A&W (Canada)",
      "cuisine": "burger",
      "name": "A&W",
      "takeaway": "yes"
    },
    "geometry": {
      "type": "Point",
      "coordinates": [
        -71.383844,
        46.7917147
      ]
    },
    "id": "node/7131569633"
  },
  {
    "type": "Feature",
    "properties": {
      "@id": "node/7131579643",
      "amenity": "fast_food",
      "cuisine": "pizza",
      "name": "Pidz"
    },
    "geometry": {
      "type": "Point",
      "coordinates": [
        -71.3838001,
        46.7919357
      ]
    },
    "id": "node/7131579643"
  },
  {
    "type": "Feature",
    "properties": {
      "@id": "node/7571649096",
      "addr:city": "Québec",
      "addr:housenumber": "1560",
      "addr:postcode": "G2K 2M4",
      "addr:province": "Québec",
      "addr:street": "Boulevard Lebourgneuf",
      "amenity": "fast_food",
      "brand": "Krispy Kreme",
      "brand:wikidata": "Q1192805",
      "brand:wikipedia": "en:Krispy Kreme",
      "cuisine": "donut",
      "drive_through": "yes",
      "name": "Krispy Kreme",
      "takeaway": "yes"
    },
    "geometry": {
      "type": "Point",
      "coordinates": [
        -71.3014561,
        46.8342173
      ]
    },
    "id": "node/7571649096"
  },
  {
    "type": "Feature",
    "properties": {
      "@id": "node/7816043286",
      "amenity": "fast_food",
      "brand": "Subway",
      "brand:wikidata": "Q244457",
      "cuisine": "sandwich",
      "name": "Subway",
      "takeaway": "yes"
    },
    "geometry": {
      "type": "Point",
      "coordinates": [
        -71.1961067,
        46.7743474
      ]
    },
    "id": "node/7816043286"
  },
  {
    "type": "Feature",
    "properties": {
      "@id": "node/7816043290",
      "amenity": "fast_food",
      "brand": "McDonald's",
      "brand:wikidata": "Q38076",
      "cuisine": "burger",
      "name": "McDonald's"
    },
    "geometry": {
      "type": "Point",
      "coordinates": [
        -71.1507452,
        46.8142065
      ]
    },
    "id": "node/7816043290"
  },
  {
    "type": "Feature",
    "properties": {
      "@id": "node/7965356670",
      "amenity": "fast_food",
      "brand": "Subway",
      "brand:wikidata": "Q244457",
      "brand:wikipedia": "en:Subway (restaurant)",
      "cuisine": "sandwich",
      "name": "Subway",
      "takeaway": "yes"
    },
    "geometry": {
      "type": "Point",
      "coordinates": [
        -71.287256,
        46.7828711
      ]
    },
    "id": "node/7965356670"
  },
  {
    "type": "Feature",
    "properties": {
      "@id": "node/7967507850",
      "amenity": "fast_food",
      "cuisine": "sandwich",
      "name": "Saladshop"
    },
    "geometry": {
      "type": "Point",
      "coordinates": [
        -71.2824318,
        46.7866961
      ]
    },
    "id": "node/7967507850"
  },
  {
    "type": "Feature",
    "properties": {
      "@id": "node/8003757135",
      "amenity": "fast_food",
      "brand": "Thaï Express",
      "brand:wikidata": "Q7711610",
      "brand:wikipedia": "en:Thaï Express",
      "cuisine": "thai",
      "name": "Thaï Express",
      "takeaway": "yes"
    },
    "geometry": {
      "type": "Point",
      "coordinates": [
        -71.3291822,
        46.8032383
      ]
    },
    "id": "node/8003757135"
  },
  {
    "type": "Feature",
    "properties": {
      "@id": "node/8082683191",
      "amenity": "fast_food",
      "cuisine": "pizza",
      "name": "Pizzéria 67"
    },
    "geometry": {
      "type": "Point",
      "coordinates": [
        -71.1935173,
        46.7805182
      ]
    },
    "id": "node/8082683191"
  },
  {
    "type": "Feature",
    "properties": {
      "@id": "node/8195788850",
      "addr:housenumber": "2431",
      "addr:street": "Boulevard Louis-XIV",
      "amenity": "fast_food",
      "contact:phone": "+1 418 666 1999",
      "cuisine": "chicken",
      "name": "Rôtisserie Fusée"
    },
    "geometry": {
      "type": "Point",
      "coordinates": [
        -71.207757,
        46.8969767
      ]
    },
    "id": "node/8195788850"
  },
  {
    "type": "Feature",
    "properties": {
      "@id": "node/8857277417",
      "amenity": "fast_food",
      "cuisine": "sandwich",
      "diet:vegetarian": "yes",
      "name": "Franky Johnny",
      "opening_hours": "Tu-Su 11:00-15:00",
      "outdoor_seating": "street",
      "phone": "(418) 524-5660",
      "survey:date": "2021-06-22",
      "takeaway": "yes"
    },
    "geometry": {
      "type": "Point",
      "coordinates": [
        -71.2352246,
        46.8119585
      ]
    },
    "id": "node/8857277417"
  },
  {
    "type": "Feature",
    "properties": {
      "@id": "node/8886498121",
      "addr:city": "Québec",
      "addr:housenumber": "696",
      "addr:postcode": "G1N 1C8",
      "addr:province": "Québec",
      "addr:street": "Rue Saint-Vallier Ouest",
      "amenity": "fast_food",
      "brand": "Subway",
      "brand:wikidata": "Q244457",
      "brand:wikipedia": "en:Subway (restaurant)",
      "cuisine": "sandwich",
      "name": "Subway",
      "opening_hours": "Mo-Fr 08:30-21:00; Sa-Su 09:00-21:00",
      "phone": "(418) 977-5307",
      "takeaway": "yes",
      "website": "https://restaurants.subway.com/canada/qc/quebec/696-st-vallier-ouest"
    },
    "geometry": {
      "type": "Point",
      "coordinates": [
        -71.2466879,
        46.809561
      ]
    },
    "id": "node/8886498121"
  }
]